UNIQUEID,ADDRESSLINE1,ADDRESSLINE2,CITY,STATE,POSTALCODE,COUNTRY,TERRITORY
4480,2304 Long Airport Avenue,,Nashua,NH,62005,USA,NA
1130,2304 Long Airport Avenue,,Nashua,NH,62005,USA,NA
3100,2304 Long Airport Avenue,,Nashua,NH,62005,USA,NA
5209,2304 Long Airport Avenue,,Nashua,NH,62005,USA,NA
1967,Lyonerstr. 34,,Frankfurt,,60528,Germany,EMEA
4199,Lyonerstr. 34,,Frankfurt,,60528,Germany,EMEA
4493,Lyonerstr. 34,,Frankfurt,,60528,Germany,EMEA
3720,Lyonerstr. 34,,Frankfurt,,60528,Germany,EMEA
2365,2678 Kingston Rd.,Suite 101,NYC,NY,10022,USA,NA
2480,2678 Kingston Rd.,Suite 101,NYC,NY,10022,USA,NA
4179,Erling Skakkes gate 78,,Stavern,,4110,Norway,EMEA
4427,Erling Skakkes gate 78,,Stavern,,4110,Norway,EMEA
5193,Erling Skakkes gate 78,,Stavern,,4110,Norway,EMEA
2847,Erling Skakkes gate 78,,Stavern,,4110,Norway,EMEA
2418,Erling Skakkes gate 78,,Stavern,,4110,Norway,EMEA
1700,Erling Skakkes gate 78,,Stavern,,4110,Norway,EMEA
4785,Erling Skakkes gate 78,,Stavern,,4110,Norway,EMEA
1004,Erling Skakkes gate 78,,Stavern,,4110,Norway,EMEA
3909,Erling Skakkes gate 78,,Stavern,,4110,Norway,EMEA
3895,Erling Skakkes gate 78,,Stavern,,4110,Norway,EMEA
4279,Erling Skakkes gate 78,,Stavern,,4110,Norway,EMEA
3688,Erling Skakkes gate 78,,Stavern,,4110,Norway,EMEA
4915,Erling Skakkes gate 78,,Stavern,,4110,Norway,EMEA
5806,Erling Skakkes gate 78,,Stavern,,4110,Norway,EMEA
2484,Erling Skakkes gate 78,,Stavern,,4110,Norway,EMEA
4364,Erling Skakkes gate 78,,Stavern,,4110,Norway,EMEA
5869,"C/ Moralzarzal, 86",,Madrid,,28034,Spain,EMEA
3666,"C/ Moralzarzal, 86",,Madrid,,28034,Spain,EMEA
3422,"C/ Moralzarzal, 86",,Madrid,,28034,Spain,EMEA
5716,"C/ Moralzarzal, 86",,Madrid,,28034,Spain,EMEA
4841,"C/ Moralzarzal, 86",,Madrid,,28034,Spain,EMEA
4190,"C/ Moralzarzal, 86",,Madrid,,28034,Spain,EMEA
4900,"C/ Moralzarzal, 86",,Madrid,,28034,Spain,EMEA
4114,"C/ Moralzarzal, 86",,Madrid,,28034,Spain,EMEA
1551,"C/ Moralzarzal, 86",,Madrid,,28034,Spain,EMEA
5285,"C/ Moralzarzal, 86",,Madrid,,28034,Spain,EMEA
3211,"C/ Moralzarzal, 86",,Madrid,,28034,Spain,EMEA
4823,"C/ Moralzarzal, 86",,Madrid,,28034,Spain,EMEA
2843,"C/ Moralzarzal, 86",,Madrid,,28034,Spain,EMEA
4560,Vinb'ltet 34,,Kobenhavn,,1734,Denmark,EMEA
5064,Vinb'ltet 34,,Kobenhavn,,1734,Denmark,EMEA
4645,Vinb'ltet 34,,Kobenhavn,,1734,Denmark,EMEA
4853,Vinb'ltet 34,,Kobenhavn,,1734,Denmark,EMEA
2315,Vinb'ltet 34,,Kobenhavn,,1734,Denmark,EMEA
3214,Vinb'ltet 34,,Kobenhavn,,1734,Denmark,EMEA
5518,Vinb'ltet 34,,Kobenhavn,,1734,Denmark,EMEA
2791,Vinb'ltet 34,,Kobenhavn,,1734,Denmark,EMEA
1995,Vinb'ltet 34,,Kobenhavn,,1734,Denmark,EMEA
4169,Vinb'ltet 34,,Kobenhavn,,1734,Denmark,EMEA
2889,Vinb'ltet 34,,Kobenhavn,,1734,Denmark,EMEA
3539,Vinb'ltet 34,,Kobenhavn,,1734,Denmark,EMEA
4188,Vinb'ltet 34,,Kobenhavn,,1734,Denmark,EMEA
4919,Vinb'ltet 34,,Kobenhavn,,1734,Denmark,EMEA
5442,Vinb'ltet 34,,Kobenhavn,,1734,Denmark,EMEA
2710,Via Ludovico il Moro 22,,Bergamo,,24100,Italy,EMEA
1719,Via Ludovico il Moro 22,,Bergamo,,24100,Italy,EMEA
5630,Via Ludovico il Moro 22,,Bergamo,,24100,Italy,EMEA
5580,Via Ludovico il Moro 22,,Bergamo,,24100,Italy,EMEA
5711,Via Ludovico il Moro 22,,Bergamo,,24100,Italy,EMEA
1541,Via Ludovico il Moro 22,,Bergamo,,24100,Italy,EMEA
1201,Via Ludovico il Moro 22,,Bergamo,,24100,Italy,EMEA
5402,Via Ludovico il Moro 22,,Bergamo,,24100,Italy,EMEA
2009,Via Ludovico il Moro 22,,Bergamo,,24100,Italy,EMEA
1804,Via Ludovico il Moro 22,,Bergamo,,24100,Italy,EMEA
3047,Via Ludovico il Moro 22,,Bergamo,,24100,Italy,EMEA
5481,Via Ludovico il Moro 22,,Bergamo,,24100,Italy,EMEA
3439,Via Ludovico il Moro 22,,Bergamo,,24100,Italy,EMEA
4107,Via Ludovico il Moro 22,,Bergamo,,24100,Italy,EMEA
4510,Via Ludovico il Moro 22,,Bergamo,,24100,Italy,EMEA
3332,Via Ludovico il Moro 22,,Bergamo,,24100,Italy,EMEA
1505,Via Ludovico il Moro 22,,Bergamo,,24100,Italy,EMEA
2562,Via Ludovico il Moro 22,,Bergamo,,24100,Italy,EMEA
2420,897 Long Airport Avenue,,NYC,NY,10022,USA,NA
3005,897 Long Airport Avenue,,NYC,NY,10022,USA,NA
5262,897 Long Airport Avenue,,NYC,NY,10022,USA,NA
2968,897 Long Airport Avenue,,NYC,NY,10022,USA,NA
1423,897 Long Airport Avenue,,NYC,NY,10022,USA,NA
2174,897 Long Airport Avenue,,NYC,NY,10022,USA,NA
1950,897 Long Airport Avenue,,NYC,NY,10022,USA,NA
5457,897 Long Airport Avenue,,NYC,NY,10022,USA,NA
3406,15 McCallum Street - NatWest Center #13-03,,Makati City,,1227 MM,Philippines,Japan
1947,15 McCallum Street - NatWest Center #13-03,,Makati City,,1227 MM,Philippines,Japan
2415,15 McCallum Street - NatWest Center #13-03,,Makati City,,1227 MM,Philippines,Japan
3875,15 McCallum Street - NatWest Center #13-03,,Makati City,,1227 MM,Philippines,Japan
3504,15 McCallum Street - NatWest Center #13-03,,Makati City,,1227 MM,Philippines,Japan
2034,15 McCallum Street - NatWest Center #13-03,,Makati City,,1227 MM,Philippines,Japan
3335,15 McCallum Street - NatWest Center #13-03,,Makati City,,1227 MM,Philippines,Japan
5886,15 McCallum Street - NatWest Center #13-03,,Makati City,,1227 MM,Philippines,Japan
3596,15 McCallum Street - NatWest Center #13-03,,Makati City,,1227 MM,Philippines,Japan
2130,15 McCallum Street - NatWest Center #13-03,,Makati City,,1227 MM,Philippines,Japan
5768,15 McCallum Street - NatWest Center #13-03,,Makati City,,1227 MM,Philippines,Japan
3822,15 McCallum Street - NatWest Center #13-03,,Makati City,,1227 MM,Philippines,Japan
5424,15 McCallum Street - NatWest Center #13-03,,Makati City,,1227 MM,Philippines,Japan
4957,15 McCallum Street - NatWest Center #13-03,,Makati City,,1227 MM,Philippines,Japan
3799,15 McCallum Street - NatWest Center #13-03,,Makati City,,1227 MM,Philippines,Japan
3675,15 McCallum Street - NatWest Center #13-03,,Makati City,,1227 MM,Philippines,Japan
5455,11328 Douglas Av.,,Philadelphia,PA,71270,USA,NA
4264,11328 Douglas Av.,,Philadelphia,PA,71270,USA,NA
5597,11328 Douglas Av.,,Philadelphia,PA,71270,USA,NA
4860,11328 Douglas Av.,,Philadelphia,PA,71270,USA,NA
3026,11328 Douglas Av.,,Philadelphia,PA,71270,USA,NA
2874,11328 Douglas Av.,,Philadelphia,PA,71270,USA,NA
4000,Fauntleroy Circus,,Manchester,,EC2 5NT,UK,EMEA
5674,Fauntleroy Circus,,Manchester,,EC2 5NT,UK,EMEA
2645,Fauntleroy Circus,,Manchester,,EC2 5NT,UK,EMEA
2211,Fauntleroy Circus,,Manchester,,EC2 5NT,UK,EMEA
3498,Fauntleroy Circus,,Manchester,,EC2 5NT,UK,EMEA
3904,Fauntleroy Circus,,Manchester,,EC2 5NT,UK,EMEA
4153,Fauntleroy Circus,,Manchester,,EC2 5NT,UK,EMEA
2728,Fauntleroy Circus,,Manchester,,EC2 5NT,UK,EMEA
4010,Fauntleroy Circus,,Manchester,,EC2 5NT,UK,EMEA
5103,Fauntleroy Circus,,Manchester,,EC2 5NT,UK,EMEA
5173,Fauntleroy Circus,,Manchester,,EC2 5NT,UK,EMEA
2385,Fauntleroy Circus,,Manchester,,EC2 5NT,UK,EMEA
3278,Fauntleroy Circus,,Manchester,,EC2 5NT,UK,EMEA
5246,Fauntleroy Circus,,Manchester,,EC2 5NT,UK,EMEA
1395,Fauntleroy Circus,,Manchester,,EC2 5NT,UK,EMEA
3743,Fauntleroy Circus,,Manchester,,EC2 5NT,UK,EMEA
3160,Berguvsv„gen  8,,Lule,,S-958 22,Sweden,EMEA
3939,Berguvsv„gen  8,,Lule,,S-958 22,Sweden,EMEA
2272,5557 North Pendale Street,,San Francisco,CA,,USA,NA
2618,5557 North Pendale Street,,San Francisco,CA,,USA,NA
1068,5557 North Pendale Street,,San Francisco,CA,,USA,NA
2501,5557 North Pendale Street,,San Francisco,CA,,USA,NA
3779,5557 North Pendale Street,,San Francisco,CA,,USA,NA
4872,5557 North Pendale Street,,San Francisco,CA,,USA,NA
4289,5677 Strong St.,,San Rafael,CA,97562,USA,NA
5780,5677 Strong St.,,San Rafael,CA,97562,USA,NA
5691,5677 Strong St.,,San Rafael,CA,97562,USA,NA
4615,5677 Strong St.,,San Rafael,CA,97562,USA,NA
4990,"265, boulevard Charonne",,Paris,,75012,France,EMEA
1451,"265, boulevard Charonne",,Paris,,75012,France,EMEA
4691,"265, boulevard Charonne",,Paris,,75012,France,EMEA
3136,"265, boulevard Charonne",,Paris,,75012,France,EMEA
3705,"265, boulevard Charonne",,Paris,,75012,France,EMEA
4339,"265, boulevard Charonne",,Paris,,75012,France,EMEA
2743,"265, boulevard Charonne",,Paris,,75012,France,EMEA
1338,"265, boulevard Charonne",,Paris,,75012,France,EMEA
1318,"265, boulevard Charonne",,Paris,,75012,France,EMEA
3677,"265, boulevard Charonne",,Paris,,75012,France,EMEA
3942,5905 Pompton St.,Suite 750,NYC,NY,10022,USA,NA
1936,5905 Pompton St.,Suite 750,NYC,NY,10022,USA,NA
1696,5905 Pompton St.,Suite 750,NYC,NY,10022,USA,NA
5534,5905 Pompton St.,Suite 750,NYC,NY,10022,USA,NA
4463,5905 Pompton St.,Suite 750,NYC,NY,10022,USA,NA
3641,"Boulevard Tirou, 255",,Charleroi,,B-6000,Belgium,EMEA
3097,"Bronz Sok., Bronz Apt. 3/6 Tesvikiye",,Singapore,,79903,Singapore,Japan
3261,"Bronz Sok., Bronz Apt. 3/6 Tesvikiye",,Singapore,,79903,Singapore,Japan
1605,"Bronz Sok., Bronz Apt. 3/6 Tesvikiye",,Singapore,,79903,Singapore,Japan
4835,"Bronz Sok., Bronz Apt. 3/6 Tesvikiye",,Singapore,,79903,Singapore,Japan
4268,"Bronz Sok., Bronz Apt. 3/6 Tesvikiye",,Singapore,,79903,Singapore,Japan
3233,"Bronz Sok., Bronz Apt. 3/6 Tesvikiye",,Singapore,,79903,Singapore,Japan
5283,"Bronz Sok., Bronz Apt. 3/6 Tesvikiye",,Singapore,,79903,Singapore,Japan
2519,"Bronz Sok., Bronz Apt. 3/6 Tesvikiye",,Singapore,,79903,Singapore,Japan
1018,"Bronz Sok., Bronz Apt. 3/6 Tesvikiye",,Singapore,,79903,Singapore,Japan
1186,"Bronz Sok., Bronz Apt. 3/6 Tesvikiye",,Singapore,,79903,Singapore,Japan
4282,"Bronz Sok., Bronz Apt. 3/6 Tesvikiye",,Singapore,,79903,Singapore,Japan
3654,"Bronz Sok., Bronz Apt. 3/6 Tesvikiye",,Singapore,,79903,Singapore,Japan
3207,"Rambla de Catalu¤a, 23",,Barcelona,,8022,Spain,EMEA
1067,Geislweg 14,,Salzburg,,5020,Austria,EMEA
1823,Geislweg 14,,Salzburg,,5020,Austria,EMEA
4232,Geislweg 14,,Salzburg,,5020,Austria,EMEA
2208,Geislweg 14,,Salzburg,,5020,Austria,EMEA
2490,Geislweg 14,,Salzburg,,5020,Austria,EMEA
2114,Geislweg 14,,Salzburg,,5020,Austria,EMEA
3562,Geislweg 14,,Salzburg,,5020,Austria,EMEA
3829,Geislweg 14,,Salzburg,,5020,Austria,EMEA
3245,Geislweg 14,,Salzburg,,5020,Austria,EMEA
3887,Geislweg 14,,Salzburg,,5020,Austria,EMEA
3544,Geislweg 14,,Salzburg,,5020,Austria,EMEA
1637,Geislweg 14,,Salzburg,,5020,Austria,EMEA
3071,Geislweg 14,,Salzburg,,5020,Austria,EMEA
3834,Geislweg 14,,Salzburg,,5020,Austria,EMEA
1025,636 St Kilda Road,Level 3,Melbourne,Victoria,3004,Australia,APAC
4597,636 St Kilda Road,Level 3,Melbourne,Victoria,3004,Australia,APAC
5600,636 St Kilda Road,Level 3,Melbourne,Victoria,3004,Australia,APAC
1399,636 St Kilda Road,Level 3,Melbourne,Victoria,3004,Australia,APAC
5141,636 St Kilda Road,Level 3,Melbourne,Victoria,3004,Australia,APAC
2367,636 St Kilda Road,Level 3,Melbourne,Victoria,3004,Australia,APAC
5526,636 St Kilda Road,Level 3,Melbourne,Victoria,3004,Australia,APAC
4236,636 St Kilda Road,Level 3,Melbourne,Victoria,3004,Australia,APAC
3150,636 St Kilda Road,Level 3,Melbourne,Victoria,3004,Australia,APAC
5400,636 St Kilda Road,Level 3,Melbourne,Victoria,3004,Australia,APAC
3668,636 St Kilda Road,Level 3,Melbourne,Victoria,3004,Australia,APAC
5361,636 St Kilda Road,Level 3,Melbourne,Victoria,3004,Australia,APAC
3898,636 St Kilda Road,Level 3,Melbourne,Victoria,3004,Australia,APAC
2934,636 St Kilda Road,Level 3,Melbourne,Victoria,3004,Australia,APAC
1707,636 St Kilda Road,Level 3,Melbourne,Victoria,3004,Australia,APAC
5189,59 rue de l'Abbaye,,Reims,,51100,France,EMEA
1941,59 rue de l'Abbaye,,Reims,,51100,France,EMEA
1435,59 rue de l'Abbaye,,Reims,,51100,France,EMEA
5663,59 rue de l'Abbaye,,Reims,,51100,France,EMEA
4846,59 rue de l'Abbaye,,Reims,,51100,France,EMEA
2172,"12, rue des Bouchers",,Marseille,,13008,France,EMEA
1289,"12, rue des Bouchers",,Marseille,,13008,France,EMEA
3542,"12, rue des Bouchers",,Marseille,,13008,France,EMEA
1474,"12, rue des Bouchers",,Marseille,,13008,France,EMEA
5081,"12, rue des Bouchers",,Marseille,,13008,France,EMEA
1745,"12, rue des Bouchers",,Marseille,,13008,France,EMEA
2752,"12, rue des Bouchers",,Marseille,,13008,France,EMEA
5892,"12, rue des Bouchers",,Marseille,,13008,France,EMEA
1352,"12, rue des Bouchers",,Marseille,,13008,France,EMEA
2616,"12, rue des Bouchers",,Marseille,,13008,France,EMEA
2643,"12, rue des Bouchers",,Marseille,,13008,France,EMEA
3382,"12, rue des Bouchers",,Marseille,,13008,France,EMEA
4392,"12, rue des Bouchers",,Marseille,,13008,France,EMEA
1857,"12, rue des Bouchers",,Marseille,,13008,France,EMEA
5500,"12, rue des Bouchers",,Marseille,,13008,France,EMEA
2101,"12, rue des Bouchers",,Marseille,,13008,France,EMEA
4203,"12, rue des Bouchers",,Marseille,,13008,France,EMEA
4206,"54, rue Royale",,Nantes,,44000,France,EMEA
2323,"54, rue Royale",,Nantes,,44000,France,EMEA
1996,"54, rue Royale",,Nantes,,44000,France,EMEA
4672,"54, rue Royale",,Nantes,,44000,France,EMEA
2251,636 St Kilda Road,Level 3,Melbourne,Victoria,3004,Australia,APAC
4343,8489 Strong St.,,Las Vegas,NV,83030,USA,NA
2569,8489 Strong St.,,Las Vegas,NV,83030,USA,NA
1332,8489 Strong St.,,Las Vegas,NV,83030,USA,NA
4121,636 St Kilda Road,Level 3,Melbourne,Victoria,3004,Australia,APAC
5143,8489 Strong St.,,Las Vegas,NV,83030,USA,NA
3269,8489 Strong St.,,Las Vegas,NV,83030,USA,NA
4604,8489 Strong St.,,Las Vegas,NV,83030,USA,NA
5693,8489 Strong St.,,Las Vegas,NV,83030,USA,NA
1671,8489 Strong St.,,Las Vegas,NV,83030,USA,NA
2156,8489 Strong St.,,Las Vegas,NV,83030,USA,NA
5747,8489 Strong St.,,Las Vegas,NV,83030,USA,NA
3774,8489 Strong St.,,Las Vegas,NV,83030,USA,NA
2244,8489 Strong St.,,Las Vegas,NV,83030,USA,NA
5498,8489 Strong St.,,Las Vegas,NV,83030,USA,NA
4208,"C/ Araquil, 67",,Madrid,,28023,Spain,EMEA
5396,"C/ Araquil, 67",,Madrid,,28023,Spain,EMEA
4676,"C/ Araquil, 67",,Madrid,,28023,Spain,EMEA
3643,"C/ Araquil, 67",,Madrid,,28023,Spain,EMEA
3724,"C/ Araquil, 67",,Madrid,,28023,Spain,EMEA
4779,"C/ Araquil, 67",,Madrid,,28023,Spain,EMEA
2489,"C/ Araquil, 67",,Madrid,,28023,Spain,EMEA
4346,"C/ Araquil, 67",,Madrid,,28023,Spain,EMEA
1903,"C/ Araquil, 67",,Madrid,,28023,Spain,EMEA
4335,"C/ Araquil, 67",,Madrid,,28023,Spain,EMEA
4928,"C/ Araquil, 67",,Madrid,,28023,Spain,EMEA
1351,"C/ Araquil, 67",,Madrid,,28023,Spain,EMEA
4059,"C/ Araquil, 67",,Madrid,,28023,Spain,EMEA
1810,"C/ Araquil, 67",,Madrid,,28023,Spain,EMEA
1553,"C/ Araquil, 67",,Madrid,,28023,Spain,EMEA
2165,"C/ Araquil, 67",,Madrid,,28023,Spain,EMEA
5486,"C/ Araquil, 67",,Madrid,,28023,Spain,EMEA
1701,4092 Furth Circle,Suite 400,NYC,NY,10022,USA,NA
1209,4092 Furth Circle,Suite 400,NYC,NY,10022,USA,NA
2697,4092 Furth Circle,Suite 400,NYC,NY,10022,USA,NA
3871,4092 Furth Circle,Suite 400,NYC,NY,10022,USA,NA
1609,4092 Furth Circle,Suite 400,NYC,NY,10022,USA,NA
5214,4092 Furth Circle,Suite 400,NYC,NY,10022,USA,NA
1421,4092 Furth Circle,Suite 400,NYC,NY,10022,USA,NA
4581,4092 Furth Circle,Suite 400,NYC,NY,10022,USA,NA
3827,4092 Furth Circle,Suite 400,NYC,NY,10022,USA,NA
5748,4092 Furth Circle,Suite 400,NYC,NY,10022,USA,NA
5755,4092 Furth Circle,Suite 400,NYC,NY,10022,USA,NA
5113,4092 Furth Circle,Suite 400,NYC,NY,10022,USA,NA
2813,4092 Furth Circle,Suite 400,NYC,NY,10022,USA,NA
4142,4092 Furth Circle,Suite 400,NYC,NY,10022,USA,NA
3054,4092 Furth Circle,Suite 400,NYC,NY,10022,USA,NA
2432,"C/ Moralzarzal, 86",,Madrid,,28034,Spain,EMEA
3308,"C/ Moralzarzal, 86",,Madrid,,28034,Spain,EMEA
4355,"C/ Moralzarzal, 86",,Madrid,,28034,Spain,EMEA
1690,"C/ Moralzarzal, 86",,Madrid,,28034,Spain,EMEA
5147,35 King George,,London,,WX3 6FW,UK,EMEA
4184,35 King George,,London,,WX3 6FW,UK,EMEA
3709,35 King George,,London,,WX3 6FW,UK,EMEA
2846,35 King George,,London,,WX3 6FW,UK,EMEA
4117,35 King George,,London,,WX3 6FW,UK,EMEA
1747,35 King George,,London,,WX3 6FW,UK,EMEA
5464,35 King George,,London,,WX3 6FW,UK,EMEA
2998,35 King George,,London,,WX3 6FW,UK,EMEA
3328,35 King George,,London,,WX3 6FW,UK,EMEA
1000,2440 Pompton St.,,Glendale,CT,97561,USA,NA
4266,16780 Pompton St.,,Brickhaven,MA,58339,USA,NA
2470,16780 Pompton St.,,Brickhaven,MA,58339,USA,NA
4744,2440 Pompton St.,,Glendale,CT,97561,USA,NA
5098,2440 Pompton St.,,Glendale,CT,97561,USA,NA
5566,2440 Pompton St.,,Glendale,CT,97561,USA,NA
2811,2440 Pompton St.,,Glendale,CT,97561,USA,NA
1362,2440 Pompton St.,,Glendale,CT,97561,USA,NA
2217,2440 Pompton St.,,Glendale,CT,97561,USA,NA
4631,2440 Pompton St.,,Glendale,CT,97561,USA,NA
4048,"C/ Moralzarzal, 86",,Madrid,,28034,Spain,EMEA
3807,"C/ Moralzarzal, 86",,Madrid,,28034,Spain,EMEA
5301,"C/ Moralzarzal, 86",,Madrid,,28034,Spain,EMEA
5629,"C/ Moralzarzal, 86",,Madrid,,28034,Spain,EMEA
4540,"C/ Moralzarzal, 86",,Madrid,,28034,Spain,EMEA
2031,"C/ Moralzarzal, 86",,Madrid,,28034,Spain,EMEA
3755,"C/ Moralzarzal, 86",,Madrid,,28034,Spain,EMEA
3435,"C/ Moralzarzal, 86",,Madrid,,28034,Spain,EMEA
5924,27 rue du Colonel Pierre Avia,,Paris,,75508,France,EMEA
4895,27 rue du Colonel Pierre Avia,,Paris,,75508,France,EMEA
1840,27 rue du Colonel Pierre Avia,,Paris,,75508,France,EMEA
5874,27 rue du Colonel Pierre Avia,,Paris,,75508,France,EMEA
1493,27 rue du Colonel Pierre Avia,,Paris,,75508,France,EMEA
3894,27 rue du Colonel Pierre Avia,,Paris,,75508,France,EMEA
5776,27 rue du Colonel Pierre Avia,,Paris,,75508,France,EMEA
5436,5677 Strong St.,,San Rafael,CA,97562,USA,NA
4991,5677 Strong St.,,San Rafael,CA,97562,USA,NA
5794,5677 Strong St.,,San Rafael,CA,97562,USA,NA
2571,5677 Strong St.,,San Rafael,CA,97562,USA,NA
3288,5677 Strong St.,,San Rafael,CA,97562,USA,NA
3387,5677 Strong St.,,San Rafael,CA,97562,USA,NA
4056,5677 Strong St.,,San Rafael,CA,97562,USA,NA
2581,5677 Strong St.,,San Rafael,CA,97562,USA,NA
1893,5677 Strong St.,,San Rafael,CA,97562,USA,NA
3490,5677 Strong St.,,San Rafael,CA,97562,USA,NA
4162,5677 Strong St.,,San Rafael,CA,97562,USA,NA
1846,5677 Strong St.,,San Rafael,CA,97562,USA,NA
4508,5677 Strong St.,,San Rafael,CA,97562,USA,NA
2062,5677 Strong St.,,San Rafael,CA,97562,USA,NA
3891,5677 Strong St.,,San Rafael,CA,97562,USA,NA
3337,5677 Strong St.,,San Rafael,CA,97562,USA,NA
4870,5677 Strong St.,,San Rafael,CA,97562,USA,NA
1821,1 rue Alsace-Lorraine,,Toulouse,,31000,France,EMEA
5897,1 rue Alsace-Lorraine,,Toulouse,,31000,France,EMEA
2177,1 rue Alsace-Lorraine,,Toulouse,,31000,France,EMEA
3964,59 rue de l'Abbaye,,Reims,,51100,France,EMEA
2111,59 rue de l'Abbaye,,Reims,,51100,France,EMEA
3444,59 rue de l'Abbaye,,Reims,,51100,France,EMEA
3608,59 rue de l'Abbaye,,Reims,,51100,France,EMEA
4327,"Monitor Money Building, 815 Pacific Hwy",Level 6,Chatswood,NSW,2067,Australia,APAC
2183,"Monitor Money Building, 815 Pacific Hwy",Level 6,Chatswood,NSW,2067,Australia,APAC
4884,"Monitor Money Building, 815 Pacific Hwy",Level 6,Chatswood,NSW,2067,Australia,APAC
3678,"Monitor Money Building, 815 Pacific Hwy",Level 6,Chatswood,NSW,2067,Australia,APAC
2946,"Monitor Money Building, 815 Pacific Hwy",Level 6,Chatswood,NSW,2067,Australia,APAC
1268,"Monitor Money Building, 815 Pacific Hwy",Level 6,Chatswood,NSW,2067,Australia,APAC
2387,"Monitor Money Building, 815 Pacific Hwy",Level 6,Chatswood,NSW,2067,Australia,APAC
5410,"Monitor Money Building, 815 Pacific Hwy",Level 6,Chatswood,NSW,2067,Australia,APAC
5429,9408 Furth Circle,,Burlingame,CA,94217,USA,NA
1292,9408 Furth Circle,,Burlingame,CA,94217,USA,NA
2089,9408 Furth Circle,,Burlingame,CA,94217,USA,NA
3427,9408 Furth Circle,,Burlingame,CA,94217,USA,NA
3385,9408 Furth Circle,,Burlingame,CA,94217,USA,NA
2615,9408 Furth Circle,,Burlingame,CA,94217,USA,NA
2199,9408 Furth Circle,,Burlingame,CA,94217,USA,NA
4214,9408 Furth Circle,,Burlingame,CA,94217,USA,NA
3714,9408 Furth Circle,,Burlingame,CA,94217,USA,NA
3159,9408 Furth Circle,,Burlingame,CA,94217,USA,NA
4702,9408 Furth Circle,,Burlingame,CA,94217,USA,NA
1880,"Software Engineering Center, SEC Oy",,Espoo,,FIN-02271,Finland,EMEA
5677,"Software Engineering Center, SEC Oy",,Espoo,,FIN-02271,Finland,EMEA
5337,"Software Engineering Center, SEC Oy",,Espoo,,FIN-02271,Finland,EMEA
1510,"Software Engineering Center, SEC Oy",,Espoo,,FIN-02271,Finland,EMEA
2500,"Software Engineering Center, SEC Oy",,Espoo,,FIN-02271,Finland,EMEA
2068,"Software Engineering Center, SEC Oy",,Espoo,,FIN-02271,Finland,EMEA
4717,"Software Engineering Center, SEC Oy",,Espoo,,FIN-02271,Finland,EMEA
1308,"Software Engineering Center, SEC Oy",,Espoo,,FIN-02271,Finland,EMEA
4399,"Software Engineering Center, SEC Oy",,Espoo,,FIN-02271,Finland,EMEA
2692,5677 Strong St.,,San Rafael,CA,97562,USA,NA
5221,5677 Strong St.,,San Rafael,CA,97562,USA,NA
4311,5677 Strong St.,,San Rafael,CA,97562,USA,NA
5891,5677 Strong St.,,San Rafael,CA,97562,USA,NA
2962,5677 Strong St.,,San Rafael,CA,97562,USA,NA
2321,5677 Strong St.,,San Rafael,CA,97562,USA,NA
1938,5677 Strong St.,,San Rafael,CA,97562,USA,NA
4742,5677 Strong St.,,San Rafael,CA,97562,USA,NA
5277,5677 Strong St.,,San Rafael,CA,97562,USA,NA
2486,5677 Strong St.,,San Rafael,CA,97562,USA,NA
1917,5677 Strong St.,,San Rafael,CA,97562,USA,NA
4596,5677 Strong St.,,San Rafael,CA,97562,USA,NA
4745,5677 Strong St.,,San Rafael,CA,97562,USA,NA
4329,5677 Strong St.,,San Rafael,CA,97562,USA,NA
1164,5677 Strong St.,,San Rafael,CA,97562,USA,NA
1898,5677 Strong St.,,San Rafael,CA,97562,USA,NA
4782,4575 Hillside Dr.,,New Bedford,MA,50553,USA,NA
4413,4575 Hillside Dr.,,New Bedford,MA,50553,USA,NA
5824,4575 Hillside Dr.,,New Bedford,MA,50553,USA,NA
2862,4575 Hillside Dr.,,New Bedford,MA,50553,USA,NA
2673,4575 Hillside Dr.,,New Bedford,MA,50553,USA,NA
1794,4575 Hillside Dr.,,New Bedford,MA,50553,USA,NA
2241,4575 Hillside Dr.,,New Bedford,MA,50553,USA,NA
4409,4575 Hillside Dr.,,New Bedford,MA,50553,USA,NA
2270,4575 Hillside Dr.,,New Bedford,MA,50553,USA,NA
1115,4575 Hillside Dr.,,New Bedford,MA,50553,USA,NA
3857,4575 Hillside Dr.,,New Bedford,MA,50553,USA,NA
1770,4575 Hillside Dr.,,New Bedford,MA,50553,USA,NA
5774,4575 Hillside Dr.,,New Bedford,MA,50553,USA,NA
2102,4575 Hillside Dr.,,New Bedford,MA,50553,USA,NA
5294,4575 Hillside Dr.,,New Bedford,MA,50553,USA,NA
1121,4575 Hillside Dr.,,New Bedford,MA,50553,USA,NA
4873,"Boulevard Tirou, 255",,Charleroi,,B-6000,Belgium,EMEA
1455,78934 Hillside Dr.,,Pasadena,CA,90003,USA,NA
2106,78934 Hillside Dr.,,Pasadena,CA,90003,USA,NA
3505,78934 Hillside Dr.,,Pasadena,CA,90003,USA,NA
1833,78934 Hillside Dr.,,Pasadena,CA,90003,USA,NA
3625,78934 Hillside Dr.,,Pasadena,CA,90003,USA,NA
3499,78934 Hillside Dr.,,Pasadena,CA,90003,USA,NA
5751,78934 Hillside Dr.,,Pasadena,CA,90003,USA,NA
2158,78934 Hillside Dr.,,Pasadena,CA,90003,USA,NA
4791,78934 Hillside Dr.,,Pasadena,CA,90003,USA,NA
4939,78934 Hillside Dr.,,Pasadena,CA,90003,USA,NA
1061,78934 Hillside Dr.,,Pasadena,CA,90003,USA,NA
2850,78934 Hillside Dr.,,Pasadena,CA,90003,USA,NA
3121,78934 Hillside Dr.,,Pasadena,CA,90003,USA,NA
5533,78934 Hillside Dr.,,Pasadena,CA,90003,USA,NA
5648,78934 Hillside Dr.,,Pasadena,CA,90003,USA,NA
3569,78934 Hillside Dr.,,Pasadena,CA,90003,USA,NA
5883,2440 Pompton St.,,Glendale,CT,97561,USA,NA
2356,2440 Pompton St.,,Glendale,CT,97561,USA,NA
2614,7825 Douglas Av.,,Brickhaven,MA,58339,USA,NA
4653,7825 Douglas Av.,,Brickhaven,MA,58339,USA,NA
3949,7825 Douglas Av.,,Brickhaven,MA,58339,USA,NA
5492,7825 Douglas Av.,,Brickhaven,MA,58339,USA,NA
4784,7825 Douglas Av.,,Brickhaven,MA,58339,USA,NA
2344,7825 Douglas Av.,,Brickhaven,MA,58339,USA,NA
3276,7825 Douglas Av.,,Brickhaven,MA,58339,USA,NA
3924,7825 Douglas Av.,,Brickhaven,MA,58339,USA,NA
2414,7825 Douglas Av.,,Brickhaven,MA,58339,USA,NA
1049,7825 Douglas Av.,,Brickhaven,MA,58339,USA,NA
5988,7825 Douglas Av.,,Brickhaven,MA,58339,USA,NA
3859,201 Miller Street,Level 15,North Sydney,NSW,2060,Australia,APAC
1038,201 Miller Street,Level 15,North Sydney,NSW,2060,Australia,APAC
5846,201 Miller Street,Level 15,North Sydney,NSW,2060,Australia,APAC
2613,201 Miller Street,Level 15,North Sydney,NSW,2060,Australia,APAC
1708,201 Miller Street,Level 15,North Sydney,NSW,2060,Australia,APAC
4874,201 Miller Street,Level 15,North Sydney,NSW,2060,Australia,APAC
5009,201 Miller Street,Level 15,North Sydney,NSW,2060,Australia,APAC
5683,201 Miller Street,Level 15,North Sydney,NSW,2060,Australia,APAC
4588,201 Miller Street,Level 15,North Sydney,NSW,2060,Australia,APAC
1165,201 Miller Street,Level 15,North Sydney,NSW,2060,Australia,APAC
5852,201 Miller Street,Level 15,North Sydney,NSW,2060,Australia,APAC
3481,201 Miller Street,Level 15,North Sydney,NSW,2060,Australia,APAC
4161,201 Miller Street,Level 15,North Sydney,NSW,2060,Australia,APAC
2882,201 Miller Street,Level 15,North Sydney,NSW,2060,Australia,APAC
3732,2793 Furth Circle,,Brisbane,CA,94217,USA,NA
5853,2793 Furth Circle,,Brisbane,CA,94217,USA,NA
1233,2793 Furth Circle,,Brisbane,CA,94217,USA,NA
3147,2793 Furth Circle,,Brisbane,CA,94217,USA,NA
1848,2793 Furth Circle,,Brisbane,CA,94217,USA,NA
2709,2793 Furth Circle,,Brisbane,CA,94217,USA,NA
5403,2793 Furth Circle,,Brisbane,CA,94217,USA,NA
3580,2793 Furth Circle,,Brisbane,CA,94217,USA,NA
3918,2793 Furth Circle,,Brisbane,CA,94217,USA,NA
3146,2793 Furth Circle,,Brisbane,CA,94217,USA,NA
1037,2793 Furth Circle,,Brisbane,CA,94217,USA,NA
4972,"Bronz Sok., Bronz Apt. 3/6 Tesvikiye",,Singapore,,79903,Singapore,Japan
3500,"Bronz Sok., Bronz Apt. 3/6 Tesvikiye",,Singapore,,79903,Singapore,Japan
3041,"Bronz Sok., Bronz Apt. 3/6 Tesvikiye",,Singapore,,79903,Singapore,Japan
3644,"Bronz Sok., Bronz Apt. 3/6 Tesvikiye",,Singapore,,79903,Singapore,Japan
4106,"Bronz Sok., Bronz Apt. 3/6 Tesvikiye",,Singapore,,79903,Singapore,Japan
3545,"Bronz Sok., Bronz Apt. 3/6 Tesvikiye",,Singapore,,79903,Singapore,Japan
2526,"Bronz Sok., Bronz Apt. 3/6 Tesvikiye",,Singapore,,79903,Singapore,Japan
2798,"Bronz Sok., Bronz Apt. 3/6 Tesvikiye",,Singapore,,79903,Singapore,Japan
2427,"Bronz Sok., Bronz Apt. 3/6 Tesvikiye",,Singapore,,79903,Singapore,Japan
1546,"Bronz Sok., Bronz Apt. 3/6 Tesvikiye",,Singapore,,79903,Singapore,Japan
2538,"Bronz Sok., Bronz Apt. 3/6 Tesvikiye",,Singapore,,79903,Singapore,Japan
5507,Torikatu 38,,Oulu,,90110,Finland,EMEA
4603,Torikatu 38,,Oulu,,90110,Finland,EMEA
1160,Torikatu 38,,Oulu,,90110,Finland,EMEA
2474,Torikatu 38,,Oulu,,90110,Finland,EMEA
2333,Torikatu 38,,Oulu,,90110,Finland,EMEA
1344,Torikatu 38,,Oulu,,90110,Finland,EMEA
3460,Torikatu 38,,Oulu,,90110,Finland,EMEA
1441,Torikatu 38,,Oulu,,90110,Finland,EMEA
1064,Torikatu 38,,Oulu,,90110,Finland,EMEA
4781,Torikatu 38,,Oulu,,90110,Finland,EMEA
5837,31 Duncan St. West End,,South Brisbane,Queensland,4101,Australia,APAC
3178,31 Duncan St. West End,,South Brisbane,Queensland,4101,Australia,APAC
2433,31 Duncan St. West End,,South Brisbane,Queensland,4101,Australia,APAC
3639,31 Duncan St. West End,,South Brisbane,Queensland,4101,Australia,APAC
3128,"C/ Moralzarzal, 86",,Madrid,,28034,Spain,EMEA
1998,"C/ Moralzarzal, 86",,Madrid,,28034,Spain,EMEA
4961,"C/ Moralzarzal, 86",,Madrid,,28034,Spain,EMEA
1798,"C/ Moralzarzal, 86",,Madrid,,28034,Spain,EMEA
1118,"C/ Moralzarzal, 86",,Madrid,,28034,Spain,EMEA
5709,"C/ Moralzarzal, 86",,Madrid,,28034,Spain,EMEA
3930,"C/ Moralzarzal, 86",,Madrid,,28034,Spain,EMEA
3413,"C/ Moralzarzal, 86",,Madrid,,28034,Spain,EMEA
5026,"C/ Moralzarzal, 86",,Madrid,,28034,Spain,EMEA
2903,"C/ Moralzarzal, 86",,Madrid,,28034,Spain,EMEA
2166,"C/ Moralzarzal, 86",,Madrid,,28034,Spain,EMEA
5942,"C/ Moralzarzal, 86",,Madrid,,28034,Spain,EMEA
5662,"C/ Moralzarzal, 86",,Madrid,,28034,Spain,EMEA
4076,4097 Douglas Av.,,Glendale,CA,92561,USA,NA
1409,4097 Douglas Av.,,Glendale,CA,92561,USA,NA
4221,Lyonerstr. 34,,Frankfurt,,60528,Germany,EMEA
5590,Lyonerstr. 34,,Frankfurt,,60528,Germany,EMEA
1237,Lyonerstr. 34,,Frankfurt,,60528,Germany,EMEA
3250,Lyonerstr. 34,,Frankfurt,,60528,Germany,EMEA
1907,Lyonerstr. 34,,Frankfurt,,60528,Germany,EMEA
5701,Lyonerstr. 34,,Frankfurt,,60528,Germany,EMEA
2412,Lyonerstr. 34,,Frankfurt,,60528,Germany,EMEA
2926,Lyonerstr. 34,,Frankfurt,,60528,Germany,EMEA
1274,"Drammensveien 126 A, PB 744 Sentrum",,Oslo,,N 0106,Norway,EMEA
4739,"Drammensveien 126 A, PB 744 Sentrum",,Oslo,,N 0106,Norway,EMEA
3952,"Drammensveien 126 A, PB 744 Sentrum",,Oslo,,N 0106,Norway,EMEA
1403,"Drammensveien 126 A, PB 744 Sentrum",,Oslo,,N 0106,Norway,EMEA
4145,"Drammensveien 126 A, PB 744 Sentrum",,Oslo,,N 0106,Norway,EMEA
5020,"Drammensveien 126 A, PB 744 Sentrum",,Oslo,,N 0106,Norway,EMEA
1692,"Drammensveien 126 A, PB 744 Sentrum",,Oslo,,N 0106,Norway,EMEA
5454,"Drammensveien 126 A, PB 744 Sentrum",,Oslo,,N 0106,Norway,EMEA
3808,"Drammensveien 126 A, PB 744 Sentrum",,Oslo,,N 0106,Norway,EMEA
3231,"Drammensveien 126 A, PB 744 Sentrum",,Oslo,,N 0106,Norway,EMEA
2529,"Drammensveien 126 A, PB 744 Sentrum",,Oslo,,N 0106,Norway,EMEA
3749,Keskuskatu 45,,Helsinki,,21240,Finland,EMEA
5599,Keskuskatu 45,,Helsinki,,21240,Finland,EMEA
2178,Berkeley Gardens 12  Brewery,,Liverpool,,WX1 6LT,UK,EMEA
3553,Keskuskatu 45,,Helsinki,,21240,Finland,EMEA
2849,Keskuskatu 45,,Helsinki,,21240,Finland,EMEA
4797,Berkeley Gardens 12  Brewery,,Liverpool,,WX1 6LT,UK,EMEA
3680,Berkeley Gardens 12  Brewery,,Liverpool,,WX1 6LT,UK,EMEA
1021,Berkeley Gardens 12  Brewery,,Liverpool,,WX1 6LT,UK,EMEA
5540,Keskuskatu 45,,Helsinki,,21240,Finland,EMEA
1529,Berkeley Gardens 12  Brewery,,Liverpool,,WX1 6LT,UK,EMEA
1244,Berkeley Gardens 12  Brewery,,Liverpool,,WX1 6LT,UK,EMEA
2454,Keskuskatu 45,,Helsinki,,21240,Finland,EMEA
3271,Keskuskatu 45,,Helsinki,,21240,Finland,EMEA
4103,Keskuskatu 45,,Helsinki,,21240,Finland,EMEA
5792,Keskuskatu 45,,Helsinki,,21240,Finland,EMEA
3246,Keskuskatu 45,,Helsinki,,21240,Finland,EMEA
1613,Keskuskatu 45,,Helsinki,,21240,Finland,EMEA
1456,Keskuskatu 45,,Helsinki,,21240,Finland,EMEA
2088,Keskuskatu 45,,Helsinki,,21240,Finland,EMEA
3206,"C/ Moralzarzal, 86",,Madrid,,28034,Spain,EMEA
1326,"C/ Moralzarzal, 86",,Madrid,,28034,Spain,EMEA
3776,7734 Strong St.,,San Francisco,CA,,USA,NA
2776,7734 Strong St.,,San Francisco,CA,,USA,NA
1714,7734 Strong St.,,San Francisco,CA,,USA,NA
4380,7734 Strong St.,,San Francisco,CA,,USA,NA
2134,7734 Strong St.,,San Francisco,CA,,USA,NA
1965,7734 Strong St.,,San Francisco,CA,,USA,NA
5977,7734 Strong St.,,San Francisco,CA,,USA,NA
1513,7734 Strong St.,,San Francisco,CA,,USA,NA
3301,7734 Strong St.,,San Francisco,CA,,USA,NA
3933,7734 Strong St.,,San Francisco,CA,,USA,NA
5151,7734 Strong St.,,San Francisco,CA,,USA,NA
4965,7734 Strong St.,,San Francisco,CA,,USA,NA
4523,Erling Skakkes gate 78,,Stavern,,4110,Norway,EMEA
1390,7734 Strong St.,,San Francisco,CA,,USA,NA
5539,7734 Strong St.,,San Francisco,CA,,USA,NA
4181,7734 Strong St.,,San Francisco,CA,,USA,NA
3016,7734 Strong St.,,San Francisco,CA,,USA,NA
3317,7734 Strong St.,,San Francisco,CA,,USA,NA
1890,7734 Strong St.,,San Francisco,CA,,USA,NA
5504,6047 Douglas Av.,,Los Angeles,CA,,USA,NA
2060,6047 Douglas Av.,,Los Angeles,CA,,USA,NA
2121,6047 Douglas Av.,,Los Angeles,CA,,USA,NA
2452,6047 Douglas Av.,,Los Angeles,CA,,USA,NA
5449,6047 Douglas Av.,,Los Angeles,CA,,USA,NA
3536,6047 Douglas Av.,,Los Angeles,CA,,USA,NA
5901,Smagsloget 45,,Aaarhus,,8200,Denmark,EMEA
2715,Smagsloget 45,,Aaarhus,,8200,Denmark,EMEA
5785,Smagsloget 45,,Aaarhus,,8200,Denmark,EMEA
1016,Smagsloget 45,,Aaarhus,,8200,Denmark,EMEA
3463,Smagsloget 45,,Aaarhus,,8200,Denmark,EMEA
4285,Smagsloget 45,,Aaarhus,,8200,Denmark,EMEA
5205,Smagsloget 45,,Aaarhus,,8200,Denmark,EMEA
4827,Smagsloget 45,,Aaarhus,,8200,Denmark,EMEA
1470,Smagsloget 45,,Aaarhus,,8200,Denmark,EMEA
5373,Smagsloget 45,,Aaarhus,,8200,Denmark,EMEA
4664,Smagsloget 45,,Aaarhus,,8200,Denmark,EMEA
1753,Smagsloget 45,,Aaarhus,,8200,Denmark,EMEA
2296,7734 Strong St.,,San Francisco,CA,,USA,NA
1137,7734 Strong St.,,San Francisco,CA,,USA,NA
2362,7734 Strong St.,,San Francisco,CA,,USA,NA
5896,7734 Strong St.,,San Francisco,CA,,USA,NA
3412,7734 Strong St.,,San Francisco,CA,,USA,NA
5136,7734 Strong St.,,San Francisco,CA,,USA,NA
2339,7734 Strong St.,,San Francisco,CA,,USA,NA
1144,7734 Strong St.,,San Francisco,CA,,USA,NA
5079,7734 Strong St.,,San Francisco,CA,,USA,NA
2896,7734 Strong St.,,San Francisco,CA,,USA,NA
4839,5905 Pompton St.,Suite 750,NYC,NY,10022,USA,NA
5678,5905 Pompton St.,Suite 750,NYC,NY,10022,USA,NA
1567,5905 Pompton St.,Suite 750,NYC,NY,10022,USA,NA
2822,5905 Pompton St.,Suite 750,NYC,NY,10022,USA,NA
2591,5905 Pompton St.,Suite 750,NYC,NY,10022,USA,NA
1196,5905 Pompton St.,Suite 750,NYC,NY,10022,USA,NA
5072,Kirchgasse 6,,Graz,,8010,Austria,EMEA
5974,Kirchgasse 6,,Graz,,8010,Austria,EMEA
4517,Kirchgasse 6,,Graz,,8010,Austria,EMEA
5195,1785 First Street,,New Bedford,MA,50553,USA,NA
5623,1785 First Street,,New Bedford,MA,50553,USA,NA
2107,Kirchgasse 6,,Graz,,8010,Austria,EMEA
2794,Kirchgasse 6,,Graz,,8010,Austria,EMEA
5042,Kirchgasse 6,,Graz,,8010,Austria,EMEA
4308,Kirchgasse 6,,Graz,,8010,Austria,EMEA
2257,1785 First Street,,New Bedford,MA,50553,USA,NA
1340,Kirchgasse 6,,Graz,,8010,Austria,EMEA
3484,"Bronz Sok., Bronz Apt. 3/6 Tesvikiye",,Singapore,,79903,Singapore,Japan
3761,"Bronz Sok., Bronz Apt. 3/6 Tesvikiye",,Singapore,,79903,Singapore,Japan
4119,"Bronz Sok., Bronz Apt. 3/6 Tesvikiye",,Singapore,,79903,Singapore,Japan
1084,"Bronz Sok., Bronz Apt. 3/6 Tesvikiye",,Singapore,,79903,Singapore,Japan
3928,"Bronz Sok., Bronz Apt. 3/6 Tesvikiye",,Singapore,,79903,Singapore,Japan
2071,"Bronz Sok., Bronz Apt. 3/6 Tesvikiye",,Singapore,,79903,Singapore,Japan
3821,"Bronz Sok., Bronz Apt. 3/6 Tesvikiye",,Singapore,,79903,Singapore,Japan
1762,"Bronz Sok., Bronz Apt. 3/6 Tesvikiye",,Singapore,,79903,Singapore,Japan
2229,"Bronz Sok., Bronz Apt. 3/6 Tesvikiye",,Singapore,,79903,Singapore,Japan
1434,"Bronz Sok., Bronz Apt. 3/6 Tesvikiye",,Singapore,,79903,Singapore,Japan
1089,"Bronz Sok., Bronz Apt. 3/6 Tesvikiye",,Singapore,,79903,Singapore,Japan
2890,"Bronz Sok., Bronz Apt. 3/6 Tesvikiye",,Singapore,,79903,Singapore,Japan
4630,"Bronz Sok., Bronz Apt. 3/6 Tesvikiye",,Singapore,,79903,Singapore,Japan
3243,"Bronz Sok., Bronz Apt. 3/6 Tesvikiye",,Singapore,,79903,Singapore,Japan
5772,"Bronz Sok., Bronz Apt. 3/6 Tesvikiye",,Singapore,,79903,Singapore,Japan
1014,"Bronz Sok., Bronz Apt. 3/6 Tesvikiye",,Singapore,,79903,Singapore,Japan
4166,"Bronz Sok., Bronz Apt. 3/6 Tesvikiye",,Singapore,,79903,Singapore,Japan
3800,"Bronz Sok., Bronz Apt. 3/6 Tesvikiye",,Singapore,,79903,Singapore,Japan
2307,?kergatan 24,,Boras,,S-844 67,Sweden,EMEA
5773,?kergatan 24,,Boras,,S-844 67,Sweden,EMEA
1508,?kergatan 24,,Boras,,S-844 67,Sweden,EMEA
5696,?kergatan 24,,Boras,,S-844 67,Sweden,EMEA
2262,?kergatan 24,,Boras,,S-844 67,Sweden,EMEA
3323,?kergatan 24,,Boras,,S-844 67,Sweden,EMEA
2805,?kergatan 24,,Boras,,S-844 67,Sweden,EMEA
1782,?kergatan 24,,Boras,,S-844 67,Sweden,EMEA
5563,?kergatan 24,,Boras,,S-844 67,Sweden,EMEA
3613,?kergatan 24,,Boras,,S-844 67,Sweden,EMEA
5347,?kergatan 24,,Boras,,S-844 67,Sweden,EMEA
4912,?kergatan 24,,Boras,,S-844 67,Sweden,EMEA
5030,?kergatan 24,,Boras,,S-844 67,Sweden,EMEA
4351,?kergatan 24,,Boras,,S-844 67,Sweden,EMEA
4611,?kergatan 24,,Boras,,S-844 67,Sweden,EMEA
5966,?kergatan 24,,Boras,,S-844 67,Sweden,EMEA
3467,9408 Furth Circle,,Burlingame,CA,94217,USA,NA
5437,9408 Furth Circle,,Burlingame,CA,94217,USA,NA
3671,9408 Furth Circle,,Burlingame,CA,94217,USA,NA
4369,9408 Furth Circle,,Burlingame,CA,94217,USA,NA
3483,9408 Furth Circle,,Burlingame,CA,94217,USA,NA
3532,9408 Furth Circle,,Burlingame,CA,94217,USA,NA
5689,9408 Furth Circle,,Burlingame,CA,94217,USA,NA
3142,9408 Furth Circle,,Burlingame,CA,94217,USA,NA
1504,9408 Furth Circle,,Burlingame,CA,94217,USA,NA
4845,9408 Furth Circle,,Burlingame,CA,94217,USA,NA
5302,9408 Furth Circle,,Burlingame,CA,94217,USA,NA
4012,9408 Furth Circle,,Burlingame,CA,94217,USA,NA
1806,9408 Furth Circle,,Burlingame,CA,94217,USA,NA
5267,9408 Furth Circle,,Burlingame,CA,94217,USA,NA
2051,9408 Furth Circle,,Burlingame,CA,94217,USA,NA
4299,9408 Furth Circle,,Burlingame,CA,94217,USA,NA
2100,9408 Furth Circle,,Burlingame,CA,94217,USA,NA
1599,9408 Furth Circle,,Burlingame,CA,94217,USA,NA
3217,201 Miller Street,Level 15,North Sydney,NSW,2060,Australia,APAC
4033,201 Miller Street,Level 15,North Sydney,NSW,2060,Australia,APAC
3088,Kirchgasse 6,,Graz,,8010,Austria,EMEA
5034,201 Miller Street,Level 15,North Sydney,NSW,2060,Australia,APAC
3344,Kirchgasse 6,,Graz,,8010,Austria,EMEA
5746,Kirchgasse 6,,Graz,,8010,Austria,EMEA
3750,201 Miller Street,Level 15,North Sydney,NSW,2060,Australia,APAC
2758,201 Miller Street,Level 15,North Sydney,NSW,2060,Australia,APAC
4378,201 Miller Street,Level 15,North Sydney,NSW,2060,Australia,APAC
4913,201 Miller Street,Level 15,North Sydney,NSW,2060,Australia,APAC
3368,201 Miller Street,Level 15,North Sydney,NSW,2060,Australia,APAC
4563,201 Miller Street,Level 15,North Sydney,NSW,2060,Australia,APAC
3937,Kirchgasse 6,,Graz,,8010,Austria,EMEA
5750,201 Miller Street,Level 15,North Sydney,NSW,2060,Australia,APAC
1477,201 Miller Street,Level 15,North Sydney,NSW,2060,Australia,APAC
2150,201 Miller Street,Level 15,North Sydney,NSW,2060,Australia,APAC
3291,201 Miller Street,Level 15,North Sydney,NSW,2060,Australia,APAC
4886,43 rue St. Laurent,,Montreal,Quebec,H1J 1C3,Canada,NA
3062,Via Ludovico il Moro 22,,Bergamo,,24100,Italy,EMEA
2578,Via Ludovico il Moro 22,,Bergamo,,24100,Italy,EMEA
3319,25593 South Bay Ln.,,Bridgewater,CT,97562,USA,NA
5721,Via Ludovico il Moro 22,,Bergamo,,24100,Italy,EMEA
4160,43 rue St. Laurent,,Montreal,Quebec,H1J 1C3,Canada,NA
3612,Via Ludovico il Moro 22,,Bergamo,,24100,Italy,EMEA
1368,Via Ludovico il Moro 22,,Bergamo,,24100,Italy,EMEA
3912,Via Ludovico il Moro 22,,Bergamo,,24100,Italy,EMEA
2861,25593 South Bay Ln.,,Bridgewater,CT,97562,USA,NA
3890,Via Ludovico il Moro 22,,Bergamo,,24100,Italy,EMEA
2020,Via Ludovico il Moro 22,,Bergamo,,24100,Italy,EMEA
2871,43 rue St. Laurent,,Montreal,Quebec,H1J 1C3,Canada,NA
3459,Via Ludovico il Moro 22,,Bergamo,,24100,Italy,EMEA
2595,25593 South Bay Ln.,,Bridgewater,CT,97562,USA,NA
2819,Via Ludovico il Moro 22,,Bergamo,,24100,Italy,EMEA
5658,Via Ludovico il Moro 22,,Bergamo,,24100,Italy,EMEA
2969,25593 South Bay Ln.,,Bridgewater,CT,97562,USA,NA
1648,25593 South Bay Ln.,,Bridgewater,CT,97562,USA,NA
3693,Via Ludovico il Moro 22,,Bergamo,,24100,Italy,EMEA
4935,Via Ludovico il Moro 22,,Bergamo,,24100,Italy,EMEA
4579,25593 South Bay Ln.,,Bridgewater,CT,97562,USA,NA
3051,Via Ludovico il Moro 22,,Bergamo,,24100,Italy,EMEA
1369,43 rue St. Laurent,,Montreal,Quebec,H1J 1C3,Canada,NA
2916,25593 South Bay Ln.,,Bridgewater,CT,97562,USA,NA
5838,25593 South Bay Ln.,,Bridgewater,CT,97562,USA,NA
1839,Via Ludovico il Moro 22,,Bergamo,,24100,Italy,EMEA
3624,Via Ludovico il Moro 22,,Bergamo,,24100,Italy,EMEA
3471,31 Duncan St. West End,,South Brisbane,Queensland,4101,Australia,APAC
5488,35 King George,,London,,WX3 6FW,UK,EMEA
3683,Strada Provinciale 124,,Reggio Emilia,,42100,Italy,EMEA
4763,31 Duncan St. West End,,South Brisbane,Queensland,4101,Australia,APAC
3421,Strada Provinciale 124,,Reggio Emilia,,42100,Italy,EMEA
1256,Strada Provinciale 124,,Reggio Emilia,,42100,Italy,EMEA
2548,35 King George,,London,,WX3 6FW,UK,EMEA
3936,31 Duncan St. West End,,South Brisbane,Queensland,4101,Australia,APAC
3590,Strada Provinciale 124,,Reggio Emilia,,42100,Italy,EMEA
5671,35 King George,,London,,WX3 6FW,UK,EMEA
3002,35 King George,,London,,WX3 6FW,UK,EMEA
1276,31 Duncan St. West End,,South Brisbane,Queensland,4101,Australia,APAC
4258,35 King George,,London,,WX3 6FW,UK,EMEA
3405,Strada Provinciale 124,,Reggio Emilia,,42100,Italy,EMEA
3728,35 King George,,London,,WX3 6FW,UK,EMEA
4897,31 Duncan St. West End,,South Brisbane,Queensland,4101,Australia,APAC
2234,Strada Provinciale 124,,Reggio Emilia,,42100,Italy,EMEA
2153,35 King George,,London,,WX3 6FW,UK,EMEA
1077,35 King George,,London,,WX3 6FW,UK,EMEA
5210,Strada Provinciale 124,,Reggio Emilia,,42100,Italy,EMEA
5604,35 King George,,London,,WX3 6FW,UK,EMEA
1572,35 King George,,London,,WX3 6FW,UK,EMEA
3456,Strada Provinciale 124,,Reggio Emilia,,42100,Italy,EMEA
4529,35 King George,,London,,WX3 6FW,UK,EMEA
5234,Strada Provinciale 124,,Reggio Emilia,,42100,Italy,EMEA
5452,Strada Provinciale 124,,Reggio Emilia,,42100,Italy,EMEA
2817,35 King George,,London,,WX3 6FW,UK,EMEA
4503,"Merchants House, 27-30 Merchant's Quay",,Madrid,,28023,Spain,EMEA
3448,"Merchants House, 27-30 Merchant's Quay",,Madrid,,28023,Spain,EMEA
2772,"Merchants House, 27-30 Merchant's Quay",,Madrid,,28023,Spain,EMEA
2585,"Merchants House, 27-30 Merchant's Quay",,Madrid,,28023,Spain,EMEA
1048,"Merchants House, 27-30 Merchant's Quay",,Madrid,,28023,Spain,EMEA
3514,"Merchants House, 27-30 Merchant's Quay",,Madrid,,28023,Spain,EMEA
3297,"Merchants House, 27-30 Merchant's Quay",,Madrid,,28023,Spain,EMEA
1789,"Merchants House, 27-30 Merchant's Quay",,Madrid,,28023,Spain,EMEA
1176,"Merchants House, 27-30 Merchant's Quay",,Madrid,,28023,Spain,EMEA
4944,"Merchants House, 27-30 Merchant's Quay",,Madrid,,28023,Spain,EMEA
3229,"Merchants House, 27-30 Merchant's Quay",,Madrid,,28023,Spain,EMEA
5316,1 rue Alsace-Lorraine,,Toulouse,,31000,France,EMEA
3440,1 rue Alsace-Lorraine,,Toulouse,,31000,France,EMEA
3501,1 rue Alsace-Lorraine,,Toulouse,,31000,France,EMEA
2496,1 rue Alsace-Lorraine,,Toulouse,,31000,France,EMEA
2924,1 rue Alsace-Lorraine,,Toulouse,,31000,France,EMEA
1175,1 rue Alsace-Lorraine,,Toulouse,,31000,France,EMEA
4966,1 rue Alsace-Lorraine,,Toulouse,,31000,France,EMEA
1026,1 rue Alsace-Lorraine,,Toulouse,,31000,France,EMEA
5129,1 rue Alsace-Lorraine,,Toulouse,,31000,France,EMEA
1117,1 rue Alsace-Lorraine,,Toulouse,,31000,France,EMEA
2014,1 rue Alsace-Lorraine,,Toulouse,,31000,France,EMEA
4726,1 rue Alsace-Lorraine,,Toulouse,,31000,France,EMEA
5077,"184, chausse de Tournai",,Lille,,59000,France,EMEA
3585,"184, chausse de Tournai",,Lille,,59000,France,EMEA
3903,"184, chausse de Tournai",,Lille,,59000,France,EMEA
5330,"184, chausse de Tournai",,Lille,,59000,France,EMEA
2635,"184, chausse de Tournai",,Lille,,59000,France,EMEA
3841,"184, chausse de Tournai",,Lille,,59000,France,EMEA
1638,"184, chausse de Tournai",,Lille,,59000,France,EMEA
1444,"184, chausse de Tournai",,Lille,,59000,France,EMEA
1562,"184, chausse de Tournai",,Lille,,59000,France,EMEA
2686,"184, chausse de Tournai",,Lille,,59000,France,EMEA
2936,"184, chausse de Tournai",,Lille,,59000,France,EMEA
5789,"184, chausse de Tournai",,Lille,,59000,France,EMEA
4854,"184, chausse de Tournai",,Lille,,59000,France,EMEA
2065,"184, chausse de Tournai",,Lille,,59000,France,EMEA
1468,"Drammen 121, PR 744 Sentrum",,Bergen,,N 5804,Norway,EMEA
1387,"Drammen 121, PR 744 Sentrum",,Bergen,,N 5804,Norway,EMEA
3342,"Drammen 121, PR 744 Sentrum",,Bergen,,N 5804,Norway,EMEA
5627,"Drammen 121, PR 744 Sentrum",,Bergen,,N 5804,Norway,EMEA
1731,"Drammen 121, PR 744 Sentrum",,Bergen,,N 5804,Norway,EMEA
2294,5677 Strong St.,,San Rafael,CA,97562,USA,NA
3577,5677 Strong St.,,San Rafael,CA,97562,USA,NA
3349,"Drammen 121, PR 744 Sentrum",,Bergen,,N 5804,Norway,EMEA
4134,5677 Strong St.,,San Rafael,CA,97562,USA,NA
4981,"Drammen 121, PR 744 Sentrum",,Bergen,,N 5804,Norway,EMEA
5954,"Drammen 121, PR 744 Sentrum",,Bergen,,N 5804,Norway,EMEA
2630,5677 Strong St.,,San Rafael,CA,97562,USA,NA
4708,5677 Strong St.,,San Rafael,CA,97562,USA,NA
1759,5677 Strong St.,,San Rafael,CA,97562,USA,NA
3333,"Drammen 121, PR 744 Sentrum",,Bergen,,N 5804,Norway,EMEA
1011,"Drammen 121, PR 744 Sentrum",,Bergen,,N 5804,Norway,EMEA
3621,"Drammen 121, PR 744 Sentrum",,Bergen,,N 5804,Norway,EMEA
1429,5677 Strong St.,,San Rafael,CA,97562,USA,NA
3664,"Drammen 121, PR 744 Sentrum",,Bergen,,N 5804,Norway,EMEA
4054,"Drammen 121, PR 744 Sentrum",,Bergen,,N 5804,Norway,EMEA
2950,5677 Strong St.,,San Rafael,CA,97562,USA,NA
2226,5677 Strong St.,,San Rafael,CA,97562,USA,NA
3967,5677 Strong St.,,San Rafael,CA,97562,USA,NA
1228,"Drammen 121, PR 744 Sentrum",,Bergen,,N 5804,Norway,EMEA
3851,5677 Strong St.,,San Rafael,CA,97562,USA,NA
5757,5677 Strong St.,,San Rafael,CA,97562,USA,NA
2096,5677 Strong St.,,San Rafael,CA,97562,USA,NA
4222,5677 Strong St.,,San Rafael,CA,97562,USA,NA
2246,"Drammen 121, PR 744 Sentrum",,Bergen,,N 5804,Norway,EMEA
1296,5677 Strong St.,,San Rafael,CA,97562,USA,NA
4301,"Drammen 121, PR 744 Sentrum",,Bergen,,N 5804,Norway,EMEA
1706,5677 Strong St.,,San Rafael,CA,97562,USA,NA
2510,"Drammen 121, PR 744 Sentrum",,Bergen,,N 5804,Norway,EMEA
1951,5677 Strong St.,,San Rafael,CA,97562,USA,NA
4701,782 First Street,,Philadelphia,PA,71270,USA,NA
4252,782 First Street,,Philadelphia,PA,71270,USA,NA
1235,782 First Street,,Philadelphia,PA,71270,USA,NA
1257,782 First Street,,Philadelphia,PA,71270,USA,NA
3232,782 First Street,,Philadelphia,PA,71270,USA,NA
1393,782 First Street,,Philadelphia,PA,71270,USA,NA
5971,782 First Street,,Philadelphia,PA,71270,USA,NA
3024,782 First Street,,Philadelphia,PA,71270,USA,NA
3091,782 First Street,,Philadelphia,PA,71270,USA,NA
2212,782 First Street,,Philadelphia,PA,71270,USA,NA
4789,782 First Street,,Philadelphia,PA,71270,USA,NA
3594,782 First Street,,Philadelphia,PA,71270,USA,NA
3352,120 Hanover Sq.,,London,,WA1 1DP,UK,EMEA
4577,4575 Hillside Dr.,,New Bedford,MA,50553,USA,NA
1316,4575 Hillside Dr.,,New Bedford,MA,50553,USA,NA
2795,4575 Hillside Dr.,,New Bedford,MA,50553,USA,NA
3877,"C/ Romero, 33",,Sevilla,,41101,Spain,EMEA
2606,120 Hanover Sq.,,London,,WA1 1DP,UK,EMEA
4890,"C/ Romero, 33",,Sevilla,,41101,Spain,EMEA
4447,"C/ Romero, 33",,Sevilla,,41101,Spain,EMEA
4322,"C/ Romero, 33",,Sevilla,,41101,Spain,EMEA
3600,120 Hanover Sq.,,London,,WA1 1DP,UK,EMEA
1796,4575 Hillside Dr.,,New Bedford,MA,50553,USA,NA
5150,"C/ Romero, 33",,Sevilla,,41101,Spain,EMEA
4878,4575 Hillside Dr.,,New Bedford,MA,50553,USA,NA
5656,120 Hanover Sq.,,London,,WA1 1DP,UK,EMEA
5490,4575 Hillside Dr.,,New Bedford,MA,50553,USA,NA
2461,4575 Hillside Dr.,,New Bedford,MA,50553,USA,NA
2006,"C/ Romero, 33",,Sevilla,,41101,Spain,EMEA
3770,4575 Hillside Dr.,,New Bedford,MA,50553,USA,NA
5793,"C/ Romero, 33",,Sevilla,,41101,Spain,EMEA
3929,"C/ Romero, 33",,Sevilla,,41101,Spain,EMEA
4201,120 Hanover Sq.,,London,,WA1 1DP,UK,EMEA
2159,4575 Hillside Dr.,,New Bedford,MA,50553,USA,NA
4318,120 Hanover Sq.,,London,,WA1 1DP,UK,EMEA
2446,120 Hanover Sq.,,London,,WA1 1DP,UK,EMEA
5592,"C/ Romero, 33",,Sevilla,,41101,Spain,EMEA
1825,"C/ Romero, 33",,Sevilla,,41101,Spain,EMEA
4956,"C/ Romero, 33",,Sevilla,,41101,Spain,EMEA
2855,"C/ Romero, 33",,Sevilla,,41101,Spain,EMEA
4242,"C/ Romero, 33",,Sevilla,,41101,Spain,EMEA
2258,4575 Hillside Dr.,,New Bedford,MA,50553,USA,NA
4141,4575 Hillside Dr.,,New Bedford,MA,50553,USA,NA
2360,4575 Hillside Dr.,,New Bedford,MA,50553,USA,NA
5228,120 Hanover Sq.,,London,,WA1 1DP,UK,EMEA
5659,4575 Hillside Dr.,,New Bedford,MA,50553,USA,NA
4848,4575 Hillside Dr.,,New Bedford,MA,50553,USA,NA
3712,4575 Hillside Dr.,,New Bedford,MA,50553,USA,NA
3727,120 Hanover Sq.,,London,,WA1 1DP,UK,EMEA
5178,4575 Hillside Dr.,,New Bedford,MA,50553,USA,NA
2971,"Drammen 121, PR 744 Sentrum",,Bergen,,N 5804,Norway,EMEA
3784,"Drammen 121, PR 744 Sentrum",,Bergen,,N 5804,Norway,EMEA
2878,"Drammen 121, PR 744 Sentrum",,Bergen,,N 5804,Norway,EMEA
4802,78934 Hillside Dr.,,Pasadena,CA,90003,USA,NA
4357,"Drammen 121, PR 744 Sentrum",,Bergen,,N 5804,Norway,EMEA
2286,"Drammen 121, PR 744 Sentrum",,Bergen,,N 5804,Norway,EMEA
5311,"Drammen 121, PR 744 Sentrum",,Bergen,,N 5804,Norway,EMEA
4787,"Drammen 121, PR 744 Sentrum",,Bergen,,N 5804,Norway,EMEA
4706,"Drammen 121, PR 744 Sentrum",,Bergen,,N 5804,Norway,EMEA
4625,"C/ Moralzarzal, 86",,Madrid,,28034,Spain,EMEA
2560,"C/ Moralzarzal, 86",,Madrid,,28034,Spain,EMEA
5450,"C/ Moralzarzal, 86",,Madrid,,28034,Spain,EMEA
4028,"C/ Moralzarzal, 86",,Madrid,,28034,Spain,EMEA
3472,Mehrheimerstr. 369,,Koln,,50739,Germany,EMEA
2885,Mehrheimerstr. 369,,Koln,,50739,Germany,EMEA
4805,Mehrheimerstr. 369,,Koln,,50739,Germany,EMEA
4501,2304 Long Airport Avenue,,Nashua,NH,62005,USA,NA
4533,2304 Long Airport Avenue,,Nashua,NH,62005,USA,NA
5940,2304 Long Airport Avenue,,Nashua,NH,62005,USA,NA
4568,2304 Long Airport Avenue,,Nashua,NH,62005,USA,NA
2867,2304 Long Airport Avenue,,Nashua,NH,62005,USA,NA
3007,2304 Long Airport Avenue,,Nashua,NH,62005,USA,NA
5346,2304 Long Airport Avenue,,Nashua,NH,62005,USA,NA
1224,Mehrheimerstr. 369,,Koln,,50739,Germany,EMEA
1765,Mehrheimerstr. 369,,Koln,,50739,Germany,EMEA
1625,2304 Long Airport Avenue,,Nashua,NH,62005,USA,NA
1659,Mehrheimerstr. 369,,Koln,,50739,Germany,EMEA
1968,Mehrheimerstr. 369,,Koln,,50739,Germany,EMEA
1271,2304 Long Airport Avenue,,Nashua,NH,62005,USA,NA
3844,2304 Long Airport Avenue,,Nashua,NH,62005,USA,NA
4862,2304 Long Airport Avenue,,Nashua,NH,62005,USA,NA
2110,2304 Long Airport Avenue,,Nashua,NH,62005,USA,NA
1832,2304 Long Airport Avenue,,Nashua,NH,62005,USA,NA
5253,2304 Long Airport Avenue,,Nashua,NH,62005,USA,NA
5646,Mehrheimerstr. 369,,Koln,,50739,Germany,EMEA
4267,2304 Long Airport Avenue,,Nashua,NH,62005,USA,NA
5263,2304 Long Airport Avenue,,Nashua,NH,62005,USA,NA
2373,Mehrheimerstr. 369,,Koln,,50739,Germany,EMEA
5950,7 Allen Street,,Glen Waverly,Victoria,3150,Australia,APAC
3798,7 Allen Street,,Glen Waverly,Victoria,3150,Australia,APAC
4288,7 Allen Street,,Glen Waverly,Victoria,3150,Australia,APAC
4589,7 Allen Street,,Glen Waverly,Victoria,3150,Australia,APAC
4063,7 Allen Street,,Glen Waverly,Victoria,3150,Australia,APAC
5786,7 Allen Street,,Glen Waverly,Victoria,3150,Australia,APAC
5422,7 Allen Street,,Glen Waverly,Victoria,3150,Australia,APAC
5061,7 Allen Street,,Glen Waverly,Victoria,3150,Australia,APAC
1157,7 Allen Street,,Glen Waverly,Victoria,3150,Australia,APAC
5047,7 Allen Street,,Glen Waverly,Victoria,3150,Australia,APAC
1790,7 Allen Street,,Glen Waverly,Victoria,3150,Australia,APAC
2175,7 Allen Street,,Glen Waverly,Victoria,3150,Australia,APAC
2483,7 Allen Street,,Glen Waverly,Victoria,3150,Australia,APAC
3629,7 Allen Street,,Glen Waverly,Victoria,3150,Australia,APAC
3913,7 Allen Street,,Glen Waverly,Victoria,3150,Australia,APAC
2235,7 Allen Street,,Glen Waverly,Victoria,3150,Australia,APAC
3713,"2, rue du Commerce",,Lyon,,69004,France,EMEA
2346,"2, rue du Commerce",,Lyon,,69004,France,EMEA
5256,"2, rue du Commerce",,Lyon,,69004,France,EMEA
4800,3758 North Pendale Street,,White Plains,NY,24067,USA,NA
4248,"2, rue du Commerce",,Lyon,,69004,France,EMEA
4910,3758 North Pendale Street,,White Plains,NY,24067,USA,NA
2675,3758 North Pendale Street,,White Plains,NY,24067,USA,NA
1922,"2, rue du Commerce",,Lyon,,69004,France,EMEA
5713,3758 North Pendale Street,,White Plains,NY,24067,USA,NA
2249,"2, rue du Commerce",,Lyon,,69004,France,EMEA
4934,"2, rue du Commerce",,Lyon,,69004,France,EMEA
4259,3758 North Pendale Street,,White Plains,NY,24067,USA,NA
5369,"2, rue du Commerce",,Lyon,,69004,France,EMEA
2521,3758 North Pendale Street,,White Plains,NY,24067,USA,NA
2076,3758 North Pendale Street,,White Plains,NY,24067,USA,NA
3149,"2, rue du Commerce",,Lyon,,69004,France,EMEA
5752,3758 North Pendale Street,,White Plains,NY,24067,USA,NA
3037,3758 North Pendale Street,,White Plains,NY,24067,USA,NA
3972,"2, rue du Commerce",,Lyon,,69004,France,EMEA
2399,3758 North Pendale Street,,White Plains,NY,24067,USA,NA
4811,"2, rue du Commerce",,Lyon,,69004,France,EMEA
1944,"Rambla de Catalu¤a, 23",,Barcelona,,8022,Spain,EMEA
2696,567 North Pendale Street,,New Haven,CT,97823,USA,NA
5187,567 North Pendale Street,,New Haven,CT,97823,USA,NA
2204,567 North Pendale Street,,New Haven,CT,97823,USA,NA
4066,"Rambla de Catalu¤a, 23",,Barcelona,,8022,Spain,EMEA
5257,567 North Pendale Street,,New Haven,CT,97823,USA,NA
3935,567 North Pendale Street,,New Haven,CT,97823,USA,NA
5322,"Rambla de Catalu¤a, 23",,Barcelona,,8022,Spain,EMEA
5231,567 North Pendale Street,,New Haven,CT,97823,USA,NA
4442,"Rambla de Catalu¤a, 23",,Barcelona,,8022,Spain,EMEA
4725,"Rambla de Catalu¤a, 23",,Barcelona,,8022,Spain,EMEA
3945,"Rambla de Catalu¤a, 23",,Barcelona,,8022,Spain,EMEA
5953,"Rambla de Catalu¤a, 23",,Barcelona,,8022,Spain,EMEA
1532,567 North Pendale Street,,New Haven,CT,97823,USA,NA
1163,"Rambla de Catalu¤a, 23",,Barcelona,,8022,Spain,EMEA
3753,567 North Pendale Street,,New Haven,CT,97823,USA,NA
3222,"Rambla de Catalu¤a, 23",,Barcelona,,8022,Spain,EMEA
5013,"Rambla de Catalu¤a, 23",,Barcelona,,8022,Spain,EMEA
2958,"Rambla de Catalu¤a, 23",,Barcelona,,8022,Spain,EMEA
3598,"Rambla de Catalu¤a, 23",,Barcelona,,8022,Spain,EMEA
5547,"Rambla de Catalu¤a, 23",,Barcelona,,8022,Spain,EMEA
1298,"Rambla de Catalu¤a, 23",,Barcelona,,8022,Spain,EMEA
3985,15 McCallum Street - NatWest Center #13-03,,Makati City,,1227 MM,Philippines,Japan
5885,15 McCallum Street - NatWest Center #13-03,,Makati City,,1227 MM,Philippines,Japan
5586,15 McCallum Street - NatWest Center #13-03,,Makati City,,1227 MM,Philippines,Japan
3576,15 McCallum Street - NatWest Center #13-03,,Makati City,,1227 MM,Philippines,Japan
2384,15 McCallum Street - NatWest Center #13-03,,Makati City,,1227 MM,Philippines,Japan
2858,15 McCallum Street - NatWest Center #13-03,,Makati City,,1227 MM,Philippines,Japan
3101,5557 North Pendale Street,,San Francisco,CA,,USA,NA
5987,5557 North Pendale Street,,San Francisco,CA,,USA,NA
4283,5557 North Pendale Street,,San Francisco,CA,,USA,NA
2745,5557 North Pendale Street,,San Francisco,CA,,USA,NA
5334,5557 North Pendale Street,,San Francisco,CA,,USA,NA
5029,5557 North Pendale Street,,San Francisco,CA,,USA,NA
3508,5557 North Pendale Street,,San Francisco,CA,,USA,NA
5877,3675 Furth Circle,,Burbank,CA,94019,USA,NA
1928,3675 Furth Circle,,Burbank,CA,94019,USA,NA
4454,3675 Furth Circle,,Burbank,CA,94019,USA,NA
2476,"C/ Moralzarzal, 86",,Madrid,,28034,Spain,EMEA
2658,"C/ Moralzarzal, 86",,Madrid,,28034,Spain,EMEA
3888,"C/ Moralzarzal, 86",,Madrid,,28034,Spain,EMEA
4856,"C/ Moralzarzal, 86",,Madrid,,28034,Spain,EMEA
1691,4092 Furth Circle,Suite 400,NYC,NY,10022,USA,NA
2893,4092 Furth Circle,Suite 400,NYC,NY,10022,USA,NA
5895,4092 Furth Circle,Suite 400,NYC,NY,10022,USA,NA
5368,"C/ Moralzarzal, 86",,Madrid,,28034,Spain,EMEA
1059,4092 Furth Circle,Suite 400,NYC,NY,10022,USA,NA
1321,4092 Furth Circle,Suite 400,NYC,NY,10022,USA,NA
3197,4092 Furth Circle,Suite 400,NYC,NY,10022,USA,NA
5152,4092 Furth Circle,Suite 400,NYC,NY,10022,USA,NA
2828,"C/ Moralzarzal, 86",,Madrid,,28034,Spain,EMEA
1623,"C/ Moralzarzal, 86",,Madrid,,28034,Spain,EMEA
3181,"C/ Moralzarzal, 86",,Madrid,,28034,Spain,EMEA
1035,4092 Furth Circle,Suite 400,NYC,NY,10022,USA,NA
4294,4092 Furth Circle,Suite 400,NYC,NY,10022,USA,NA
2310,4092 Furth Circle,Suite 400,NYC,NY,10022,USA,NA
2906,4092 Furth Circle,Suite 400,NYC,NY,10022,USA,NA
2804,4092 Furth Circle,Suite 400,NYC,NY,10022,USA,NA
2908,4092 Furth Circle,Suite 400,NYC,NY,10022,USA,NA
2273,4092 Furth Circle,Suite 400,NYC,NY,10022,USA,NA
3183,"C/ Moralzarzal, 86",,Madrid,,28034,Spain,EMEA
4089,4092 Furth Circle,Suite 400,NYC,NY,10022,USA,NA
5075,"C/ Moralzarzal, 86",,Madrid,,28034,Spain,EMEA
1602,4092 Furth Circle,Suite 400,NYC,NY,10022,USA,NA
2228,"C/ Moralzarzal, 86",,Madrid,,28034,Spain,EMEA
2203,4092 Furth Circle,Suite 400,NYC,NY,10022,USA,NA
4443,"C/ Moralzarzal, 86",,Madrid,,28034,Spain,EMEA
4144,"C/ Moralzarzal, 86",,Madrid,,28034,Spain,EMEA
4567,"C/ Moralzarzal, 86",,Madrid,,28034,Spain,EMEA
4125,"C/ Moralzarzal, 86",,Madrid,,28034,Spain,EMEA
3673,"C/ Moralzarzal, 86",,Madrid,,28034,Spain,EMEA
4933,1900 Oak St.,,Vancouver,BC,V3F 2K1,Canada,NA
5171,1900 Oak St.,,Vancouver,BC,V3F 2K1,Canada,NA
2391,1900 Oak St.,,Vancouver,BC,V3F 2K1,Canada,NA
5705,1900 Oak St.,,Vancouver,BC,V3F 2K1,Canada,NA
1032,1900 Oak St.,,Vancouver,BC,V3F 2K1,Canada,NA
5829,1900 Oak St.,,Vancouver,BC,V3F 2K1,Canada,NA
2661,1900 Oak St.,,Vancouver,BC,V3F 2K1,Canada,NA
1039,1900 Oak St.,,Vancouver,BC,V3F 2K1,Canada,NA
1827,1900 Oak St.,,Vancouver,BC,V3F 2K1,Canada,NA
4325,1900 Oak St.,,Vancouver,BC,V3F 2K1,Canada,NA
3956,1900 Oak St.,,Vancouver,BC,V3F 2K1,Canada,NA
4081,6251 Ingle Ln.,,Boston,MA,51003,USA,NA
1805,6251 Ingle Ln.,,Boston,MA,51003,USA,NA
2016,6251 Ingle Ln.,,Boston,MA,51003,USA,NA
4775,6251 Ingle Ln.,,Boston,MA,51003,USA,NA
3862,6251 Ingle Ln.,,Boston,MA,51003,USA,NA
5637,6251 Ingle Ln.,,Boston,MA,51003,USA,NA
2342,6251 Ingle Ln.,,Boston,MA,51003,USA,NA
5668,6251 Ingle Ln.,,Boston,MA,51003,USA,NA
2334,6251 Ingle Ln.,,Boston,MA,51003,USA,NA
3034,6251 Ingle Ln.,,Boston,MA,51003,USA,NA
4008,6251 Ingle Ln.,,Boston,MA,51003,USA,NA
2702,6251 Ingle Ln.,,Boston,MA,51003,USA,NA
1755,6251 Ingle Ln.,,Boston,MA,51003,USA,NA
3982,6251 Ingle Ln.,,Boston,MA,51003,USA,NA
1501,6251 Ingle Ln.,,Boston,MA,51003,USA,NA
4847,6251 Ingle Ln.,,Boston,MA,51003,USA,NA
4359,"2, rue du Commerce",,Lyon,,69004,France,EMEA
2444,"2, rue du Commerce",,Lyon,,69004,France,EMEA
1670,"2, rue du Commerce",,Lyon,,69004,France,EMEA
4614,"2, rue du Commerce",,Lyon,,69004,France,EMEA
1214,"2, rue du Commerce",,Lyon,,69004,France,EMEA
3516,"2, rue du Commerce",,Lyon,,69004,France,EMEA
4430,"2, rue du Commerce",,Lyon,,69004,France,EMEA
1579,"2, rue du Commerce",,Lyon,,69004,France,EMEA
2440,"2, rue du Commerce",,Lyon,,69004,France,EMEA
4385,"2, rue du Commerce",,Lyon,,69004,France,EMEA
3976,"2, rue du Commerce",,Lyon,,69004,France,EMEA
1449,"2, rue du Commerce",,Lyon,,69004,France,EMEA
3763,"2, rue du Commerce",,Lyon,,69004,France,EMEA
1797,"2, rue du Commerce",,Lyon,,69004,France,EMEA
5572,"2, rue du Commerce",,Lyon,,69004,France,EMEA
4535,6047 Douglas Av.,,Los Angeles,CA,,USA,NA
1657,6047 Douglas Av.,,Los Angeles,CA,,USA,NA
4486,6047 Douglas Av.,,Los Angeles,CA,,USA,NA
5165,6047 Douglas Av.,,Los Angeles,CA,,USA,NA
5893,6047 Douglas Av.,,Los Angeles,CA,,USA,NA
1919,6047 Douglas Av.,,Los Angeles,CA,,USA,NA
3981,6047 Douglas Av.,,Los Angeles,CA,,USA,NA
2075,6047 Douglas Av.,,Los Angeles,CA,,USA,NA
4315,"Dojima Avanza 4F, 1-6-20 Dojima, Kita-ku",,Osaka,Osaka,530-0003,Japan,Japan
1900,"Dojima Avanza 4F, 1-6-20 Dojima, Kita-ku",,Osaka,Osaka,530-0003,Japan,Japan
4450,"Dojima Avanza 4F, 1-6-20 Dojima, Kita-ku",,Osaka,Osaka,530-0003,Japan,Japan
3122,"Dojima Avanza 4F, 1-6-20 Dojima, Kita-ku",,Osaka,Osaka,530-0003,Japan,Japan
1234,"Dojima Avanza 4F, 1-6-20 Dojima, Kita-ku",,Osaka,Osaka,530-0003,Japan,Japan
4626,"Dojima Avanza 4F, 1-6-20 Dojima, Kita-ku",,Osaka,Osaka,530-0003,Japan,Japan
5832,"Dojima Avanza 4F, 1-6-20 Dojima, Kita-ku",,Osaka,Osaka,530-0003,Japan,Japan
1373,"Dojima Avanza 4F, 1-6-20 Dojima, Kita-ku",,Osaka,Osaka,530-0003,Japan,Japan
2128,"Dojima Avanza 4F, 1-6-20 Dojima, Kita-ku",,Osaka,Osaka,530-0003,Japan,Japan
2141,"Dojima Avanza 4F, 1-6-20 Dojima, Kita-ku",,Osaka,Osaka,530-0003,Japan,Japan
4215,"Dojima Avanza 4F, 1-6-20 Dojima, Kita-ku",,Osaka,Osaka,530-0003,Japan,Japan
1034,"Dojima Avanza 4F, 1-6-20 Dojima, Kita-ku",,Osaka,Osaka,530-0003,Japan,Japan
5842,"Dojima Avanza 4F, 1-6-20 Dojima, Kita-ku",,Osaka,Osaka,530-0003,Japan,Japan
2098,"Dojima Avanza 4F, 1-6-20 Dojima, Kita-ku",,Osaka,Osaka,530-0003,Japan,Japan
1122,"Dojima Avanza 4F, 1-6-20 Dojima, Kita-ku",,Osaka,Osaka,530-0003,Japan,Japan
5115,"Dojima Avanza 4F, 1-6-20 Dojima, Kita-ku",,Osaka,Osaka,530-0003,Japan,Japan
2547,"Dojima Avanza 4F, 1-6-20 Dojima, Kita-ku",,Osaka,Osaka,530-0003,Japan,Japan
2000,"25, rue Lauriston",,Paris,,75016,France,EMEA
5729,"25, rue Lauriston",,Paris,,75016,France,EMEA
2265,"25, rue Lauriston",,Paris,,75016,France,EMEA
5291,"25, rue Lauriston",,Paris,,75016,France,EMEA
4849,"25, rue Lauriston",,Paris,,75016,France,EMEA
4446,"25, rue Lauriston",,Paris,,75016,France,EMEA
5177,"25, rue Lauriston",,Paris,,75016,France,EMEA
5414,"25, rue Lauriston",,Paris,,75016,France,EMEA
2957,"25, rue Lauriston",,Paris,,75016,France,EMEA
4209,"25, rue Lauriston",,Paris,,75016,France,EMEA
4677,"25, rue Lauriston",,Paris,,75016,France,EMEA
2413,"25, rue Lauriston",,Paris,,75016,France,EMEA
5717,"25, rue Lauriston",,Paris,,75016,France,EMEA
1287,"25, rue Lauriston",,Paris,,75016,France,EMEA
3173,"25, rue Lauriston",,Paris,,75016,France,EMEA
1876,"C/ Moralzarzal, 86",,Madrid,,28034,Spain,EMEA
1717,"C/ Moralzarzal, 86",,Madrid,,28034,Spain,EMEA
3011,"C/ Moralzarzal, 86",,Madrid,,28034,Spain,EMEA
1135,"C/ Moralzarzal, 86",,Madrid,,28034,Spain,EMEA
3216,"C/ Moralzarzal, 86",,Madrid,,28034,Spain,EMEA
2532,"C/ Moralzarzal, 86",,Madrid,,28034,Spain,EMEA
3171,"C/ Moralzarzal, 86",,Madrid,,28034,Spain,EMEA
2587,"C/ Moralzarzal, 86",,Madrid,,28034,Spain,EMEA
5517,"C/ Moralzarzal, 86",,Madrid,,28034,Spain,EMEA
4090,"C/ Moralzarzal, 86",,Madrid,,28034,Spain,EMEA
3685,"C/ Moralzarzal, 86",,Madrid,,28034,Spain,EMEA
1151,"C/ Moralzarzal, 86",,Madrid,,28034,Spain,EMEA
5680,"C/ Moralzarzal, 86",,Madrid,,28034,Spain,EMEA
1102,"C/ Moralzarzal, 86",,Madrid,,28034,Spain,EMEA
1167,"C/ Moralzarzal, 86",,Madrid,,28034,Spain,EMEA
4017,"C/ Moralzarzal, 86",,Madrid,,28034,Spain,EMEA
3226,120 Hanover Sq.,,London,,WA1 1DP,UK,EMEA
1266,120 Hanover Sq.,,London,,WA1 1DP,UK,EMEA
3410,120 Hanover Sq.,,London,,WA1 1DP,UK,EMEA
1943,"C/ Araquil, 67",,Madrid,,28023,Spain,EMEA
1679,"C/ Araquil, 67",,Madrid,,28023,Spain,EMEA
1645,"C/ Araquil, 67",,Madrid,,28023,Spain,EMEA
2887,"C/ Araquil, 67",,Madrid,,28023,Spain,EMEA
1819,"C/ Araquil, 67",,Madrid,,28023,Spain,EMEA
2797,"C/ Araquil, 67",,Madrid,,28023,Spain,EMEA
3526,"C/ Araquil, 67",,Madrid,,28023,Spain,EMEA
1619,3675 Furth Circle,,Burbank,CA,94019,USA,NA
3986,3675 Furth Circle,,Burbank,CA,94019,USA,NA
3617,3675 Furth Circle,,Burbank,CA,94019,USA,NA
3578,3675 Furth Circle,,Burbank,CA,94019,USA,NA
2976,3675 Furth Circle,,Burbank,CA,94019,USA,NA
4421,3675 Furth Circle,,Burbank,CA,94019,USA,NA
3284,3675 Furth Circle,,Burbank,CA,94019,USA,NA
5190,3675 Furth Circle,,Burbank,CA,94019,USA,NA
4731,3675 Furth Circle,,Burbank,CA,94019,USA,NA
4994,3675 Furth Circle,,Burbank,CA,94019,USA,NA
5527,"67, avenue de l'Europe",,Versailles,,78000,France,EMEA
1023,Village Close - 106 Linden Road Sandown,2nd Floor,Singapore,,69045,Singapore,APAC
5583,Village Close - 106 Linden Road Sandown,2nd Floor,Singapore,,69045,Singapore,APAC
2978,Village Close - 106 Linden Road Sandown,2nd Floor,Singapore,,69045,Singapore,APAC
5825,Village Close - 106 Linden Road Sandown,2nd Floor,Singapore,,69045,Singapore,APAC
1466,Village Close - 106 Linden Road Sandown,2nd Floor,Singapore,,69045,Singapore,APAC
1260,Village Close - 106 Linden Road Sandown,2nd Floor,Singapore,,69045,Singapore,APAC
5446,Village Close - 106 Linden Road Sandown,2nd Floor,Singapore,,69045,Singapore,APAC
1847,2793 Furth Circle,,Brisbane,CA,94217,USA,NA
3607,2793 Furth Circle,,Brisbane,CA,94217,USA,NA
3633,2793 Furth Circle,,Brisbane,CA,94217,USA,NA
2826,2793 Furth Circle,,Brisbane,CA,94217,USA,NA
3187,25 Maiden Lane,Floor No. 4,Dublin,,2,Ireland,EMEA
2810,25 Maiden Lane,Floor No. 4,Dublin,,2,Ireland,EMEA
3202,25 Maiden Lane,Floor No. 4,Dublin,,2,Ireland,EMEA
2091,25 Maiden Lane,Floor No. 4,Dublin,,2,Ireland,EMEA
4319,25 Maiden Lane,Floor No. 4,Dublin,,2,Ireland,EMEA
4914,25 Maiden Lane,Floor No. 4,Dublin,,2,Ireland,EMEA
1855,25 Maiden Lane,Floor No. 4,Dublin,,2,Ireland,EMEA
3948,25 Maiden Lane,Floor No. 4,Dublin,,2,Ireland,EMEA
2642,25 Maiden Lane,Floor No. 4,Dublin,,2,Ireland,EMEA
5898,Rue Joseph-Bens 532,,Bruxelles,,B-1180,Belgium,EMEA
3082,Rue Joseph-Bens 532,,Bruxelles,,B-1180,Belgium,EMEA
4309,Rue Joseph-Bens 532,,Bruxelles,,B-1180,Belgium,EMEA
1097,Rue Joseph-Bens 532,,Bruxelles,,B-1180,Belgium,EMEA
2411,Rue Joseph-Bens 532,,Bruxelles,,B-1180,Belgium,EMEA
3584,361 Furth Circle,,San Diego,CA,91217,USA,NA
1896,361 Furth Circle,,San Diego,CA,91217,USA,NA
5037,361 Furth Circle,,San Diego,CA,91217,USA,NA
5372,361 Furth Circle,,San Diego,CA,91217,USA,NA
3559,361 Furth Circle,,San Diego,CA,91217,USA,NA
5353,361 Furth Circle,,San Diego,CA,91217,USA,NA
5354,361 Furth Circle,,San Diego,CA,91217,USA,NA
2318,361 Furth Circle,,San Diego,CA,91217,USA,NA
5163,361 Furth Circle,,San Diego,CA,91217,USA,NA
3973,361 Furth Circle,,San Diego,CA,91217,USA,NA
3910,361 Furth Circle,,San Diego,CA,91217,USA,NA
3096,361 Furth Circle,,San Diego,CA,91217,USA,NA
5182,361 Furth Circle,,San Diego,CA,91217,USA,NA
1218,361 Furth Circle,,San Diego,CA,91217,USA,NA
4794,361 Furth Circle,,San Diego,CA,91217,USA,NA
3407,361 Furth Circle,,San Diego,CA,91217,USA,NA
2267,361 Furth Circle,,San Diego,CA,91217,USA,NA
5714,361 Furth Circle,,San Diego,CA,91217,USA,NA
5997,636 St Kilda Road,Level 3,Melbourne,Victoria,3004,Australia,APAC
3599,636 St Kilda Road,Level 3,Melbourne,Victoria,3004,Australia,APAC
4212,636 St Kilda Road,Level 3,Melbourne,Victoria,3004,Australia,APAC
4438,636 St Kilda Road,Level 3,Melbourne,Victoria,3004,Australia,APAC
3801,636 St Kilda Road,Level 3,Melbourne,Victoria,3004,Australia,APAC
1524,636 St Kilda Road,Level 3,Melbourne,Victoria,3004,Australia,APAC
4562,636 St Kilda Road,Level 3,Melbourne,Victoria,3004,Australia,APAC
5417,636 St Kilda Road,Level 3,Melbourne,Victoria,3004,Australia,APAC
5035,636 St Kilda Road,Level 3,Melbourne,Victoria,3004,Australia,APAC
5166,636 St Kilda Road,Level 3,Melbourne,Victoria,3004,Australia,APAC
1357,636 St Kilda Road,Level 3,Melbourne,Victoria,3004,Australia,APAC
2774,636 St Kilda Road,Level 3,Melbourne,Victoria,3004,Australia,APAC
4146,636 St Kilda Road,Level 3,Melbourne,Victoria,3004,Australia,APAC
4887,636 St Kilda Road,Level 3,Melbourne,Victoria,3004,Australia,APAC
5730,636 St Kilda Road,Level 3,Melbourne,Victoria,3004,Australia,APAC
1250,"184, chausse de Tournai",,Lille,,59000,France,EMEA
3699,"184, chausse de Tournai",,Lille,,59000,France,EMEA
1761,"184, chausse de Tournai",,Lille,,59000,France,EMEA
1652,"184, chausse de Tournai",,Lille,,59000,France,EMEA
4958,"184, chausse de Tournai",,Lille,,59000,France,EMEA
3302,"184, chausse de Tournai",,Lille,,59000,France,EMEA
3786,Grenzacherweg 237,,Gensve,,1203,Switzerland,EMEA
4139,Grenzacherweg 237,,Gensve,,1203,Switzerland,EMEA
4584,Grenzacherweg 237,,Gensve,,1203,Switzerland,EMEA
3583,Grenzacherweg 237,,Gensve,,1203,Switzerland,EMEA
4831,Grenzacherweg 237,,Gensve,,1203,Switzerland,EMEA
2561,Grenzacherweg 237,,Gensve,,1203,Switzerland,EMEA
1673,Grenzacherweg 237,,Gensve,,1203,Switzerland,EMEA
4531,Grenzacherweg 237,,Gensve,,1203,Switzerland,EMEA
3765,Grenzacherweg 237,,Gensve,,1203,Switzerland,EMEA
5485,Grenzacherweg 237,,Gensve,,1203,Switzerland,EMEA
4087,Grenzacherweg 237,,Gensve,,1203,Switzerland,EMEA
5938,Grenzacherweg 237,,Gensve,,1203,Switzerland,EMEA
4180,Grenzacherweg 237,,Gensve,,1203,Switzerland,EMEA
1370,Grenzacherweg 237,,Gensve,,1203,Switzerland,EMEA
5382,361 Furth Circle,,San Diego,CA,91217,USA,NA
3064,361 Furth Circle,,San Diego,CA,91217,USA,NA
4838,361 Furth Circle,,San Diego,CA,91217,USA,NA
2186,361 Furth Circle,,San Diego,CA,91217,USA,NA
1868,361 Furth Circle,,San Diego,CA,91217,USA,NA
4451,361 Furth Circle,,San Diego,CA,91217,USA,NA
2722,361 Furth Circle,,San Diego,CA,91217,USA,NA
4732,"2, rue du Commerce",,Lyon,,69004,France,EMEA
1927,"2, rue du Commerce",,Lyon,,69004,France,EMEA
4943,"2, rue du Commerce",,Lyon,,69004,France,EMEA
3109,"2, rue du Commerce",,Lyon,,69004,France,EMEA
4950,"2, rue du Commerce",,Lyon,,69004,France,EMEA
5520,"2, rue du Commerce",,Lyon,,69004,France,EMEA
4086,"2, rue du Commerce",,Lyon,,69004,France,EMEA
2407,"2, rue du Commerce",,Lyon,,69004,France,EMEA
2083,"2, rue du Commerce",,Lyon,,69004,France,EMEA
4986,"2, rue du Commerce",,Lyon,,69004,France,EMEA
3389,"2, rue du Commerce",,Lyon,,69004,France,EMEA
2300,"2, rue du Commerce",,Lyon,,69004,France,EMEA
1265,"2, rue du Commerce",,Lyon,,69004,France,EMEA
3658,"2, rue du Commerce",,Lyon,,69004,France,EMEA
3393,"2, rue du Commerce",,Lyon,,69004,France,EMEA
1667,4658 Baden Av.,,Cambridge,MA,51247,USA,NA
2429,4658 Baden Av.,,Cambridge,MA,51247,USA,NA
2343,4658 Baden Av.,,Cambridge,MA,51247,USA,NA
3073,4658 Baden Av.,,Cambridge,MA,51247,USA,NA
1454,4658 Baden Av.,,Cambridge,MA,51247,USA,NA
2147,4658 Baden Av.,,Cambridge,MA,51247,USA,NA
1663,5677 Strong St.,,San Rafael,CA,97562,USA,NA
4809,5677 Strong St.,,San Rafael,CA,97562,USA,NA
2586,5677 Strong St.,,San Rafael,CA,97562,USA,NA
2103,5677 Strong St.,,San Rafael,CA,97562,USA,NA
3189,5677 Strong St.,,San Rafael,CA,97562,USA,NA
3805,5677 Strong St.,,San Rafael,CA,97562,USA,NA
3346,5677 Strong St.,,San Rafael,CA,97562,USA,NA
5018,5677 Strong St.,,San Rafael,CA,97562,USA,NA
3314,5677 Strong St.,,San Rafael,CA,97562,USA,NA
2546,5677 Strong St.,,San Rafael,CA,97562,USA,NA
5069,5677 Strong St.,,San Rafael,CA,97562,USA,NA
1492,5677 Strong St.,,San Rafael,CA,97562,USA,NA
4168,5677 Strong St.,,San Rafael,CA,97562,USA,NA
2634,5677 Strong St.,,San Rafael,CA,97562,USA,NA
4112,Lyonerstr. 34,,Frankfurt,,60528,Germany,EMEA
3223,Lyonerstr. 34,,Frankfurt,,60528,Germany,EMEA
5016,Lyonerstr. 34,,Frankfurt,,60528,Germany,EMEA
5040,Lyonerstr. 34,,Frankfurt,,60528,Germany,EMEA
1858,Lyonerstr. 34,,Frankfurt,,60528,Germany,EMEA
4816,Lyonerstr. 34,,Frankfurt,,60528,Germany,EMEA
5260,Lyonerstr. 34,,Frankfurt,,60528,Germany,EMEA
2437,Lyonerstr. 34,,Frankfurt,,60528,Germany,EMEA
1633,"Merchants House, 27-30 Merchant's Quay",,Madrid,,28023,Spain,EMEA
1120,"Merchants House, 27-30 Merchant's Quay",,Madrid,,28023,Spain,EMEA
3341,Garden House Crowther Way,,Cowes,Isle of Wight,PO31 7PJ,UK,EMEA
1006,Garden House Crowther Way,,Cowes,Isle of Wight,PO31 7PJ,UK,EMEA
3059,Garden House Crowther Way,,Cowes,Isle of Wight,PO31 7PJ,UK,EMEA
4969,Garden House Crowther Way,,Cowes,Isle of Wight,PO31 7PJ,UK,EMEA
1253,Garden House Crowther Way,,Cowes,Isle of Wight,PO31 7PJ,UK,EMEA
1734,Garden House Crowther Way,,Cowes,Isle of Wight,PO31 7PJ,UK,EMEA
4673,Garden House Crowther Way,,Cowes,Isle of Wight,PO31 7PJ,UK,EMEA
5055,Garden House Crowther Way,,Cowes,Isle of Wight,PO31 7PJ,UK,EMEA
5557,7476 Moss Rd.,,Newark,NJ,94019,USA,NA
4196,7476 Moss Rd.,,Newark,NJ,94019,USA,NA
3661,7476 Moss Rd.,,Newark,NJ,94019,USA,NA
2084,23 Tsawassen Blvd.,,Tsawassen,BC,T2F 8M4,Canada,NA
5462,23 Tsawassen Blvd.,,Tsawassen,BC,T2F 8M4,Canada,NA
3022,23 Tsawassen Blvd.,,Tsawassen,BC,T2F 8M4,Canada,NA
3691,23 Tsawassen Blvd.,,Tsawassen,BC,T2F 8M4,Canada,NA
4590,23 Tsawassen Blvd.,,Tsawassen,BC,T2F 8M4,Canada,NA
2831,23 Tsawassen Blvd.,,Tsawassen,BC,T2F 8M4,Canada,NA
5158,23 Tsawassen Blvd.,,Tsawassen,BC,T2F 8M4,Canada,NA
1517,23 Tsawassen Blvd.,,Tsawassen,BC,T2F 8M4,Canada,NA
5719,23 Tsawassen Blvd.,,Tsawassen,BC,T2F 8M4,Canada,NA
3433,23 Tsawassen Blvd.,,Tsawassen,BC,T2F 8M4,Canada,NA
4098,23 Tsawassen Blvd.,,Tsawassen,BC,T2F 8M4,Canada,NA
1222,23 Tsawassen Blvd.,,Tsawassen,BC,T2F 8M4,Canada,NA
1654,11328 Douglas Av.,,Philadelphia,PA,71270,USA,NA
1698,11328 Douglas Av.,,Philadelphia,PA,71270,USA,NA
3221,11328 Douglas Av.,,Philadelphia,PA,71270,USA,NA
3676,2678 Kingston Rd.,Suite 101,NYC,NY,10022,USA,NA
5230,2678 Kingston Rd.,Suite 101,NYC,NY,10022,USA,NA
2090,2678 Kingston Rd.,Suite 101,NYC,NY,10022,USA,NA
4704,2678 Kingston Rd.,Suite 101,NYC,NY,10022,USA,NA
3103,2678 Kingston Rd.,Suite 101,NYC,NY,10022,USA,NA
1844,2678 Kingston Rd.,Suite 101,NYC,NY,10022,USA,NA
3604,2678 Kingston Rd.,Suite 101,NYC,NY,10022,USA,NA
3957,2678 Kingston Rd.,Suite 101,NYC,NY,10022,USA,NA
5342,2678 Kingston Rd.,Suite 101,NYC,NY,10022,USA,NA
3965,Vinb'ltet 34,,Kobenhavn,,1734,Denmark,EMEA
2898,Vinb'ltet 34,,Kobenhavn,,1734,Denmark,EMEA
3237,Vinb'ltet 34,,Kobenhavn,,1734,Denmark,EMEA
1948,Vinb'ltet 34,,Kobenhavn,,1734,Denmark,EMEA
2726,Vinb'ltet 34,,Kobenhavn,,1734,Denmark,EMEA
2077,Vinb'ltet 34,,Kobenhavn,,1734,Denmark,EMEA
4859,Vinb'ltet 34,,Kobenhavn,,1734,Denmark,EMEA
3723,Vinb'ltet 34,,Kobenhavn,,1734,Denmark,EMEA
3984,Torikatu 38,,Oulu,,90110,Finland,EMEA
5700,Torikatu 38,,Oulu,,90110,Finland,EMEA
4046,Torikatu 38,,Oulu,,90110,Finland,EMEA
1465,Torikatu 38,,Oulu,,90110,Finland,EMEA
5317,Torikatu 38,,Oulu,,90110,Finland,EMEA
1024,"Dojima Avanza 4F, 1-6-20 Dojima, Kita-ku",,Osaka,Osaka,530-0003,Japan,Japan
3089,"24, place Kluber",,Strasbourg,,67000,France,EMEA
2239,"24, place Kluber",,Strasbourg,,67000,France,EMEA
3050,"Dojima Avanza 4F, 1-6-20 Dojima, Kita-ku",,Osaka,Osaka,530-0003,Japan,Japan
4852,"24, place Kluber",,Strasbourg,,67000,France,EMEA
4340,"24, place Kluber",,Strasbourg,,67000,France,EMEA
4194,"Dojima Avanza 4F, 1-6-20 Dojima, Kita-ku",,Osaka,Osaka,530-0003,Japan,Japan
2788,"24, place Kluber",,Strasbourg,,67000,France,EMEA
3018,"24, place Kluber",,Strasbourg,,67000,France,EMEA
4591,"24, place Kluber",,Strasbourg,,67000,France,EMEA
5915,"24, place Kluber",,Strasbourg,,67000,France,EMEA
2900,"24, place Kluber",,Strasbourg,,67000,France,EMEA
2987,"24, place Kluber",,Strasbourg,,67000,France,EMEA
3528,"24, place Kluber",,Strasbourg,,67000,France,EMEA
2781,"24, place Kluber",,Strasbourg,,67000,France,EMEA
5264,5290 North Pendale Street,Suite 200,NYC,NY,10022,USA,NA
2329,6251 Ingle Ln.,,Boston,MA,51003,USA,NA
3689,6251 Ingle Ln.,,Boston,MA,51003,USA,NA
3374,"C/ Moralzarzal, 86",,Madrid,,28034,Spain,EMEA
5199,"C/ Moralzarzal, 86",,Madrid,,28034,Spain,EMEA
1980,"C/ Moralzarzal, 86",,Madrid,,28034,Spain,EMEA
5371,"C/ Moralzarzal, 86",,Madrid,,28034,Spain,EMEA
4759,"C/ Moralzarzal, 86",,Madrid,,28034,Spain,EMEA
5144,"C/ Moralzarzal, 86",,Madrid,,28034,Spain,EMEA
2802,"C/ Moralzarzal, 86",,Madrid,,28034,Spain,EMEA
1597,"C/ Moralzarzal, 86",,Madrid,,28034,Spain,EMEA
4635,"C/ Moralzarzal, 86",,Madrid,,28034,Spain,EMEA
5362,567 North Pendale Street,,New Haven,CT,97823,USA,NA
1377,567 North Pendale Street,,New Haven,CT,97823,USA,NA
2336,567 North Pendale Street,,New Haven,CT,97823,USA,NA
3411,567 North Pendale Street,,New Haven,CT,97823,USA,NA
4749,567 North Pendale Street,,New Haven,CT,97823,USA,NA
1046,567 North Pendale Street,,New Haven,CT,97823,USA,NA
2283,567 North Pendale Street,,New Haven,CT,97823,USA,NA
4690,567 North Pendale Street,,New Haven,CT,97823,USA,NA
4275,567 North Pendale Street,,New Haven,CT,97823,USA,NA
3503,"Software Engineering Center, SEC Oy",,Espoo,,FIN-02271,Finland,EMEA
2839,"Software Engineering Center, SEC Oy",,Espoo,,FIN-02271,Finland,EMEA
2827,"Software Engineering Center, SEC Oy",,Espoo,,FIN-02271,Finland,EMEA
5962,"C/ Moralzarzal, 86",,Madrid,,28034,Spain,EMEA
5104,"C/ Moralzarzal, 86",,Madrid,,28034,Spain,EMEA
2682,"C/ Moralzarzal, 86",,Madrid,,28034,Spain,EMEA
5912,"C/ Moralzarzal, 86",,Madrid,,28034,Spain,EMEA
4571,"C/ Moralzarzal, 86",,Madrid,,28034,Spain,EMEA
4893,"Software Engineering Center, SEC Oy",,Espoo,,FIN-02271,Finland,EMEA
4556,"C/ Moralzarzal, 86",,Madrid,,28034,Spain,EMEA
1865,"C/ Moralzarzal, 86",,Madrid,,28034,Spain,EMEA
5681,"C/ Moralzarzal, 86",,Madrid,,28034,Spain,EMEA
3095,"C/ Moralzarzal, 86",,Madrid,,28034,Spain,EMEA
4926,"C/ Moralzarzal, 86",,Madrid,,28034,Spain,EMEA
1963,"Software Engineering Center, SEC Oy",,Espoo,,FIN-02271,Finland,EMEA
3741,"C/ Moralzarzal, 86",,Madrid,,28034,Spain,EMEA
4649,"Software Engineering Center, SEC Oy",,Espoo,,FIN-02271,Finland,EMEA
1238,897 Long Airport Avenue,,NYC,NY,10022,USA,NA
4276,897 Long Airport Avenue,,NYC,NY,10022,USA,NA
5467,897 Long Airport Avenue,,NYC,NY,10022,USA,NA
3574,897 Long Airport Avenue,,NYC,NY,10022,USA,NA
5872,897 Long Airport Avenue,,NYC,NY,10022,USA,NA
1838,897 Long Airport Avenue,,NYC,NY,10022,USA,NA
5365,897 Long Airport Avenue,,NYC,NY,10022,USA,NA
3835,897 Long Airport Avenue,,NYC,NY,10022,USA,NA
1058,897 Long Airport Avenue,,NYC,NY,10022,USA,NA
2954,897 Long Airport Avenue,,NYC,NY,10022,USA,NA
4700,897 Long Airport Avenue,,NYC,NY,10022,USA,NA
5943,897 Long Airport Avenue,,NYC,NY,10022,USA,NA
2485,897 Long Airport Avenue,,NYC,NY,10022,USA,NA
5616,897 Long Airport Avenue,,NYC,NY,10022,USA,NA
1918,4658 Baden Av.,,Cambridge,MA,51247,USA,NA
2823,4658 Baden Av.,,Cambridge,MA,51247,USA,NA
2467,4658 Baden Av.,,Cambridge,MA,51247,USA,NA
1282,4658 Baden Av.,,Cambridge,MA,51247,USA,NA
5269,4658 Baden Av.,,Cambridge,MA,51247,USA,NA
2392,3086 Ingle Ln.,,San Jose,CA,94217,USA,NA
1155,3086 Ingle Ln.,,San Jose,CA,94217,USA,NA
5224,3086 Ingle Ln.,,San Jose,CA,94217,USA,NA
2984,3086 Ingle Ln.,,San Jose,CA,94217,USA,NA
4406,3086 Ingle Ln.,,San Jose,CA,94217,USA,NA
4979,3086 Ingle Ln.,,San Jose,CA,94217,USA,NA
2598,3086 Ingle Ln.,,San Jose,CA,94217,USA,NA
3303,3086 Ingle Ln.,,San Jose,CA,94217,USA,NA
2197,3086 Ingle Ln.,,San Jose,CA,94217,USA,NA
3593,3086 Ingle Ln.,,San Jose,CA,94217,USA,NA
1994,3086 Ingle Ln.,,San Jose,CA,94217,USA,NA
4891,3086 Ingle Ln.,,San Jose,CA,94217,USA,NA
3983,3086 Ingle Ln.,,San Jose,CA,94217,USA,NA
5769,3086 Ingle Ln.,,San Jose,CA,94217,USA,NA
5114,7476 Moss Rd.,,Newark,NJ,94019,USA,NA
3281,7476 Moss Rd.,,Newark,NJ,94019,USA,NA
3086,7476 Moss Rd.,,Newark,NJ,94019,USA,NA
5132,7476 Moss Rd.,,Newark,NJ,94019,USA,NA
5819,7476 Moss Rd.,,Newark,NJ,94019,USA,NA
2223,7476 Moss Rd.,,Newark,NJ,94019,USA,NA
5820,"25, rue Lauriston",,Paris,,75016,France,EMEA
5335,"25, rue Lauriston",,Paris,,75016,France,EMEA
4867,"25, rue Lauriston",,Paris,,75016,France,EMEA
2157,"25, rue Lauriston",,Paris,,75016,France,EMEA
4053,"25, rue Lauriston",,Paris,,75016,France,EMEA
1293,"25, rue Lauriston",,Paris,,75016,France,EMEA
2714,"25, rue Lauriston",,Paris,,75016,France,EMEA
2042,"25, rue Lauriston",,Paris,,75016,France,EMEA
3251,"25, rue Lauriston",,Paris,,75016,France,EMEA
2029,Berkeley Gardens 12  Brewery,,Liverpool,,WX1 6LT,UK,EMEA
2759,Berkeley Gardens 12  Brewery,,Liverpool,,WX1 6LT,UK,EMEA
4324,Berkeley Gardens 12  Brewery,,Liverpool,,WX1 6LT,UK,EMEA
4085,Berkeley Gardens 12  Brewery,,Liverpool,,WX1 6LT,UK,EMEA
5745,Berkeley Gardens 12  Brewery,,Liverpool,,WX1 6LT,UK,EMEA
4193,Berkeley Gardens 12  Brewery,,Liverpool,,WX1 6LT,UK,EMEA
3384,Berkeley Gardens 12  Brewery,,Liverpool,,WX1 6LT,UK,EMEA
1570,Berkeley Gardens 12  Brewery,,Liverpool,,WX1 6LT,UK,EMEA
3769,Berkeley Gardens 12  Brewery,,Liverpool,,WX1 6LT,UK,EMEA
4539,Berkeley Gardens 12  Brewery,,Liverpool,,WX1 6LT,UK,EMEA
5899,Berkeley Gardens 12  Brewery,,Liverpool,,WX1 6LT,UK,EMEA
2921,Berkeley Gardens 12  Brewery,,Liverpool,,WX1 6LT,UK,EMEA
4803,Berkeley Gardens 12  Brewery,,Liverpool,,WX1 6LT,UK,EMEA
2124,Berkeley Gardens 12  Brewery,,Liverpool,,WX1 6LT,UK,EMEA
4300,"24, place Kluber",,Strasbourg,,67000,France,EMEA
3049,"24, place Kluber",,Strasbourg,,67000,France,EMEA
4219,Vinb'ltet 34,,Kobenhavn,,1734,Denmark,EMEA
5065,Vinb'ltet 34,,Kobenhavn,,1734,Denmark,EMEA
4388,3086 Ingle Ln.,,San Jose,CA,94217,USA,NA
5170,3086 Ingle Ln.,,San Jose,CA,94217,USA,NA
3263,3086 Ingle Ln.,,San Jose,CA,94217,USA,NA
1680,3086 Ingle Ln.,,San Jose,CA,94217,USA,NA
4057,3086 Ingle Ln.,,San Jose,CA,94217,USA,NA
2699,2-2-8 Roppongi,,Minato-ku,Tokyo,106-0032,Japan,Japan
3686,Village Close - 106 Linden Road Sandown,2nd Floor,Singapore,,69045,Singapore,APAC
4875,2-2-8 Roppongi,,Minato-ku,Tokyo,106-0032,Japan,Japan
2732,Village Close - 106 Linden Road Sandown,2nd Floor,Singapore,,69045,Singapore,APAC
5211,2-2-8 Roppongi,,Minato-ku,Tokyo,106-0032,Japan,Japan
4065,Village Close - 106 Linden Road Sandown,2nd Floor,Singapore,,69045,Singapore,APAC
2937,Village Close - 106 Linden Road Sandown,2nd Floor,Singapore,,69045,Singapore,APAC
5014,Village Close - 106 Linden Road Sandown,2nd Floor,Singapore,,69045,Singapore,APAC
2250,Village Close - 106 Linden Road Sandown,2nd Floor,Singapore,,69045,Singapore,APAC
2600,Village Close - 106 Linden Road Sandown,2nd Floor,Singapore,,69045,Singapore,APAC
1074,2-2-8 Roppongi,,Minato-ku,Tokyo,106-0032,Japan,Japan
3156,Village Close - 106 Linden Road Sandown,2nd Floor,Singapore,,69045,Singapore,APAC
3787,Village Close - 106 Linden Road Sandown,2nd Floor,Singapore,,69045,Singapore,APAC
3418,Village Close - 106 Linden Road Sandown,2nd Floor,Singapore,,69045,Singapore,APAC
4659,Village Close - 106 Linden Road Sandown,2nd Floor,Singapore,,69045,Singapore,APAC
3042,Village Close - 106 Linden Road Sandown,2nd Floor,Singapore,,69045,Singapore,APAC
4469,2-2-8 Roppongi,,Minato-ku,Tokyo,106-0032,Japan,Japan
3876,Village Close - 106 Linden Road Sandown,2nd Floor,Singapore,,69045,Singapore,APAC
2181,2-2-8 Roppongi,,Minato-ku,Tokyo,106-0032,Japan,Japan
5242,43 rue St. Laurent,,Montreal,Quebec,H1J 1C3,Canada,NA
2431,43 rue St. Laurent,,Montreal,Quebec,H1J 1C3,Canada,NA
1991,43 rue St. Laurent,,Montreal,Quebec,H1J 1C3,Canada,NA
2599,43 rue St. Laurent,,Montreal,Quebec,H1J 1C3,Canada,NA
2872,43 rue St. Laurent,,Montreal,Quebec,H1J 1C3,Canada,NA
2949,43 rue St. Laurent,,Montreal,Quebec,H1J 1C3,Canada,NA
4647,43 rue St. Laurent,,Montreal,Quebec,H1J 1C3,Canada,NA
3618,43 rue St. Laurent,,Montreal,Quebec,H1J 1C3,Canada,NA
1295,43 rue St. Laurent,,Montreal,Quebec,H1J 1C3,Canada,NA
2516,"C/ Moralzarzal, 86",,Madrid,,28034,Spain,EMEA
3940,"C/ Moralzarzal, 86",,Madrid,,28034,Spain,EMEA
3392,"C/ Moralzarzal, 86",,Madrid,,28034,Spain,EMEA
3193,"C/ Moralzarzal, 86",,Madrid,,28034,Spain,EMEA
2193,"C/ Moralzarzal, 86",,Madrid,,28034,Spain,EMEA
3855,"C/ Moralzarzal, 86",,Madrid,,28034,Spain,EMEA
4892,"C/ Moralzarzal, 86",,Madrid,,28034,Spain,EMEA
5348,"C/ Moralzarzal, 86",,Madrid,,28034,Spain,EMEA
1807,"C/ Moralzarzal, 86",,Madrid,,28034,Spain,EMEA
2506,"C/ Moralzarzal, 86",,Madrid,,28034,Spain,EMEA
4345,"C/ Moralzarzal, 86",,Madrid,,28034,Spain,EMEA
2161,"C/ Moralzarzal, 86",,Madrid,,28034,Spain,EMEA
3920,"C/ Moralzarzal, 86",,Madrid,,28034,Spain,EMEA
4223,"C/ Moralzarzal, 86",,Madrid,,28034,Spain,EMEA
2465,"C/ Moralzarzal, 86",,Madrid,,28034,Spain,EMEA
3883,"C/ Moralzarzal, 86",,Madrid,,28034,Spain,EMEA
4685,25593 South Bay Ln.,,Bridgewater,CT,97562,USA,NA
4753,25593 South Bay Ln.,,Bridgewater,CT,97562,USA,NA
2829,25593 South Bay Ln.,,Bridgewater,CT,97562,USA,NA
3253,25593 South Bay Ln.,,Bridgewater,CT,97562,USA,NA
1484,25593 South Bay Ln.,,Bridgewater,CT,97562,USA,NA
2116,25593 South Bay Ln.,,Bridgewater,CT,97562,USA,NA
3839,25593 South Bay Ln.,,Bridgewater,CT,97562,USA,NA
5053,25593 South Bay Ln.,,Bridgewater,CT,97562,USA,NA
3777,25593 South Bay Ln.,,Bridgewater,CT,97562,USA,NA
1047,25593 South Bay Ln.,,Bridgewater,CT,97562,USA,NA
2930,25593 South Bay Ln.,,Bridgewater,CT,97562,USA,NA
3561,8616 Spinnaker Dr.,,Boston,MA,51003,USA,NA
5003,8616 Spinnaker Dr.,,Boston,MA,51003,USA,NA
5595,8616 Spinnaker Dr.,,Boston,MA,51003,USA,NA
5754,8616 Spinnaker Dr.,,Boston,MA,51003,USA,NA
1831,8616 Spinnaker Dr.,,Boston,MA,51003,USA,NA
3079,8616 Spinnaker Dr.,,Boston,MA,51003,USA,NA
2654,8616 Spinnaker Dr.,,Boston,MA,51003,USA,NA
1173,7 Allen Street,,Glen Waverly,Victoria,3150,Australia,APAC
2466,7 Allen Street,,Glen Waverly,Victoria,3150,Australia,APAC
3558,Strada Provinciale 124,,Reggio Emilia,,42100,Italy,EMEA
1174,Strada Provinciale 124,,Reggio Emilia,,42100,Italy,EMEA
5298,Strada Provinciale 124,,Reggio Emilia,,42100,Italy,EMEA
4475,Strada Provinciale 124,,Reggio Emilia,,42100,Italy,EMEA
2627,Strada Provinciale 124,,Reggio Emilia,,42100,Italy,EMEA
2185,Strada Provinciale 124,,Reggio Emilia,,42100,Italy,EMEA
3212,Strada Provinciale 124,,Reggio Emilia,,42100,Italy,EMEA
4097,Strada Provinciale 124,,Reggio Emilia,,42100,Italy,EMEA
2860,Strada Provinciale 124,,Reggio Emilia,,42100,Italy,EMEA
1353,Strada Provinciale 124,,Reggio Emilia,,42100,Italy,EMEA
3925,Strada Provinciale 124,,Reggio Emilia,,42100,Italy,EMEA
4404,Strada Provinciale 124,,Reggio Emilia,,42100,Italy,EMEA
2445,Strada Provinciale 124,,Reggio Emilia,,42100,Italy,EMEA
4200,Strada Provinciale 124,,Reggio Emilia,,42100,Italy,EMEA
2330,Strada Provinciale 124,,Reggio Emilia,,42100,Italy,EMEA
1587,4092 Furth Circle,Suite 400,NYC,NY,10022,USA,NA
2375,4092 Furth Circle,Suite 400,NYC,NY,10022,USA,NA
4292,4092 Furth Circle,Suite 400,NYC,NY,10022,USA,NA
1100,4092 Furth Circle,Suite 400,NYC,NY,10022,USA,NA
4988,4092 Furth Circle,Suite 400,NYC,NY,10022,USA,NA
1627,4092 Furth Circle,Suite 400,NYC,NY,10022,USA,NA
3294,Geislweg 14,,Salzburg,,5020,Austria,EMEA
1385,Geislweg 14,,Salzburg,,5020,Austria,EMEA
2426,"Monitor Money Building, 815 Pacific Hwy",Level 6,Chatswood,NSW,2067,Australia,APAC
4629,"Monitor Money Building, 815 Pacific Hwy",Level 6,Chatswood,NSW,2067,Australia,APAC
3696,"Monitor Money Building, 815 Pacific Hwy",Level 6,Chatswood,NSW,2067,Australia,APAC
5736,"Monitor Money Building, 815 Pacific Hwy",Level 6,Chatswood,NSW,2067,Australia,APAC
4387,"Monitor Money Building, 815 Pacific Hwy",Level 6,Chatswood,NSW,2067,Australia,APAC
4104,"Monitor Money Building, 815 Pacific Hwy",Level 6,Chatswood,NSW,2067,Australia,APAC
2369,"Monitor Money Building, 815 Pacific Hwy",Level 6,Chatswood,NSW,2067,Australia,APAC
3312,"Monitor Money Building, 815 Pacific Hwy",Level 6,Chatswood,NSW,2067,Australia,APAC
1908,"Monitor Money Building, 815 Pacific Hwy",Level 6,Chatswood,NSW,2067,Australia,APAC
1003,"Monitor Money Building, 815 Pacific Hwy",Level 6,Chatswood,NSW,2067,Australia,APAC
1414,"Monitor Money Building, 815 Pacific Hwy",Level 6,Chatswood,NSW,2067,Australia,APAC
1958,7586 Pompton St.,,Allentown,PA,70267,USA,NA
3224,7586 Pompton St.,,Allentown,PA,70267,USA,NA
3752,7586 Pompton St.,,Allentown,PA,70267,USA,NA
4113,5677 Strong St.,,San Rafael,CA,97562,USA,NA
4553,5677 Strong St.,,San Rafael,CA,97562,USA,NA
4419,5677 Strong St.,,San Rafael,CA,97562,USA,NA
3235,5677 Strong St.,,San Rafael,CA,97562,USA,NA
3137,5677 Strong St.,,San Rafael,CA,97562,USA,NA
3043,7586 Pompton St.,,Allentown,PA,70267,USA,NA
1354,5677 Strong St.,,San Rafael,CA,97562,USA,NA
3296,5677 Strong St.,,San Rafael,CA,97562,USA,NA
3069,5677 Strong St.,,San Rafael,CA,97562,USA,NA
2664,5677 Strong St.,,San Rafael,CA,97562,USA,NA
3757,5677 Strong St.,,San Rafael,CA,97562,USA,NA
1543,7586 Pompton St.,,Allentown,PA,70267,USA,NA
5135,5677 Strong St.,,San Rafael,CA,97562,USA,NA
5323,7586 Pompton St.,,Allentown,PA,70267,USA,NA
5906,Rue Joseph-Bens 532,,Bruxelles,,B-1180,Belgium,EMEA
4099,7825 Douglas Av.,,Brickhaven,MA,58339,USA,NA
2231,Rue Joseph-Bens 532,,Bruxelles,,B-1180,Belgium,EMEA
5281,Rue Joseph-Bens 532,,Bruxelles,,B-1180,Belgium,EMEA
5303,Rue Joseph-Bens 532,,Bruxelles,,B-1180,Belgium,EMEA
5505,Rue Joseph-Bens 532,,Bruxelles,,B-1180,Belgium,EMEA
2359,Rue Joseph-Bens 532,,Bruxelles,,B-1180,Belgium,EMEA
4712,Rue Joseph-Bens 532,,Bruxelles,,B-1180,Belgium,EMEA
4109,7825 Douglas Av.,,Brickhaven,MA,58339,USA,NA
1345,Rue Joseph-Bens 532,,Bruxelles,,B-1180,Belgium,EMEA
1438,7825 Douglas Av.,,Brickhaven,MA,58339,USA,NA
1334,Rue Joseph-Bens 532,,Bruxelles,,B-1180,Belgium,EMEA
4434,Rue Joseph-Bens 532,,Bruxelles,,B-1180,Belgium,EMEA
5327,Rue Joseph-Bens 532,,Bruxelles,,B-1180,Belgium,EMEA
4713,7825 Douglas Av.,,Brickhaven,MA,58339,USA,NA
3541,Rue Joseph-Bens 532,,Bruxelles,,B-1180,Belgium,EMEA
1557,Rue Joseph-Bens 532,,Bruxelles,,B-1180,Belgium,EMEA
2784,Rue Joseph-Bens 532,,Bruxelles,,B-1180,Belgium,EMEA
2725,7825 Douglas Av.,,Brickhaven,MA,58339,USA,NA
4337,Rue Joseph-Bens 532,,Bruxelles,,B-1180,Belgium,EMEA
3219,"67, rue des Cinquante Otages",,Nantes,,44000,France,EMEA
2793,"67, rue des Cinquante Otages",,Nantes,,44000,France,EMEA
3230,"67, rue des Cinquante Otages",,Nantes,,44000,France,EMEA
2073,"67, rue des Cinquante Otages",,Nantes,,44000,France,EMEA
2132,"67, rue des Cinquante Otages",,Nantes,,44000,France,EMEA
4273,"67, rue des Cinquante Otages",,Nantes,,44000,France,EMEA
1573,"67, rue des Cinquante Otages",,Nantes,,44000,France,EMEA
2264,"67, rue des Cinquante Otages",,Nantes,,44000,France,EMEA
2487,"67, rue des Cinquante Otages",,Nantes,,44000,France,EMEA
2033,"67, rue des Cinquante Otages",,Nantes,,44000,France,EMEA
4348,"67, rue des Cinquante Otages",,Nantes,,44000,France,EMEA
3141,"67, rue des Cinquante Otages",,Nantes,,44000,France,EMEA
3543,"67, rue des Cinquante Otages",,Nantes,,44000,France,EMEA
1076,"67, rue des Cinquante Otages",,Nantes,,44000,France,EMEA
2227,"67, rue des Cinquante Otages",,Nantes,,44000,France,EMEA
4436,"67, rue des Cinquante Otages",,Nantes,,44000,France,EMEA
5168,"67, rue des Cinquante Otages",,Nantes,,44000,France,EMEA
5907,"67, rue des Cinquante Otages",,Nantes,,44000,France,EMEA
2991,7635 Spinnaker Dr.,,Brickhaven,MA,58339,USA,NA
4314,7635 Spinnaker Dr.,,Brickhaven,MA,58339,USA,NA
3102,7635 Spinnaker Dr.,,Brickhaven,MA,58339,USA,NA
4412,7635 Spinnaker Dr.,,Brickhaven,MA,58339,USA,NA
3931,7635 Spinnaker Dr.,,Brickhaven,MA,58339,USA,NA
4110,7635 Spinnaker Dr.,,Brickhaven,MA,58339,USA,NA
3307,7635 Spinnaker Dr.,,Brickhaven,MA,58339,USA,NA
2705,7635 Spinnaker Dr.,,Brickhaven,MA,58339,USA,NA
2192,7635 Spinnaker Dr.,,Brickhaven,MA,58339,USA,NA
1483,7635 Spinnaker Dr.,,Brickhaven,MA,58339,USA,NA
4092,7635 Spinnaker Dr.,,Brickhaven,MA,58339,USA,NA
2816,7635 Spinnaker Dr.,,Brickhaven,MA,58339,USA,NA
3521,7635 Spinnaker Dr.,,Brickhaven,MA,58339,USA,NA
5986,7635 Spinnaker Dr.,,Brickhaven,MA,58339,USA,NA
3996,"Bronz Sok., Bronz Apt. 3/6 Tesvikiye",,Singapore,,79903,Singapore,Japan
4018,8489 Strong St.,,Las Vegas,NV,83030,USA,NA
4881,8489 Strong St.,,Las Vegas,NV,83030,USA,NA
3240,8489 Strong St.,,Las Vegas,NV,83030,USA,NA
3638,8489 Strong St.,,Las Vegas,NV,83030,USA,NA
2765,8489 Strong St.,,Las Vegas,NV,83030,USA,NA
5989,8489 Strong St.,,Las Vegas,NV,83030,USA,NA
4572,8489 Strong St.,,Las Vegas,NV,83030,USA,NA
1590,8489 Strong St.,,Las Vegas,NV,83030,USA,NA
3139,8489 Strong St.,,Las Vegas,NV,83030,USA,NA
4229,8489 Strong St.,,Las Vegas,NV,83030,USA,NA
4115,"C/ Moralzarzal, 86",,Madrid,,28034,Spain,EMEA
3369,"C/ Moralzarzal, 86",,Madrid,,28034,Spain,EMEA
2750,"C/ Moralzarzal, 86",,Madrid,,28034,Spain,EMEA
2372,"C/ Moralzarzal, 86",,Madrid,,28034,Spain,EMEA
4824,"C/ Moralzarzal, 86",,Madrid,,28034,Spain,EMEA
5088,"C/ Moralzarzal, 86",,Madrid,,28034,Spain,EMEA
1383,Via Monte Bianco 34,,Torino,,10100,Italy,EMEA
4361,Via Monte Bianco 34,,Torino,,10100,Italy,EMEA
1125,Via Monte Bianco 34,,Torino,,10100,Italy,EMEA
3524,Via Monte Bianco 34,,Torino,,10100,Italy,EMEA
1658,Via Monte Bianco 34,,Torino,,10100,Italy,EMEA
4111,Via Monte Bianco 34,,Torino,,10100,Italy,EMEA
3884,Via Monte Bianco 34,,Torino,,10100,Italy,EMEA
3858,Via Monte Bianco 34,,Torino,,10100,Italy,EMEA
4812,Via Monte Bianco 34,,Torino,,10100,Italy,EMEA
4304,Via Monte Bianco 34,,Torino,,10100,Italy,EMEA
5844,Via Monte Bianco 34,,Torino,,10100,Italy,EMEA
4060,Via Monte Bianco 34,,Torino,,10100,Italy,EMEA
1693,Via Monte Bianco 34,,Torino,,10100,Italy,EMEA
1580,Via Monte Bianco 34,,Torino,,10100,Italy,EMEA
4251,Via Monte Bianco 34,,Torino,,10100,Italy,EMEA
4617,Via Monte Bianco 34,,Torino,,10100,Italy,EMEA
4688,Via Monte Bianco 34,,Torino,,10100,Italy,EMEA
4633,7586 Pompton St.,,Allentown,PA,70267,USA,NA
1413,7586 Pompton St.,,Allentown,PA,70267,USA,NA
5641,7586 Pompton St.,,Allentown,PA,70267,USA,NA
4257,7586 Pompton St.,,Allentown,PA,70267,USA,NA
2348,7586 Pompton St.,,Allentown,PA,70267,USA,NA
1331,7586 Pompton St.,,Allentown,PA,70267,USA,NA
3852,7586 Pompton St.,,Allentown,PA,70267,USA,NA
2796,7586 Pompton St.,,Allentown,PA,70267,USA,NA
1247,7586 Pompton St.,,Allentown,PA,70267,USA,NA
3926,7586 Pompton St.,,Allentown,PA,70267,USA,NA
2771,7586 Pompton St.,,Allentown,PA,70267,USA,NA
5389,7586 Pompton St.,,Allentown,PA,70267,USA,NA
3239,7586 Pompton St.,,Allentown,PA,70267,USA,NA
4237,7586 Pompton St.,,Allentown,PA,70267,USA,NA
3817,23 Tsawassen Blvd.,,Tsawassen,BC,T2F 8M4,Canada,NA
2568,5677 Strong St.,,San Rafael,CA,97562,USA,NA
5770,5677 Strong St.,,San Rafael,CA,97562,USA,NA
2256,5677 Strong St.,,San Rafael,CA,97562,USA,NA
2292,5677 Strong St.,,San Rafael,CA,97562,USA,NA
1467,23 Tsawassen Blvd.,,Tsawassen,BC,T2F 8M4,Canada,NA
5827,5677 Strong St.,,San Rafael,CA,97562,USA,NA
3941,5677 Strong St.,,San Rafael,CA,97562,USA,NA
5477,23 Tsawassen Blvd.,,Tsawassen,BC,T2F 8M4,Canada,NA
5884,5677 Strong St.,,San Rafael,CA,97562,USA,NA
5870,23 Tsawassen Blvd.,,Tsawassen,BC,T2F 8M4,Canada,NA
5146,5677 Strong St.,,San Rafael,CA,97562,USA,NA
4889,23 Tsawassen Blvd.,,Tsawassen,BC,T2F 8M4,Canada,NA
3717,23 Tsawassen Blvd.,,Tsawassen,BC,T2F 8M4,Canada,NA
4616,23 Tsawassen Blvd.,,Tsawassen,BC,T2F 8M4,Canada,NA
1780,5677 Strong St.,,San Rafael,CA,97562,USA,NA
4216,5677 Strong St.,,San Rafael,CA,97562,USA,NA
1598,5677 Strong St.,,San Rafael,CA,97562,USA,NA
4711,5677 Strong St.,,San Rafael,CA,97562,USA,NA
3048,23 Tsawassen Blvd.,,Tsawassen,BC,T2F 8M4,Canada,NA
5405,5677 Strong St.,,San Rafael,CA,97562,USA,NA
4730,23 Tsawassen Blvd.,,Tsawassen,BC,T2F 8M4,Canada,NA
1194,23 Tsawassen Blvd.,,Tsawassen,BC,T2F 8M4,Canada,NA
3279,23 Tsawassen Blvd.,,Tsawassen,BC,T2F 8M4,Canada,NA
4923,23 Tsawassen Blvd.,,Tsawassen,BC,T2F 8M4,Canada,NA
3409,23 Tsawassen Blvd.,,Tsawassen,BC,T2F 8M4,Canada,NA
1458,23 Tsawassen Blvd.,,Tsawassen,BC,T2F 8M4,Canada,NA
1291,"Drammensveien 126 A, PB 744 Sentrum",,Oslo,,N 0106,Norway,EMEA
3115,"Drammensveien 126 A, PB 744 Sentrum",,Oslo,,N 0106,Norway,EMEA
3547,"Drammensveien 126 A, PB 744 Sentrum",,Oslo,,N 0106,Norway,EMEA
2803,"Drammensveien 126 A, PB 744 Sentrum",,Oslo,,N 0106,Norway,EMEA
3818,"Drammensveien 126 A, PB 744 Sentrum",,Oslo,,N 0106,Norway,EMEA
1768,"Drammensveien 126 A, PB 744 Sentrum",,Oslo,,N 0106,Norway,EMEA
2639,"Drammensveien 126 A, PB 744 Sentrum",,Oslo,,N 0106,Norway,EMEA
2625,"Drammensveien 126 A, PB 744 Sentrum",,Oslo,,N 0106,Norway,EMEA
4031,"Drammensveien 126 A, PB 744 Sentrum",,Oslo,,N 0106,Norway,EMEA
5359,"Drammensveien 126 A, PB 744 Sentrum",,Oslo,,N 0106,Norway,EMEA
3560,"Drammensveien 126 A, PB 744 Sentrum",,Oslo,,N 0106,Norway,EMEA
3656,"Drammensveien 126 A, PB 744 Sentrum",,Oslo,,N 0106,Norway,EMEA
4498,"Drammensveien 126 A, PB 744 Sentrum",,Oslo,,N 0106,Norway,EMEA
5043,39323 Spinnaker Dr.,,Cambridge,MA,51247,USA,NA
2620,39323 Spinnaker Dr.,,Cambridge,MA,51247,USA,NA
3572,39323 Spinnaker Dr.,,Cambridge,MA,51247,USA,NA
4937,39323 Spinnaker Dr.,,Cambridge,MA,51247,USA,NA
5471,39323 Spinnaker Dr.,,Cambridge,MA,51247,USA,NA
3837,39323 Spinnaker Dr.,,Cambridge,MA,51247,USA,NA
1650,39323 Spinnaker Dr.,,Cambridge,MA,51247,USA,NA
4302,39323 Spinnaker Dr.,,Cambridge,MA,51247,USA,NA
4768,39323 Spinnaker Dr.,,Cambridge,MA,51247,USA,NA
2324,39323 Spinnaker Dr.,,Cambridge,MA,51247,USA,NA
3209,39323 Spinnaker Dr.,,Cambridge,MA,51247,USA,NA
4042,39323 Spinnaker Dr.,,Cambridge,MA,51247,USA,NA
5799,39323 Spinnaker Dr.,,Cambridge,MA,51247,USA,NA
1336,"265, boulevard Charonne",,Paris,,75012,France,EMEA
4665,Grenzacherweg 237,,Gensve,,1203,Switzerland,EMEA
5364,Grenzacherweg 237,,Gensve,,1203,Switzerland,EMEA
4634,Grenzacherweg 237,,Gensve,,1203,Switzerland,EMEA
3595,Grenzacherweg 237,,Gensve,,1203,Switzerland,EMEA
3670,Grenzacherweg 237,,Gensve,,1203,Switzerland,EMEA
4030,Grenzacherweg 237,,Gensve,,1203,Switzerland,EMEA
3746,Grenzacherweg 237,,Gensve,,1203,Switzerland,EMEA
2276,Grenzacherweg 237,,Gensve,,1203,Switzerland,EMEA
5998,Grenzacherweg 237,,Gensve,,1203,Switzerland,EMEA
1534,Grenzacherweg 237,,Gensve,,1203,Switzerland,EMEA
5005,Grenzacherweg 237,,Gensve,,1203,Switzerland,EMEA
4444,Grenzacherweg 237,,Gensve,,1203,Switzerland,EMEA
2851,Grenzacherweg 237,,Gensve,,1203,Switzerland,EMEA
2761,Grenzacherweg 237,,Gensve,,1203,Switzerland,EMEA
3338,Grenzacherweg 237,,Gensve,,1203,Switzerland,EMEA
2138,Grenzacherweg 237,,Gensve,,1203,Switzerland,EMEA
1420,Grenzacherweg 237,,Gensve,,1203,Switzerland,EMEA
2895,Village Close - 106 Linden Road Sandown,2nd Floor,Singapore,,69045,Singapore,APAC
4140,Village Close - 106 Linden Road Sandown,2nd Floor,Singapore,,69045,Singapore,APAC
5947,Village Close - 106 Linden Road Sandown,2nd Floor,Singapore,,69045,Singapore,APAC
2845,Village Close - 106 Linden Road Sandown,2nd Floor,Singapore,,69045,Singapore,APAC
1161,Village Close - 106 Linden Road Sandown,2nd Floor,Singapore,,69045,Singapore,APAC
4177,Village Close - 106 Linden Road Sandown,2nd Floor,Singapore,,69045,Singapore,APAC
4528,Village Close - 106 Linden Road Sandown,2nd Floor,Singapore,,69045,Singapore,APAC
5887,Village Close - 106 Linden Road Sandown,2nd Floor,Singapore,,69045,Singapore,APAC
5969,Village Close - 106 Linden Road Sandown,2nd Floor,Singapore,,69045,Singapore,APAC
4696,Village Close - 106 Linden Road Sandown,2nd Floor,Singapore,,69045,Singapore,APAC
3145,Village Close - 106 Linden Road Sandown,2nd Floor,Singapore,,69045,Singapore,APAC
3275,Village Close - 106 Linden Road Sandown,2nd Floor,Singapore,,69045,Singapore,APAC
1415,Village Close - 106 Linden Road Sandown,2nd Floor,Singapore,,69045,Singapore,APAC
3867,Village Close - 106 Linden Road Sandown,2nd Floor,Singapore,,69045,Singapore,APAC
2685,"Drammen 121, PR 744 Sentrum",,Bergen,,N 5804,Norway,EMEA
1105,"Drammen 121, PR 744 Sentrum",,Bergen,,N 5804,Norway,EMEA
5698,"Drammen 121, PR 744 Sentrum",,Bergen,,N 5804,Norway,EMEA
1396,"Drammen 121, PR 744 Sentrum",,Bergen,,N 5804,Norway,EMEA
3336,16780 Pompton St.,,Brickhaven,MA,58339,USA,NA
1885,16780 Pompton St.,,Brickhaven,MA,58339,USA,NA
2168,?kergatan 24,,Boras,,S-844 67,Sweden,EMEA
1914,?kergatan 24,,Boras,,S-844 67,Sweden,EMEA
2067,?kergatan 24,,Boras,,S-844 67,Sweden,EMEA
3473,897 Long Airport Avenue,,NYC,NY,10022,USA,NA
5391,?kergatan 24,,Boras,,S-844 67,Sweden,EMEA
5949,897 Long Airport Avenue,,NYC,NY,10022,USA,NA
5516,897 Long Airport Avenue,,NYC,NY,10022,USA,NA
4766,?kergatan 24,,Boras,,S-844 67,Sweden,EMEA
1576,?kergatan 24,,Boras,,S-844 67,Sweden,EMEA
3970,?kergatan 24,,Boras,,S-844 67,Sweden,EMEA
2316,?kergatan 24,,Boras,,S-844 67,Sweden,EMEA
5587,897 Long Airport Avenue,,NYC,NY,10022,USA,NA
5428,897 Long Airport Avenue,,NYC,NY,10022,USA,NA
5510,?kergatan 24,,Boras,,S-844 67,Sweden,EMEA
1172,?kergatan 24,,Boras,,S-844 67,Sweden,EMEA
5577,897 Long Airport Avenue,,NYC,NY,10022,USA,NA
5727,?kergatan 24,,Boras,,S-844 67,Sweden,EMEA
5679,897 Long Airport Avenue,,NYC,NY,10022,USA,NA
2383,897 Long Airport Avenue,,NYC,NY,10022,USA,NA
3959,?kergatan 24,,Boras,,S-844 67,Sweden,EMEA
2694,897 Long Airport Avenue,,NYC,NY,10022,USA,NA
1360,897 Long Airport Avenue,,NYC,NY,10022,USA,NA
5992,?kergatan 24,,Boras,,S-844 67,Sweden,EMEA
5888,897 Long Airport Avenue,,NYC,NY,10022,USA,NA
4225,897 Long Airport Avenue,,NYC,NY,10022,USA,NA
5050,?kergatan 24,,Boras,,S-844 67,Sweden,EMEA
5867,Via Monte Bianco 34,,Torino,,10100,Italy,EMEA
4363,Via Monte Bianco 34,,Torino,,10100,Italy,EMEA
3915,Via Monte Bianco 34,,Torino,,10100,Italy,EMEA
3701,Via Monte Bianco 34,,Torino,,10100,Italy,EMEA
5149,Via Monte Bianco 34,,Torino,,10100,Italy,EMEA
2563,Via Monte Bianco 34,,Torino,,10100,Italy,EMEA
4431,Via Monte Bianco 34,,Torino,,10100,Italy,EMEA
5101,Via Monte Bianco 34,,Torino,,10100,Italy,EMEA
5579,Via Monte Bianco 34,,Torino,,10100,Italy,EMEA
4472,8616 Spinnaker Dr.,,Boston,MA,51003,USA,NA
5019,8616 Spinnaker Dr.,,Boston,MA,51003,USA,NA
5593,8616 Spinnaker Dr.,,Boston,MA,51003,USA,NA
4414,8616 Spinnaker Dr.,,Boston,MA,51003,USA,NA
1871,8616 Spinnaker Dr.,,Boston,MA,51003,USA,NA
5004,7635 Spinnaker Dr.,,Brickhaven,MA,58339,USA,NA
3111,Hansastr. 15,,Munich,,80686,Germany,EMEA
3566,Hansastr. 15,,Munich,,80686,Germany,EMEA
5784,Hansastr. 15,,Munich,,80686,Germany,EMEA
1461,Hansastr. 15,,Munich,,80686,Germany,EMEA
2492,Hansastr. 15,,Munich,,80686,Germany,EMEA
3872,Hansastr. 15,,Munich,,80686,Germany,EMEA
4941,Hansastr. 15,,Munich,,80686,Germany,EMEA
2753,Hansastr. 15,,Munich,,80686,Germany,EMEA
3697,Hansastr. 15,,Munich,,80686,Germany,EMEA
4173,Hansastr. 15,,Munich,,80686,Germany,EMEA
4129,Hansastr. 15,,Munich,,80686,Germany,EMEA
3730,Hansastr. 15,,Munich,,80686,Germany,EMEA
4973,Hansastr. 15,,Munich,,80686,Germany,EMEA
3842,Hansastr. 15,,Munich,,80686,Germany,EMEA
1199,25 Maiden Lane,Floor No. 4,Dublin,,2,Ireland,EMEA
1378,25 Maiden Lane,Floor No. 4,Dublin,,2,Ireland,EMEA
1697,25 Maiden Lane,Floor No. 4,Dublin,,2,Ireland,EMEA
4417,25 Maiden Lane,Floor No. 4,Dublin,,2,Ireland,EMEA
4224,25 Maiden Lane,Floor No. 4,Dublin,,2,Ireland,EMEA
2943,25 Maiden Lane,Floor No. 4,Dublin,,2,Ireland,EMEA
5036,25 Maiden Lane,Floor No. 4,Dublin,,2,Ireland,EMEA
1315,"54, rue Royale",,Nantes,,44000,France,EMEA
4360,"54, rue Royale",,Nantes,,44000,France,EMEA
3478,Keskuskatu 45,,Helsinki,,21240,Finland,EMEA
3548,Keskuskatu 45,,Helsinki,,21240,Finland,EMEA
1005,Keskuskatu 45,,Helsinki,,21240,Finland,EMEA
1961,Keskuskatu 45,,Helsinki,,21240,Finland,EMEA
4774,Keskuskatu 45,,Helsinki,,21240,Finland,EMEA
1428,Keskuskatu 45,,Helsinki,,21240,Finland,EMEA
2338,Keskuskatu 45,,Helsinki,,21240,Finland,EMEA
4441,Keskuskatu 45,,Helsinki,,21240,Finland,EMEA
3772,Keskuskatu 45,,Helsinki,,21240,Finland,EMEA
3537,Keskuskatu 45,,Helsinki,,21240,Finland,EMEA
5279,Keskuskatu 45,,Helsinki,,21240,Finland,EMEA
2464,"C/ Romero, 33",,Sevilla,,41101,Spain,EMEA
1591,"C/ Romero, 33",,Sevilla,,41101,Spain,EMEA
4370,"67, avenue de l'Europe",,Versailles,,78000,France,EMEA
2880,"67, avenue de l'Europe",,Versailles,,78000,France,EMEA
2549,"67, avenue de l'Europe",,Versailles,,78000,France,EMEA
2689,"67, avenue de l'Europe",,Versailles,,78000,France,EMEA
4762,"67, avenue de l'Europe",,Versailles,,78000,France,EMEA
4171,"67, avenue de l'Europe",,Versailles,,78000,France,EMEA
1007,"67, avenue de l'Europe",,Versailles,,78000,France,EMEA
5058,"67, avenue de l'Europe",,Versailles,,78000,France,EMEA
4734,"67, avenue de l'Europe",,Versailles,,78000,France,EMEA
1836,"67, avenue de l'Europe",,Versailles,,78000,France,EMEA
3013,"67, avenue de l'Europe",,Versailles,,78000,France,EMEA
4527,"67, avenue de l'Europe",,Versailles,,78000,France,EMEA
2030,"67, avenue de l'Europe",,Versailles,,78000,France,EMEA
2531,"67, avenue de l'Europe",,Versailles,,78000,France,EMEA
4748,"67, avenue de l'Europe",,Versailles,,78000,France,EMEA
1091,"67, avenue de l'Europe",,Versailles,,78000,France,EMEA
1535,"67, avenue de l'Europe",,Versailles,,78000,France,EMEA
5393,39323 Spinnaker Dr.,,Cambridge,MA,51247,USA,NA
4521,39323 Spinnaker Dr.,,Cambridge,MA,51247,USA,NA
3200,39323 Spinnaker Dr.,,Cambridge,MA,51247,USA,NA
1453,39323 Spinnaker Dr.,,Cambridge,MA,51247,USA,NA
2441,39323 Spinnaker Dr.,,Cambridge,MA,51247,USA,NA
2975,39323 Spinnaker Dr.,,Cambridge,MA,51247,USA,NA
5620,39323 Spinnaker Dr.,,Cambridge,MA,51247,USA,NA
1478,39323 Spinnaker Dr.,,Cambridge,MA,51247,USA,NA
5758,39323 Spinnaker Dr.,,Cambridge,MA,51247,USA,NA
3631,39323 Spinnaker Dr.,,Cambridge,MA,51247,USA,NA
4921,39323 Spinnaker Dr.,,Cambridge,MA,51247,USA,NA
5118,39323 Spinnaker Dr.,,Cambridge,MA,51247,USA,NA
4559,39323 Spinnaker Dr.,,Cambridge,MA,51247,USA,NA
2085,39323 Spinnaker Dr.,,Cambridge,MA,51247,USA,NA
2340,782 First Street,,Philadelphia,PA,71270,USA,NA
5453,Fauntleroy Circus,,Manchester,,EC2 5NT,UK,EMEA
4234,Fauntleroy Circus,,Manchester,,EC2 5NT,UK,EMEA
3453,Fauntleroy Circus,,Manchester,,EC2 5NT,UK,EMEA
5390,782 First Street,,Philadelphia,PA,71270,USA,NA
1767,782 First Street,,Philadelphia,PA,71270,USA,NA
3906,Fauntleroy Circus,,Manchester,,EC2 5NT,UK,EMEA
3958,Fauntleroy Circus,,Manchester,,EC2 5NT,UK,EMEA
1088,782 First Street,,Philadelphia,PA,71270,USA,NA
5506,Fauntleroy Circus,,Manchester,,EC2 5NT,UK,EMEA
1419,Fauntleroy Circus,,Manchester,,EC2 5NT,UK,EMEA
4147,Fauntleroy Circus,,Manchester,,EC2 5NT,UK,EMEA
4975,782 First Street,,Philadelphia,PA,71270,USA,NA
5859,Fauntleroy Circus,,Manchester,,EC2 5NT,UK,EMEA
1216,782 First Street,,Philadelphia,PA,71270,USA,NA
4202,782 First Street,,Philadelphia,PA,71270,USA,NA
2092,Fauntleroy Circus,,Manchester,,EC2 5NT,UK,EMEA
1694,Fauntleroy Circus,,Manchester,,EC2 5NT,UK,EMEA
2220,Fauntleroy Circus,,Manchester,,EC2 5NT,UK,EMEA
3812,Fauntleroy Circus,,Manchester,,EC2 5NT,UK,EMEA
1781,782 First Street,,Philadelphia,PA,71270,USA,NA
5299,Fauntleroy Circus,,Manchester,,EC2 5NT,UK,EMEA
4420,Fauntleroy Circus,,Manchester,,EC2 5NT,UK,EMEA
1604,Fauntleroy Circus,,Manchester,,EC2 5NT,UK,EMEA
2579,782 First Street,,Philadelphia,PA,71270,USA,NA
5329,Fauntleroy Circus,,Manchester,,EC2 5NT,UK,EMEA
5531,Erling Skakkes gate 78,,Stavern,,4110,Norway,EMEA
3340,3758 North Pendale Street,,White Plains,NY,24067,USA,NA
4062,3758 North Pendale Street,,White Plains,NY,24067,USA,NA
1970,Erling Skakkes gate 78,,Stavern,,4110,Norway,EMEA
2633,3758 North Pendale Street,,White Plains,NY,24067,USA,NA
1661,3758 North Pendale Street,,White Plains,NY,24067,USA,NA
5046,Erling Skakkes gate 78,,Stavern,,4110,Norway,EMEA
4123,3758 North Pendale Street,,White Plains,NY,24067,USA,NA
2812,3758 North Pendale Street,,White Plains,NY,24067,USA,NA
5493,Erling Skakkes gate 78,,Stavern,,4110,Norway,EMEA
2763,3758 North Pendale Street,,White Plains,NY,24067,USA,NA
1171,3758 North Pendale Street,,White Plains,NY,24067,USA,NA
2632,3758 North Pendale Street,,White Plains,NY,24067,USA,NA
2619,3758 North Pendale Street,,White Plains,NY,24067,USA,NA
5447,Erling Skakkes gate 78,,Stavern,,4110,Norway,EMEA
2471,3758 North Pendale Street,,White Plains,NY,24067,USA,NA
1375,Erling Skakkes gate 78,,Stavern,,4110,Norway,EMEA
4350,3758 North Pendale Street,,White Plains,NY,24067,USA,NA
5669,3758 North Pendale Street,,White Plains,NY,24067,USA,NA
5860,3758 North Pendale Street,,White Plains,NY,24067,USA,NA
3863,3758 North Pendale Street,,White Plains,NY,24067,USA,NA
2555,3758 North Pendale Street,,White Plains,NY,24067,USA,NA
4876,Mehrheimerstr. 369,,Koln,,50739,Germany,EMEA
4654,Mehrheimerstr. 369,,Koln,,50739,Germany,EMEA
3966,Mehrheimerstr. 369,,Koln,,50739,Germany,EMEA
5419,Mehrheimerstr. 369,,Koln,,50739,Germany,EMEA
1983,Mehrheimerstr. 369,,Koln,,50739,Germany,EMEA
2612,"C/ Moralzarzal, 86",,Madrid,,28034,Spain,EMEA
4148,Mehrheimerstr. 369,,Koln,,50739,Germany,EMEA
3734,Mehrheimerstr. 369,,Koln,,50739,Germany,EMEA
1355,"C/ Moralzarzal, 86",,Madrid,,28034,Spain,EMEA
2008,Mehrheimerstr. 369,,Koln,,50739,Germany,EMEA
3954,Mehrheimerstr. 369,,Koln,,50739,Germany,EMEA
3036,Mehrheimerstr. 369,,Koln,,50739,Germany,EMEA
2953,"C/ Moralzarzal, 86",,Madrid,,28034,Spain,EMEA
3789,Mehrheimerstr. 369,,Koln,,50739,Germany,EMEA
3166,"C/ Moralzarzal, 86",,Madrid,,28034,Spain,EMEA
5216,Mehrheimerstr. 369,,Koln,,50739,Germany,EMEA
2416,"C/ Moralzarzal, 86",,Madrid,,28034,Spain,EMEA
4027,"C/ Moralzarzal, 86",,Madrid,,28034,Spain,EMEA
3636,"C/ Moralzarzal, 86",,Madrid,,28034,Spain,EMEA
5602,"C/ Moralzarzal, 86",,Madrid,,28034,Spain,EMEA
5603,"C/ Moralzarzal, 86",,Madrid,,28034,Spain,EMEA
4009,Mehrheimerstr. 369,,Koln,,50739,Germany,EMEA
2039,"C/ Moralzarzal, 86",,Madrid,,28034,Spain,EMEA
1895,Mehrheimerstr. 369,,Koln,,50739,Germany,EMEA
3131,"C/ Moralzarzal, 86",,Madrid,,28034,Spain,EMEA
3704,Mehrheimerstr. 369,,Koln,,50739,Germany,EMEA
4172,Mehrheimerstr. 369,,Koln,,50739,Germany,EMEA
4520,Mehrheimerstr. 369,,Koln,,50739,Germany,EMEA
1538,5677 Strong St.,,San Rafael,CA,97562,USA,NA
3980,5677 Strong St.,,San Rafael,CA,97562,USA,NA
5443,5677 Strong St.,,San Rafael,CA,97562,USA,NA
2646,5677 Strong St.,,San Rafael,CA,97562,USA,NA
1849,5677 Strong St.,,San Rafael,CA,97562,USA,NA
2983,5677 Strong St.,,San Rafael,CA,97562,USA,NA
1741,5677 Strong St.,,San Rafael,CA,97562,USA,NA
2840,5677 Strong St.,,San Rafael,CA,97562,USA,NA
5235,5677 Strong St.,,San Rafael,CA,97562,USA,NA
2766,5677 Strong St.,,San Rafael,CA,97562,USA,NA
4483,5677 Strong St.,,San Rafael,CA,97562,USA,NA
3167,5677 Strong St.,,San Rafael,CA,97562,USA,NA
3192,5677 Strong St.,,San Rafael,CA,97562,USA,NA
1526,5677 Strong St.,,San Rafael,CA,97562,USA,NA
1773,5677 Strong St.,,San Rafael,CA,97562,USA,NA
1372,5677 Strong St.,,San Rafael,CA,97562,USA,NA
3134,5677 Strong St.,,San Rafael,CA,97562,USA,NA
3056,1900 Oak St.,,Vancouver,BC,V3F 2K1,Canada,NA
3634,Smagsloget 45,,Aaarhus,,8200,Denmark,EMEA
5232,1900 Oak St.,,Vancouver,BC,V3F 2K1,Canada,NA
2488,Smagsloget 45,,Aaarhus,,8200,Denmark,EMEA
3046,Smagsloget 45,,Aaarhus,,8200,Denmark,EMEA
3640,Smagsloget 45,,Aaarhus,,8200,Denmark,EMEA
2550,Smagsloget 45,,Aaarhus,,8200,Denmark,EMEA
5358,1900 Oak St.,,Vancouver,BC,V3F 2K1,Canada,NA
5941,1900 Oak St.,,Vancouver,BC,V3F 2K1,Canada,NA
5585,Smagsloget 45,,Aaarhus,,8200,Denmark,EMEA
2786,1900 Oak St.,,Vancouver,BC,V3F 2K1,Canada,NA
2944,Smagsloget 45,,Aaarhus,,8200,Denmark,EMEA
5554,Smagsloget 45,,Aaarhus,,8200,Denmark,EMEA
5439,1900 Oak St.,,Vancouver,BC,V3F 2K1,Canada,NA
5370,Smagsloget 45,,Aaarhus,,8200,Denmark,EMEA
4019,1900 Oak St.,,Vancouver,BC,V3F 2K1,Canada,NA
2841,Smagsloget 45,,Aaarhus,,8200,Denmark,EMEA
2985,Smagsloget 45,,Aaarhus,,8200,Denmark,EMEA
1226,1900 Oak St.,,Vancouver,BC,V3F 2K1,Canada,NA
3587,1900 Oak St.,,Vancouver,BC,V3F 2K1,Canada,NA
1581,Smagsloget 45,,Aaarhus,,8200,Denmark,EMEA
5972,1900 Oak St.,,Vancouver,BC,V3F 2K1,Canada,NA
3172,Smagsloget 45,,Aaarhus,,8200,Denmark,EMEA
1489,Smagsloget 45,,Aaarhus,,8200,Denmark,EMEA
2956,Smagsloget 45,,Aaarhus,,8200,Denmark,EMEA
3934,1900 Oak St.,,Vancouver,BC,V3F 2K1,Canada,NA
2517,"67, rue des Cinquante Otages",,Nantes,,44000,France,EMEA
1406,"67, rue des Cinquante Otages",,Nantes,,44000,France,EMEA
3655,"67, rue des Cinquante Otages",,Nantes,,44000,France,EMEA
5644,"67, rue des Cinquante Otages",,Nantes,,44000,France,EMEA
5649,"67, rue des Cinquante Otages",,Nantes,,44000,France,EMEA
3968,"67, rue des Cinquante Otages",,Nantes,,44000,France,EMEA
1873,"67, rue des Cinquante Otages",,Nantes,,44000,France,EMEA
4263,Garden House Crowther Way,,Cowes,Isle of Wight,PO31 7PJ,UK,EMEA
1232,"C/ Araquil, 67",,Madrid,,28023,Spain,EMEA
1148,"C/ Araquil, 67",,Madrid,,28023,Spain,EMEA
1618,Garden House Crowther Way,,Cowes,Isle of Wight,PO31 7PJ,UK,EMEA
1856,Garden House Crowther Way,,Cowes,Isle of Wight,PO31 7PJ,UK,EMEA
5238,Garden House Crowther Way,,Cowes,Isle of Wight,PO31 7PJ,UK,EMEA
4619,"C/ Araquil, 67",,Madrid,,28023,Spain,EMEA
2122,Garden House Crowther Way,,Cowes,Isle of Wight,PO31 7PJ,UK,EMEA
3210,"C/ Araquil, 67",,Madrid,,28023,Spain,EMEA
5657,Garden House Crowther Way,,Cowes,Isle of Wight,PO31 7PJ,UK,EMEA
2469,Garden House Crowther Way,,Cowes,Isle of Wight,PO31 7PJ,UK,EMEA
4405,Garden House Crowther Way,,Cowes,Isle of Wight,PO31 7PJ,UK,EMEA
5836,Garden House Crowther Way,,Cowes,Isle of Wight,PO31 7PJ,UK,EMEA
3461,"C/ Araquil, 67",,Madrid,,28023,Spain,EMEA
5208,"C/ Araquil, 67",,Madrid,,28023,Spain,EMEA
1738,"C/ Araquil, 67",,Madrid,,28023,Spain,EMEA
3836,Garden House Crowther Way,,Cowes,Isle of Wight,PO31 7PJ,UK,EMEA
5138,Garden House Crowther Way,,Cowes,Isle of Wight,PO31 7PJ,UK,EMEA
4638,Garden House Crowther Way,,Cowes,Isle of Wight,PO31 7PJ,UK,EMEA
2215,Garden House Crowther Way,,Cowes,Isle of Wight,PO31 7PJ,UK,EMEA
1737,Garden House Crowther Way,,Cowes,Isle of Wight,PO31 7PJ,UK,EMEA
1150,Garden House Crowther Way,,Cowes,Isle of Wight,PO31 7PJ,UK,EMEA
2963,"C/ Araquil, 67",,Madrid,,28023,Spain,EMEA
1835,Garden House Crowther Way,,Cowes,Isle of Wight,PO31 7PJ,UK,EMEA
5817,Garden House Crowther Way,,Cowes,Isle of Wight,PO31 7PJ,UK,EMEA
1634,Garden House Crowther Way,,Cowes,Isle of Wight,PO31 7PJ,UK,EMEA
1523,7586 Pompton St.,,Allentown,PA,70267,USA,NA
1539,7586 Pompton St.,,Allentown,PA,70267,USA,NA
4684,7586 Pompton St.,,Allentown,PA,70267,USA,NA
1248,7586 Pompton St.,,Allentown,PA,70267,USA,NA
5140,7586 Pompton St.,,Allentown,PA,70267,USA,NA
3889,7586 Pompton St.,,Allentown,PA,70267,USA,NA
1594,7586 Pompton St.,,Allentown,PA,70267,USA,NA
3509,9408 Furth Circle,,Burlingame,CA,94217,USA,NA
4093,7586 Pompton St.,,Allentown,PA,70267,USA,NA
1213,7586 Pompton St.,,Allentown,PA,70267,USA,NA
5352,Berguvsv„gen  8,,Lule,,S-958 22,Sweden,EMEA
4585,5290 North Pendale Street,Suite 200,NYC,NY,10022,USA,NA
3660,Berguvsv„gen  8,,Lule,,S-958 22,Sweden,EMEA
2870,Berguvsv„gen  8,,Lule,,S-958 22,Sweden,EMEA
1001,5290 North Pendale Street,Suite 200,NYC,NY,10022,USA,NA
4586,Berguvsv„gen  8,,Lule,,S-958 22,Sweden,EMEA
1563,5290 North Pendale Street,Suite 200,NYC,NY,10022,USA,NA
2777,5290 North Pendale Street,Suite 200,NYC,NY,10022,USA,NA
5222,5290 North Pendale Street,Suite 200,NYC,NY,10022,USA,NA
2371,Berguvsv„gen  8,,Lule,,S-958 22,Sweden,EMEA
4518,5290 North Pendale Street,Suite 200,NYC,NY,10022,USA,NA
4381,5290 North Pendale Street,Suite 200,NYC,NY,10022,USA,NA
3758,5290 North Pendale Street,Suite 200,NYC,NY,10022,USA,NA
4037,5290 North Pendale Street,Suite 200,NYC,NY,10022,USA,NA
4733,2304 Long Airport Avenue,,Nashua,NH,62005,USA,NA
4693,2304 Long Airport Avenue,,Nashua,NH,62005,USA,NA
3259,2304 Long Airport Avenue,,Nashua,NH,62005,USA,NA
2123,1785 First Street,,New Bedford,MA,50553,USA,NA
2312,2304 Long Airport Avenue,,Nashua,NH,62005,USA,NA
4901,1785 First Street,,New Bedford,MA,50553,USA,NA
1472,2304 Long Airport Avenue,,Nashua,NH,62005,USA,NA
2838,2304 Long Airport Avenue,,Nashua,NH,62005,USA,NA
3148,1785 First Street,,New Bedford,MA,50553,USA,NA
4962,1785 First Street,,New Bedford,MA,50553,USA,NA
2402,1785 First Street,,New Bedford,MA,50553,USA,NA
3990,2304 Long Airport Avenue,,Nashua,NH,62005,USA,NA
1878,2304 Long Airport Avenue,,Nashua,NH,62005,USA,NA
2693,2304 Long Airport Avenue,,Nashua,NH,62005,USA,NA
5466,1785 First Street,,New Bedford,MA,50553,USA,NA
3358,2304 Long Airport Avenue,,Nashua,NH,62005,USA,NA
4507,2304 Long Airport Avenue,,Nashua,NH,62005,USA,NA
2409,2304 Long Airport Avenue,,Nashua,NH,62005,USA,NA
5379,1785 First Street,,New Bedford,MA,50553,USA,NA
3420,1785 First Street,,New Bedford,MA,50553,USA,NA
1953,1785 First Street,,New Bedford,MA,50553,USA,NA
4265,1785 First Street,,New Bedford,MA,50553,USA,NA
2691,2304 Long Airport Avenue,,Nashua,NH,62005,USA,NA
1945,2304 Long Airport Avenue,,Nashua,NH,62005,USA,NA
4710,1785 First Street,,New Bedford,MA,50553,USA,NA
2744,1785 First Street,,New Bedford,MA,50553,USA,NA
5933,1785 First Street,,New Bedford,MA,50553,USA,NA
5732,1785 First Street,,New Bedford,MA,50553,USA,NA
5120,1785 First Street,,New Bedford,MA,50553,USA,NA
3198,Erling Skakkes gate 78,,Stavern,,4110,Norway,EMEA
5672,Erling Skakkes gate 78,,Stavern,,4110,Norway,EMEA
2434,2678 Kingston Rd.,Suite 101,NYC,NY,10022,USA,NA
2357,Erling Skakkes gate 78,,Stavern,,4110,Norway,EMEA
2349,2678 Kingston Rd.,Suite 101,NYC,NY,10022,USA,NA
3138,2678 Kingston Rd.,Suite 101,NYC,NY,10022,USA,NA
1041,2678 Kingston Rd.,Suite 101,NYC,NY,10022,USA,NA
2875,Erling Skakkes gate 78,,Stavern,,4110,Norway,EMEA
4930,2678 Kingston Rd.,Suite 101,NYC,NY,10022,USA,NA
4554,Lyonerstr. 34,,Frankfurt,,60528,Germany,EMEA
2259,2678 Kingston Rd.,Suite 101,NYC,NY,10022,USA,NA
5979,Lyonerstr. 34,,Frankfurt,,60528,Germany,EMEA
3360,2678 Kingston Rd.,Suite 101,NYC,NY,10022,USA,NA
3802,2678 Kingston Rd.,Suite 101,NYC,NY,10022,USA,NA
2167,2678 Kingston Rd.,Suite 101,NYC,NY,10022,USA,NA
5975,2678 Kingston Rd.,Suite 101,NYC,NY,10022,USA,NA
2289,Erling Skakkes gate 78,,Stavern,,4110,Norway,EMEA
3932,2678 Kingston Rd.,Suite 101,NYC,NY,10022,USA,NA
4917,2678 Kingston Rd.,Suite 101,NYC,NY,10022,USA,NA
5568,Erling Skakkes gate 78,,Stavern,,4110,Norway,EMEA
1774,Erling Skakkes gate 78,,Stavern,,4110,Norway,EMEA
5398,2678 Kingston Rd.,Suite 101,NYC,NY,10022,USA,NA
3563,Erling Skakkes gate 78,,Stavern,,4110,Norway,EMEA
1108,Erling Skakkes gate 78,,Stavern,,4110,Norway,EMEA
2028,2678 Kingston Rd.,Suite 101,NYC,NY,10022,USA,NA
4924,Berguvsv„gen  8,,Lule,,S-958 22,Sweden,EMEA
1297,Berguvsv„gen  8,,Lule,,S-958 22,Sweden,EMEA
5407,Berguvsv„gen  8,,Lule,,S-958 22,Sweden,EMEA
5024,Berguvsv„gen  8,,Lule,,S-958 22,Sweden,EMEA
2502,Berguvsv„gen  8,,Lule,,S-958 22,Sweden,EMEA
2651,Berguvsv„gen  8,,Lule,,S-958 22,Sweden,EMEA
5889,Vinb'ltet 34,,Kobenhavn,,1734,Denmark,EMEA
3725,Vinb'ltet 34,,Kobenhavn,,1734,Denmark,EMEA
3865,Vinb'ltet 34,,Kobenhavn,,1734,Denmark,EMEA
2078,Vinb'ltet 34,,Kobenhavn,,1734,Denmark,EMEA
4425,Vinb'ltet 34,,Kobenhavn,,1734,Denmark,EMEA
3375,Vinb'ltet 34,,Kobenhavn,,1734,Denmark,EMEA
3706,Vinb'ltet 34,,Kobenhavn,,1734,Denmark,EMEA
3971,Vinb'ltet 34,,Kobenhavn,,1734,Denmark,EMEA
2741,Via Ludovico il Moro 22,,Bergamo,,24100,Italy,EMEA
2986,Via Ludovico il Moro 22,,Bergamo,,24100,Italy,EMEA
4277,Via Ludovico il Moro 22,,Bergamo,,24100,Italy,EMEA
1010,Via Ludovico il Moro 22,,Bergamo,,24100,Italy,EMEA
2530,Via Ludovico il Moro 22,,Bergamo,,24100,Italy,EMEA
1162,Via Ludovico il Moro 22,,Bergamo,,24100,Italy,EMEA
2198,Via Ludovico il Moro 22,,Bergamo,,24100,Italy,EMEA
1772,Via Ludovico il Moro 22,,Bergamo,,24100,Italy,EMEA
2143,Via Ludovico il Moro 22,,Bergamo,,24100,Italy,EMEA
2583,Via Ludovico il Moro 22,,Bergamo,,24100,Italy,EMEA
4978,Via Ludovico il Moro 22,,Bergamo,,24100,Italy,EMEA
4514,Via Ludovico il Moro 22,,Bergamo,,24100,Italy,EMEA
5930,Via Ludovico il Moro 22,,Bergamo,,24100,Italy,EMEA
4440,Via Ludovico il Moro 22,,Bergamo,,24100,Italy,EMEA
2074,897 Long Airport Avenue,,NYC,NY,10022,USA,NA
4761,897 Long Airport Avenue,,NYC,NY,10022,USA,NA
1647,897 Long Airport Avenue,,NYC,NY,10022,USA,NA
1779,897 Long Airport Avenue,,NYC,NY,10022,USA,NA
1017,897 Long Airport Avenue,,NYC,NY,10022,USA,NA
1236,897 Long Airport Avenue,,NYC,NY,10022,USA,NA
4426,897 Long Airport Avenue,,NYC,NY,10022,USA,NA
5360,897 Long Airport Avenue,,NYC,NY,10022,USA,NA
1087,897 Long Airport Avenue,,NYC,NY,10022,USA,NA
1398,897 Long Airport Avenue,,NYC,NY,10022,USA,NA
1136,897 Long Airport Avenue,,NYC,NY,10022,USA,NA
2920,897 Long Airport Avenue,,NYC,NY,10022,USA,NA
3322,897 Long Airport Avenue,,NYC,NY,10022,USA,NA
1989,897 Long Airport Avenue,,NYC,NY,10022,USA,NA
1742,897 Long Airport Avenue,,NYC,NY,10022,USA,NA
1596,15 McCallum Street - NatWest Center #13-03,,Makati City,,1227 MM,Philippines,Japan
3998,15 McCallum Street - NatWest Center #13-03,,Makati City,,1227 MM,Philippines,Japan
1460,15 McCallum Street - NatWest Center #13-03,,Makati City,,1227 MM,Philippines,Japan
5445,15 McCallum Street - NatWest Center #13-03,,Makati City,,1227 MM,Philippines,Japan
5652,11328 Douglas Av.,,Philadelphia,PA,71270,USA,NA
1854,Fauntleroy Circus,,Manchester,,EC2 5NT,UK,EMEA
3592,Fauntleroy Circus,,Manchester,,EC2 5NT,UK,EMEA
1801,11328 Douglas Av.,,Philadelphia,PA,71270,USA,NA
1386,11328 Douglas Av.,,Philadelphia,PA,71270,USA,NA
1008,11328 Douglas Av.,,Philadelphia,PA,71270,USA,NA
4992,Fauntleroy Circus,,Manchester,,EC2 5NT,UK,EMEA
4332,Fauntleroy Circus,,Manchester,,EC2 5NT,UK,EMEA
1820,Fauntleroy Circus,,Manchester,,EC2 5NT,UK,EMEA
3274,11328 Douglas Av.,,Philadelphia,PA,71270,USA,NA
1283,Fauntleroy Circus,,Manchester,,EC2 5NT,UK,EMEA
5006,Fauntleroy Circus,,Manchester,,EC2 5NT,UK,EMEA
5309,11328 Douglas Av.,,Philadelphia,PA,71270,USA,NA
1447,11328 Douglas Av.,,Philadelphia,PA,71270,USA,NA
3373,Fauntleroy Circus,,Manchester,,EC2 5NT,UK,EMEA
2644,Fauntleroy Circus,,Manchester,,EC2 5NT,UK,EMEA
4342,Fauntleroy Circus,,Manchester,,EC2 5NT,UK,EMEA
1622,Fauntleroy Circus,,Manchester,,EC2 5NT,UK,EMEA
5349,Fauntleroy Circus,,Manchester,,EC2 5NT,UK,EMEA
1422,Fauntleroy Circus,,Manchester,,EC2 5NT,UK,EMEA
5433,Fauntleroy Circus,,Manchester,,EC2 5NT,UK,EMEA
3077,Fauntleroy Circus,,Manchester,,EC2 5NT,UK,EMEA
2394,11328 Douglas Av.,,Philadelphia,PA,71270,USA,NA
4622,Fauntleroy Circus,,Manchester,,EC2 5NT,UK,EMEA
5110,11328 Douglas Av.,,Philadelphia,PA,71270,USA,NA
2149,Fauntleroy Circus,,Manchester,,EC2 5NT,UK,EMEA
3185,11328 Douglas Av.,,Philadelphia,PA,71270,USA,NA
5781,Fauntleroy Circus,,Manchester,,EC2 5NT,UK,EMEA
2652,11328 Douglas Av.,,Philadelphia,PA,71270,USA,NA
2491,11328 Douglas Av.,,Philadelphia,PA,71270,USA,NA
4006,11328 Douglas Av.,,Philadelphia,PA,71270,USA,NA
4226,11328 Douglas Av.,,Philadelphia,PA,71270,USA,NA
4600,5557 North Pendale Street,,San Francisco,CA,,USA,NA
4682,5557 North Pendale Street,,San Francisco,CA,,USA,NA
3609,5557 North Pendale Street,,San Francisco,CA,,USA,NA
3072,5557 North Pendale Street,,San Francisco,CA,,USA,NA
5788,5557 North Pendale Street,,San Francisco,CA,,USA,NA
2712,5557 North Pendale Street,,San Francisco,CA,,USA,NA
3828,5557 North Pendale Street,,San Francisco,CA,,USA,NA
1404,5557 North Pendale Street,,San Francisco,CA,,USA,NA
4522,Berguvsv„gen  8,,Lule,,S-958 22,Sweden,EMEA
4814,Berguvsv„gen  8,,Lule,,S-958 22,Sweden,EMEA
4767,Berguvsv„gen  8,,Lule,,S-958 22,Sweden,EMEA
4547,Berguvsv„gen  8,,Lule,,S-958 22,Sweden,EMEA
5918,Berguvsv„gen  8,,Lule,,S-958 22,Sweden,EMEA
1655,Berguvsv„gen  8,,Lule,,S-958 22,Sweden,EMEA
2189,5677 Strong St.,,San Rafael,CA,97562,USA,NA
4541,5677 Strong St.,,San Rafael,CA,97562,USA,NA
3951,5677 Strong St.,,San Rafael,CA,97562,USA,NA
5155,"265, boulevard Charonne",,Paris,,75012,France,EMEA
2892,"265, boulevard Charonne",,Paris,,75012,France,EMEA
1979,"265, boulevard Charonne",,Paris,,75012,France,EMEA
5861,"265, boulevard Charonne",,Paris,,75012,France,EMEA
4959,"265, boulevard Charonne",,Paris,,75012,France,EMEA
2493,"265, boulevard Charonne",,Paris,,75012,France,EMEA
5219,"265, boulevard Charonne",,Paris,,75012,France,EMEA
2022,"265, boulevard Charonne",,Paris,,75012,France,EMEA
5735,"265, boulevard Charonne",,Paris,,75012,France,EMEA
2017,"265, boulevard Charonne",,Paris,,75012,France,EMEA
4537,"265, boulevard Charonne",,Paris,,75012,France,EMEA
4354,"265, boulevard Charonne",,Paris,,75012,France,EMEA
4871,5905 Pompton St.,Suite 750,NYC,NY,10022,USA,NA
4955,5905 Pompton St.,Suite 750,NYC,NY,10022,USA,NA
1978,5905 Pompton St.,Suite 750,NYC,NY,10022,USA,NA
6000,5905 Pompton St.,Suite 750,NYC,NY,10022,USA,NA
4601,5905 Pompton St.,Suite 750,NYC,NY,10022,USA,NA
3213,5905 Pompton St.,Suite 750,NYC,NY,10022,USA,NA
5650,5905 Pompton St.,Suite 750,NYC,NY,10022,USA,NA
2419,5905 Pompton St.,Suite 750,NYC,NY,10022,USA,NA
5916,5905 Pompton St.,Suite 750,NYC,NY,10022,USA,NA
1606,"Boulevard Tirou, 255",,Charleroi,,B-6000,Belgium,EMEA
1060,"Boulevard Tirou, 255",,Charleroi,,B-6000,Belgium,EMEA
3454,"Boulevard Tirou, 255",,Charleroi,,B-6000,Belgium,EMEA
1894,2-2-8 Roppongi,,Minato-ku,Tokyo,106-0032,Japan,Japan
5685,2-2-8 Roppongi,,Minato-ku,Tokyo,106-0032,Japan,Japan
1830,2-2-8 Roppongi,,Minato-ku,Tokyo,106-0032,Japan,Japan
4790,2-2-8 Roppongi,,Minato-ku,Tokyo,106-0032,Japan,Japan
5725,2-2-8 Roppongi,,Minato-ku,Tokyo,106-0032,Japan,Japan
4015,2-2-8 Roppongi,,Minato-ku,Tokyo,106-0032,Japan,Japan
5634,2-2-8 Roppongi,,Minato-ku,Tokyo,106-0032,Japan,Japan
4850,2-2-8 Roppongi,,Minato-ku,Tokyo,106-0032,Japan,Japan
4116,2-2-8 Roppongi,,Minato-ku,Tokyo,106-0032,Japan,Japan
1902,2-2-8 Roppongi,,Minato-ku,Tokyo,106-0032,Japan,Japan
3270,2-2-8 Roppongi,,Minato-ku,Tokyo,106-0032,Japan,Japan
2603,2-2-8 Roppongi,,Minato-ku,Tokyo,106-0032,Japan,Japan
3488,2-2-8 Roppongi,,Minato-ku,Tokyo,106-0032,Japan,Japan
3620,2-2-8 Roppongi,,Minato-ku,Tokyo,106-0032,Japan,Japan
5468,2-2-8 Roppongi,,Minato-ku,Tokyo,106-0032,Japan,Japan
1208,2-2-8 Roppongi,,Minato-ku,Tokyo,106-0032,Japan,Japan
1507,Geislweg 14,,Salzburg,,5020,Austria,EMEA
4723,Geislweg 14,,Salzburg,,5020,Austria,EMEA
4291,Geislweg 14,,Salzburg,,5020,Austria,EMEA
1930,Geislweg 14,,Salzburg,,5020,Austria,EMEA
5406,Geislweg 14,,Salzburg,,5020,Austria,EMEA
1425,Geislweg 14,,Salzburg,,5020,Austria,EMEA
1703,636 St Kilda Road,Level 3,Melbourne,Victoria,3004,Australia,APAC
4320,59 rue de l'Abbaye,,Reims,,51100,France,EMEA
1569,636 St Kilda Road,Level 3,Melbourne,Victoria,3004,Australia,APAC
1079,636 St Kilda Road,Level 3,Melbourne,Victoria,3004,Australia,APAC
2280,59 rue de l'Abbaye,,Reims,,51100,France,EMEA
5227,636 St Kilda Road,Level 3,Melbourne,Victoria,3004,Australia,APAC
2680,636 St Kilda Road,Level 3,Melbourne,Victoria,3004,Australia,APAC
1521,636 St Kilda Road,Level 3,Melbourne,Victoria,3004,Australia,APAC
2559,59 rue de l'Abbaye,,Reims,,51100,France,EMEA
5809,636 St Kilda Road,Level 3,Melbourne,Victoria,3004,Australia,APAC
4003,636 St Kilda Road,Level 3,Melbourne,Victoria,3004,Australia,APAC
3364,59 rue de l'Abbaye,,Reims,,51100,France,EMEA
2742,"Rambla de Catalu¤a, 23",,Barcelona,,8022,Spain,EMEA
5125,Geislweg 14,,Salzburg,,5020,Austria,EMEA
2225,636 St Kilda Road,Level 3,Melbourne,Victoria,3004,Australia,APAC
5236,636 St Kilda Road,Level 3,Melbourne,Victoria,3004,Australia,APAC
4073,636 St Kilda Road,Level 3,Melbourne,Victoria,3004,Australia,APAC
5331,"Rambla de Catalu¤a, 23",,Barcelona,,8022,Spain,EMEA
1133,59 rue de l'Abbaye,,Reims,,51100,France,EMEA
2910,"Rambla de Catalu¤a, 23",,Barcelona,,8022,Spain,EMEA
2672,59 rue de l'Abbaye,,Reims,,51100,France,EMEA
1230,"Rambla de Catalu¤a, 23",,Barcelona,,8022,Spain,EMEA
1923,Geislweg 14,,Salzburg,,5020,Austria,EMEA
1681,"Rambla de Catalu¤a, 23",,Barcelona,,8022,Spain,EMEA
3347,Geislweg 14,,Salzburg,,5020,Austria,EMEA
2422,"Rambla de Catalu¤a, 23",,Barcelona,,8022,Spain,EMEA
1185,"Rambla de Catalu¤a, 23",,Barcelona,,8022,Spain,EMEA
1973,"Rambla de Catalu¤a, 23",,Barcelona,,8022,Spain,EMEA
4135,Geislweg 14,,Salzburg,,5020,Austria,EMEA
1601,"12, rue des Bouchers",,Marseille,,13008,France,EMEA
2381,"12, rue des Bouchers",,Marseille,,13008,France,EMEA
3694,"12, rue des Bouchers",,Marseille,,13008,France,EMEA
2641,"12, rue des Bouchers",,Marseille,,13008,France,EMEA
1063,"12, rue des Bouchers",,Marseille,,13008,France,EMEA
5328,"12, rue des Bouchers",,Marseille,,13008,France,EMEA
2996,"12, rue des Bouchers",,Marseille,,13008,France,EMEA
3507,"54, rue Royale",,Nantes,,44000,France,EMEA
3247,636 St Kilda Road,Level 3,Melbourne,Victoria,3004,Australia,APAC
5963,636 St Kilda Road,Level 3,Melbourne,Victoria,3004,Australia,APAC
1674,636 St Kilda Road,Level 3,Melbourne,Victoria,3004,Australia,APAC
5522,636 St Kilda Road,Level 3,Melbourne,Victoria,3004,Australia,APAC
1566,8489 Strong St.,,Las Vegas,NV,83030,USA,NA
2463,636 St Kilda Road,Level 3,Melbourne,Victoria,3004,Australia,APAC
2980,636 St Kilda Road,Level 3,Melbourne,Victoria,3004,Australia,APAC
5438,636 St Kilda Road,Level 3,Melbourne,Victoria,3004,Australia,APAC
3623,636 St Kilda Road,Level 3,Melbourne,Victoria,3004,Australia,APAC
5332,636 St Kilda Road,Level 3,Melbourne,Victoria,3004,Australia,APAC
2535,636 St Kilda Road,Level 3,Melbourne,Victoria,3004,Australia,APAC
3177,636 St Kilda Road,Level 3,Melbourne,Victoria,3004,Australia,APAC
1389,636 St Kilda Road,Level 3,Melbourne,Victoria,3004,Australia,APAC
4773,8489 Strong St.,,Las Vegas,NV,83030,USA,NA
5999,8489 Strong St.,,Las Vegas,NV,83030,USA,NA
1145,8489 Strong St.,,Las Vegas,NV,83030,USA,NA
3176,8489 Strong St.,,Las Vegas,NV,83030,USA,NA
5063,8489 Strong St.,,Las Vegas,NV,83030,USA,NA
2240,4092 Furth Circle,Suite 400,NYC,NY,10022,USA,NA
3662,4092 Furth Circle,Suite 400,NYC,NY,10022,USA,NA
5333,4092 Furth Circle,Suite 400,NYC,NY,10022,USA,NA
2097,4092 Furth Circle,Suite 400,NYC,NY,10022,USA,NA
5430,4092 Furth Circle,Suite 400,NYC,NY,10022,USA,NA
4598,4092 Furth Circle,Suite 400,NYC,NY,10022,USA,NA
3112,4092 Furth Circle,Suite 400,NYC,NY,10022,USA,NA
3254,4092 Furth Circle,Suite 400,NYC,NY,10022,USA,NA
3008,4092 Furth Circle,Suite 400,NYC,NY,10022,USA,NA
4844,4092 Furth Circle,Suite 400,NYC,NY,10022,USA,NA
4628,"C/ Moralzarzal, 86",,Madrid,,28034,Spain,EMEA
2528,"C/ Moralzarzal, 86",,Madrid,,28034,Spain,EMEA
4952,"C/ Moralzarzal, 86",,Madrid,,28034,Spain,EMEA
1751,"C/ Moralzarzal, 86",,Madrid,,28034,Spain,EMEA
2200,"C/ Moralzarzal, 86",,Madrid,,28034,Spain,EMEA
2965,"C/ Moralzarzal, 86",,Madrid,,28034,Spain,EMEA
1519,"C/ Moralzarzal, 86",,Madrid,,28034,Spain,EMEA
3117,"C/ Moralzarzal, 86",,Madrid,,28034,Spain,EMEA
1324,"C/ Moralzarzal, 86",,Madrid,,28034,Spain,EMEA
2236,"C/ Moralzarzal, 86",,Madrid,,28034,Spain,EMEA
3465,"C/ Moralzarzal, 86",,Madrid,,28034,Spain,EMEA
1258,"C/ Moralzarzal, 86",,Madrid,,28034,Spain,EMEA
3238,"C/ Moralzarzal, 86",,Madrid,,28034,Spain,EMEA
5392,"C/ Moralzarzal, 86",,Madrid,,28034,Spain,EMEA
2142,"C/ Moralzarzal, 86",,Madrid,,28034,Spain,EMEA
2638,"C/ Moralzarzal, 86",,Madrid,,28034,Spain,EMEA
2928,"C/ Moralzarzal, 86",,Madrid,,28034,Spain,EMEA
1756,35 King George,,London,,WX3 6FW,UK,EMEA
1743,35 King George,,London,,WX3 6FW,UK,EMEA
3280,35 King George,,London,,WX3 6FW,UK,EMEA
2331,35 King George,,London,,WX3 6FW,UK,EMEA
5251,35 King George,,London,,WX3 6FW,UK,EMEA
2053,16780 Pompton St.,,Brickhaven,MA,58339,USA,NA
2677,16780 Pompton St.,,Brickhaven,MA,58339,USA,NA
5206,16780 Pompton St.,,Brickhaven,MA,58339,USA,NA
4888,16780 Pompton St.,,Brickhaven,MA,58339,USA,NA
3832,2440 Pompton St.,,Glendale,CT,97561,USA,NA
1111,2440 Pompton St.,,Glendale,CT,97561,USA,NA
3494,2440 Pompton St.,,Glendale,CT,97561,USA,NA
4492,2440 Pompton St.,,Glendale,CT,97561,USA,NA
4124,2440 Pompton St.,,Glendale,CT,97561,USA,NA
4754,2440 Pompton St.,,Glendale,CT,97561,USA,NA
5771,2440 Pompton St.,,Glendale,CT,97561,USA,NA
5560,2440 Pompton St.,,Glendale,CT,97561,USA,NA
1874,2440 Pompton St.,,Glendale,CT,97561,USA,NA
2311,"C/ Moralzarzal, 86",,Madrid,,28034,Spain,EMEA
5607,"C/ Moralzarzal, 86",,Madrid,,28034,Spain,EMEA
2707,"C/ Moralzarzal, 86",,Madrid,,28034,Spain,EMEA
1090,"C/ Moralzarzal, 86",,Madrid,,28034,Spain,EMEA
2287,"C/ Moralzarzal, 86",,Madrid,,28034,Spain,EMEA
2899,"C/ Moralzarzal, 86",,Madrid,,28034,Spain,EMEA
2347,"C/ Moralzarzal, 86",,Madrid,,28034,Spain,EMEA
1904,"C/ Moralzarzal, 86",,Madrid,,28034,Spain,EMEA
2671,"C/ Moralzarzal, 86",,Madrid,,28034,Spain,EMEA
1724,"C/ Moralzarzal, 86",,Madrid,,28034,Spain,EMEA
1205,27 rue du Colonel Pierre Avia,,Paris,,75508,France,EMEA
1066,27 rue du Colonel Pierre Avia,,Paris,,75508,France,EMEA
5011,27 rue du Colonel Pierre Avia,,Paris,,75508,France,EMEA
3425,27 rue du Colonel Pierre Avia,,Paris,,75508,France,EMEA
1889,27 rue du Colonel Pierre Avia,,Paris,,75508,France,EMEA
5981,27 rue du Colonel Pierre Avia,,Paris,,75508,France,EMEA
5660,27 rue du Colonel Pierre Avia,,Paris,,75508,France,EMEA
2140,27 rue du Colonel Pierre Avia,,Paris,,75508,France,EMEA
2513,27 rue du Colonel Pierre Avia,,Paris,,75508,France,EMEA
4524,5677 Strong St.,,San Rafael,CA,97562,USA,NA
4620,5677 Strong St.,,San Rafael,CA,97562,USA,NA
1242,5677 Strong St.,,San Rafael,CA,97562,USA,NA
3402,"C/ Moralzarzal, 86",,Madrid,,28034,Spain,EMEA
4592,"C/ Moralzarzal, 86",,Madrid,,28034,Spain,EMEA
3470,5677 Strong St.,,San Rafael,CA,97562,USA,NA
1974,"C/ Moralzarzal, 86",,Madrid,,28034,Spain,EMEA
5137,"C/ Moralzarzal, 86",,Madrid,,28034,Spain,EMEA
4407,5677 Strong St.,,San Rafael,CA,97562,USA,NA
5699,5677 Strong St.,,San Rafael,CA,97562,USA,NA
5017,5677 Strong St.,,San Rafael,CA,97562,USA,NA
1220,5677 Strong St.,,San Rafael,CA,97562,USA,NA
5119,"C/ Moralzarzal, 86",,Madrid,,28034,Spain,EMEA
4494,5677 Strong St.,,San Rafael,CA,97562,USA,NA
5841,"C/ Moralzarzal, 86",,Madrid,,28034,Spain,EMEA
3943,5677 Strong St.,,San Rafael,CA,97562,USA,NA
4555,"C/ Moralzarzal, 86",,Madrid,,28034,Spain,EMEA
4721,"C/ Moralzarzal, 86",,Madrid,,28034,Spain,EMEA
1684,"C/ Moralzarzal, 86",,Madrid,,28034,Spain,EMEA
3767,"C/ Moralzarzal, 86",,Madrid,,28034,Spain,EMEA
1494,"C/ Moralzarzal, 86",,Madrid,,28034,Spain,EMEA
5782,"C/ Moralzarzal, 86",,Madrid,,28034,Spain,EMEA
4488,"C/ Moralzarzal, 86",,Madrid,,28034,Spain,EMEA
2877,"C/ Moralzarzal, 86",,Madrid,,28034,Spain,EMEA
5739,59 rue de l'Abbaye,,Reims,,51100,France,EMEA
4650,59 rue de l'Abbaye,,Reims,,51100,France,EMEA
1544,59 rue de l'Abbaye,,Reims,,51100,France,EMEA
3512,59 rue de l'Abbaye,,Reims,,51100,France,EMEA
3107,59 rue de l'Abbaye,,Reims,,51100,France,EMEA
2154,59 rue de l'Abbaye,,Reims,,51100,France,EMEA
2504,59 rue de l'Abbaye,,Reims,,51100,France,EMEA
3791,59 rue de l'Abbaye,,Reims,,51100,France,EMEA
4843,"Monitor Money Building, 815 Pacific Hwy",Level 6,Chatswood,NSW,2067,Australia,APAC
2072,"Monitor Money Building, 815 Pacific Hwy",Level 6,Chatswood,NSW,2067,Australia,APAC
5083,"Monitor Money Building, 815 Pacific Hwy",Level 6,Chatswood,NSW,2067,Australia,APAC
1227,"Monitor Money Building, 815 Pacific Hwy",Level 6,Chatswood,NSW,2067,Australia,APAC
4612,"Monitor Money Building, 815 Pacific Hwy",Level 6,Chatswood,NSW,2067,Australia,APAC
1009,"Monitor Money Building, 815 Pacific Hwy",Level 6,Chatswood,NSW,2067,Australia,APAC
2295,"Monitor Money Building, 815 Pacific Hwy",Level 6,Chatswood,NSW,2067,Australia,APAC
3994,"Monitor Money Building, 815 Pacific Hwy",Level 6,Chatswood,NSW,2067,Australia,APAC
5894,"Monitor Money Building, 815 Pacific Hwy",Level 6,Chatswood,NSW,2067,Australia,APAC
2611,"Monitor Money Building, 815 Pacific Hwy",Level 6,Chatswood,NSW,2067,Australia,APAC
4297,"Monitor Money Building, 815 Pacific Hwy",Level 6,Chatswood,NSW,2067,Australia,APAC
3415,"Monitor Money Building, 815 Pacific Hwy",Level 6,Chatswood,NSW,2067,Australia,APAC
3477,"Monitor Money Building, 815 Pacific Hwy",Level 6,Chatswood,NSW,2067,Australia,APAC
2066,"Monitor Money Building, 815 Pacific Hwy",Level 6,Chatswood,NSW,2067,Australia,APAC
5787,9408 Furth Circle,,Burlingame,CA,94217,USA,NA
1158,9408 Furth Circle,,Burlingame,CA,94217,USA,NA
4593,9408 Furth Circle,,Burlingame,CA,94217,USA,NA
1536,9408 Furth Circle,,Burlingame,CA,94217,USA,NA
2428,"Software Engineering Center, SEC Oy",,Espoo,,FIN-02271,Finland,EMEA
3992,"Software Engineering Center, SEC Oy",,Espoo,,FIN-02271,Finland,EMEA
2298,"Software Engineering Center, SEC Oy",,Espoo,,FIN-02271,Finland,EMEA
3853,"Software Engineering Center, SEC Oy",,Espoo,,FIN-02271,Finland,EMEA
2350,"Software Engineering Center, SEC Oy",,Espoo,,FIN-02271,Finland,EMEA
1852,"Software Engineering Center, SEC Oy",,Espoo,,FIN-02271,Finland,EMEA
5718,"Software Engineering Center, SEC Oy",,Espoo,,FIN-02271,Finland,EMEA
3748,"Software Engineering Center, SEC Oy",,Espoo,,FIN-02271,Finland,EMEA
2182,"Software Engineering Center, SEC Oy",,Espoo,,FIN-02271,Finland,EMEA
5244,"Software Engineering Center, SEC Oy",,Espoo,,FIN-02271,Finland,EMEA
3927,"Software Engineering Center, SEC Oy",,Espoo,,FIN-02271,Finland,EMEA
1739,"Software Engineering Center, SEC Oy",,Espoo,,FIN-02271,Finland,EMEA
5255,"Software Engineering Center, SEC Oy",,Espoo,,FIN-02271,Finland,EMEA
5444,"Software Engineering Center, SEC Oy",,Espoo,,FIN-02271,Finland,EMEA
3869,"Software Engineering Center, SEC Oy",,Espoo,,FIN-02271,Finland,EMEA
4366,"12, rue des Bouchers",,Marseille,,13008,France,EMEA
4102,4575 Hillside Dr.,,New Bedford,MA,50553,USA,NA
2631,4575 Hillside Dr.,,New Bedford,MA,50553,USA,NA
1206,4575 Hillside Dr.,,New Bedford,MA,50553,USA,NA
2767,"Boulevard Tirou, 255",,Charleroi,,B-6000,Belgium,EMEA
4909,"Boulevard Tirou, 255",,Charleroi,,B-6000,Belgium,EMEA
5109,"Boulevard Tirou, 255",,Charleroi,,B-6000,Belgium,EMEA
3751,78934 Hillside Dr.,,Pasadena,CA,90003,USA,NA
1686,78934 Hillside Dr.,,Pasadena,CA,90003,USA,NA
1499,78934 Hillside Dr.,,Pasadena,CA,90003,USA,NA
5416,78934 Hillside Dr.,,Pasadena,CA,90003,USA,NA
5213,78934 Hillside Dr.,,Pasadena,CA,90003,USA,NA
3854,78934 Hillside Dr.,,Pasadena,CA,90003,USA,NA
1803,78934 Hillside Dr.,,Pasadena,CA,90003,USA,NA
3922,78934 Hillside Dr.,,Pasadena,CA,90003,USA,NA
3119,78934 Hillside Dr.,,Pasadena,CA,90003,USA,NA
2361,78934 Hillside Dr.,,Pasadena,CA,90003,USA,NA
2806,78934 Hillside Dr.,,Pasadena,CA,90003,USA,NA
1740,78934 Hillside Dr.,,Pasadena,CA,90003,USA,NA
3813,78934 Hillside Dr.,,Pasadena,CA,90003,USA,NA
1985,5677 Strong St.,,San Rafael,CA,97562,USA,NA
5440,5677 Strong St.,,San Rafael,CA,97562,USA,NA
5044,5677 Strong St.,,San Rafael,CA,97562,USA,NA
3879,5677 Strong St.,,San Rafael,CA,97562,USA,NA
4321,5677 Strong St.,,San Rafael,CA,97562,USA,NA
2876,7825 Douglas Av.,,Brickhaven,MA,58339,USA,NA
5463,201 Miller Street,Level 15,North Sydney,NSW,2060,Australia,APAC
4583,201 Miller Street,Level 15,North Sydney,NSW,2060,Australia,APAC
4801,201 Miller Street,Level 15,North Sydney,NSW,2060,Australia,APAC
1134,7825 Douglas Av.,,Brickhaven,MA,58339,USA,NA
3847,7825 Douglas Av.,,Brickhaven,MA,58339,USA,NA
2663,201 Miller Street,Level 15,North Sydney,NSW,2060,Australia,APAC
2515,201 Miller Street,Level 15,North Sydney,NSW,2060,Australia,APAC
5051,7825 Douglas Av.,,Brickhaven,MA,58339,USA,NA
2169,7825 Douglas Av.,,Brickhaven,MA,58339,USA,NA
2717,7825 Douglas Av.,,Brickhaven,MA,58339,USA,NA
1187,201 Miller Street,Level 15,North Sydney,NSW,2060,Australia,APAC
3157,7825 Douglas Av.,,Brickhaven,MA,58339,USA,NA
1179,201 Miller Street,Level 15,North Sydney,NSW,2060,Australia,APAC
5367,201 Miller Street,Level 15,North Sydney,NSW,2060,Australia,APAC
3893,7825 Douglas Av.,,Brickhaven,MA,58339,USA,NA
4896,201 Miller Street,Level 15,North Sydney,NSW,2060,Australia,APAC
4352,5677 Strong St.,,San Rafael,CA,97562,USA,NA
5116,5677 Strong St.,,San Rafael,CA,97562,USA,NA
2214,5677 Strong St.,,San Rafael,CA,97562,USA,NA
1243,5677 Strong St.,,San Rafael,CA,97562,USA,NA
4882,5677 Strong St.,,San Rafael,CA,97562,USA,NA
5070,5677 Strong St.,,San Rafael,CA,97562,USA,NA
2044,5677 Strong St.,,San Rafael,CA,97562,USA,NA
5847,5677 Strong St.,,San Rafael,CA,97562,USA,NA
2834,5677 Strong St.,,San Rafael,CA,97562,USA,NA
4183,5677 Strong St.,,San Rafael,CA,97562,USA,NA
1225,5677 Strong St.,,San Rafael,CA,97562,USA,NA
2669,5677 Strong St.,,San Rafael,CA,97562,USA,NA
5878,2-2-8 Roppongi,,Minato-ku,Tokyo,106-0032,Japan,Japan
5900,2-2-8 Roppongi,,Minato-ku,Tokyo,106-0032,Japan,Japan
2857,2-2-8 Roppongi,,Minato-ku,Tokyo,106-0032,Japan,Japan
1469,2-2-8 Roppongi,,Minato-ku,Tokyo,106-0032,Japan,Japan
4455,2-2-8 Roppongi,,Minato-ku,Tokyo,106-0032,Japan,Japan
2152,2-2-8 Roppongi,,Minato-ku,Tokyo,106-0032,Japan,Japan
3085,2-2-8 Roppongi,,Minato-ku,Tokyo,106-0032,Japan,Japan
5142,2-2-8 Roppongi,,Minato-ku,Tokyo,106-0032,Japan,Japan
5688,2-2-8 Roppongi,,Minato-ku,Tokyo,106-0032,Japan,Japan
5202,Torikatu 38,,Oulu,,90110,Finland,EMEA
2739,Torikatu 38,,Oulu,,90110,Finland,EMEA
2048,Torikatu 38,,Oulu,,90110,Finland,EMEA
5761,Torikatu 38,,Oulu,,90110,Finland,EMEA
4815,Torikatu 38,,Oulu,,90110,Finland,EMEA
4055,Torikatu 38,,Oulu,,90110,Finland,EMEA
1459,Torikatu 38,,Oulu,,90110,Finland,EMEA
3790,Torikatu 38,,Oulu,,90110,Finland,EMEA
5310,Torikatu 38,,Oulu,,90110,Finland,EMEA
2027,Torikatu 38,,Oulu,,90110,Finland,EMEA
3436,Torikatu 38,,Oulu,,90110,Finland,EMEA
1081,Torikatu 38,,Oulu,,90110,Finland,EMEA
5767,Torikatu 38,,Oulu,,90110,Finland,EMEA
2995,Torikatu 38,,Oulu,,90110,Finland,EMEA
1486,Torikatu 38,,Oulu,,90110,Finland,EMEA
3627,Torikatu 38,,Oulu,,90110,Finland,EMEA
1348,Torikatu 38,,Oulu,,90110,Finland,EMEA
5343,31 Duncan St. West End,,South Brisbane,Queensland,4101,Australia,APAC
1628,31 Duncan St. West End,,South Brisbane,Queensland,4101,Australia,APAC
2919,31 Duncan St. West End,,South Brisbane,Queensland,4101,Australia,APAC
4039,31 Duncan St. West End,,South Brisbane,Queensland,4101,Australia,APAC
2544,31 Duncan St. West End,,South Brisbane,Queensland,4101,Australia,APAC
3690,31 Duncan St. West End,,South Brisbane,Queensland,4101,Australia,APAC
3653,"67, rue des Cinquante Otages",,Nantes,,44000,France,EMEA
3525,"67, rue des Cinquante Otages",,Nantes,,44000,France,EMEA
4131,"67, rue des Cinquante Otages",,Nantes,,44000,France,EMEA
1911,"67, rue des Cinquante Otages",,Nantes,,44000,France,EMEA
2935,"67, rue des Cinquante Otages",,Nantes,,44000,France,EMEA
3474,"67, rue des Cinquante Otages",,Nantes,,44000,France,EMEA
2351,"67, rue des Cinquante Otages",,Nantes,,44000,France,EMEA
1813,"67, rue des Cinquante Otages",,Nantes,,44000,France,EMEA
3993,"67, rue des Cinquante Otages",,Nantes,,44000,France,EMEA
5320,"67, rue des Cinquante Otages",,Nantes,,44000,France,EMEA
1642,"67, rue des Cinquante Otages",,Nantes,,44000,France,EMEA
4542,"67, rue des Cinquante Otages",,Nantes,,44000,France,EMEA
5100,"67, rue des Cinquante Otages",,Nantes,,44000,France,EMEA
2729,"67, rue des Cinquante Otages",,Nantes,,44000,France,EMEA
4105,"67, rue des Cinquante Otages",,Nantes,,44000,France,EMEA
1934,4097 Douglas Av.,,Glendale,CA,92561,USA,NA
2994,Keskuskatu 45,,Helsinki,,21240,Finland,EMEA
3372,Keskuskatu 45,,Helsinki,,21240,Finland,EMEA
5642,Keskuskatu 45,,Helsinki,,21240,Finland,EMEA
3899,Keskuskatu 45,,Helsinki,,21240,Finland,EMEA
5237,Keskuskatu 45,,Helsinki,,21240,Finland,EMEA
1333,Keskuskatu 45,,Helsinki,,21240,Finland,EMEA
4707,"C/ Moralzarzal, 86",,Madrid,,28034,Spain,EMEA
4163,"C/ Moralzarzal, 86",,Madrid,,28034,Spain,EMEA
2288,"C/ Moralzarzal, 86",,Madrid,,28034,Spain,EMEA
5319,"C/ Moralzarzal, 86",,Madrid,,28034,Spain,EMEA
5496,"C/ Moralzarzal, 86",,Madrid,,28034,Spain,EMEA
5921,"C/ Moralzarzal, 86",,Madrid,,28034,Spain,EMEA
1154,"C/ Moralzarzal, 86",,Madrid,,28034,Spain,EMEA
2820,"C/ Moralzarzal, 86",,Madrid,,28034,Spain,EMEA
4365,"C/ Moralzarzal, 86",,Madrid,,28034,Spain,EMEA
3650,"C/ Moralzarzal, 86",,Madrid,,28034,Spain,EMEA
2378,"C/ Moralzarzal, 86",,Madrid,,28034,Spain,EMEA
4408,"C/ Moralzarzal, 86",,Madrid,,28034,Spain,EMEA
2884,"C/ Moralzarzal, 86",,Madrid,,28034,Spain,EMEA
4709,"C/ Moralzarzal, 86",,Madrid,,28034,Spain,EMEA
3619,"C/ Moralzarzal, 86",,Madrid,,28034,Spain,EMEA
5667,"C/ Moralzarzal, 86",,Madrid,,28034,Spain,EMEA
4530,"C/ Moralzarzal, 86",,Madrid,,28034,Spain,EMEA
5431,"C/ Moralzarzal, 86",,Madrid,,28034,Spain,EMEA
2224,"C/ Moralzarzal, 86",,Madrid,,28034,Spain,EMEA
1277,"C/ Moralzarzal, 86",,Madrid,,28034,Spain,EMEA
1191,"C/ Moralzarzal, 86",,Madrid,,28034,Spain,EMEA
3299,"C/ Moralzarzal, 86",,Madrid,,28034,Spain,EMEA
5185,"C/ Moralzarzal, 86",,Madrid,,28034,Spain,EMEA
3520,"C/ Moralzarzal, 86",,Madrid,,28034,Spain,EMEA
5292,"C/ Moralzarzal, 86",,Madrid,,28034,Spain,EMEA
5910,"C/ Moralzarzal, 86",,Madrid,,28034,Spain,EMEA
3707,"C/ Moralzarzal, 86",,Madrid,,28034,Spain,EMEA
4191,"C/ Moralzarzal, 86",,Madrid,,28034,Spain,EMEA
5544,7734 Strong St.,,San Francisco,CA,,USA,NA
1515,7734 Strong St.,,San Francisco,CA,,USA,NA
4552,5677 Strong St.,,San Rafael,CA,97562,USA,NA
5045,7734 Strong St.,,San Francisco,CA,,USA,NA
3154,5677 Strong St.,,San Rafael,CA,97562,USA,NA
5093,5677 Strong St.,,San Rafael,CA,97562,USA,NA
2012,5677 Strong St.,,San Rafael,CA,97562,USA,NA
5543,7734 Strong St.,,San Francisco,CA,,USA,NA
5097,7734 Strong St.,,San Francisco,CA,,USA,NA
2972,5677 Strong St.,,San Rafael,CA,97562,USA,NA
5803,7734 Strong St.,,San Francisco,CA,,USA,NA
3486,7734 Strong St.,,San Francisco,CA,,USA,NA
5952,7734 Strong St.,,San Francisco,CA,,USA,NA
4001,7734 Strong St.,,San Francisco,CA,,USA,NA
5159,5677 Strong St.,,San Rafael,CA,97562,USA,NA
4883,5677 Strong St.,,San Rafael,CA,97562,USA,NA
3292,5677 Strong St.,,San Rafael,CA,97562,USA,NA
5289,5677 Strong St.,,San Rafael,CA,97562,USA,NA
4902,5677 Strong St.,,San Rafael,CA,97562,USA,NA
4022,5677 Strong St.,,San Rafael,CA,97562,USA,NA
3793,5677 Strong St.,,San Rafael,CA,97562,USA,NA
3057,5677 Strong St.,,San Rafael,CA,97562,USA,NA
2436,"C/ Moralzarzal, 86",,Madrid,,28034,Spain,EMEA
1311,"C/ Moralzarzal, 86",,Madrid,,28034,Spain,EMEA
3684,"C/ Moralzarzal, 86",,Madrid,,28034,Spain,EMEA
1867,"C/ Moralzarzal, 86",,Madrid,,28034,Spain,EMEA
1607,"C/ Moralzarzal, 86",,Madrid,,28034,Spain,EMEA
4410,"C/ Moralzarzal, 86",,Madrid,,28034,Spain,EMEA
3060,"C/ Moralzarzal, 86",,Madrid,,28034,Spain,EMEA
5172,"C/ Moralzarzal, 86",,Madrid,,28034,Spain,EMEA
4525,"C/ Moralzarzal, 86",,Madrid,,28034,Spain,EMEA
1178,"C/ Moralzarzal, 86",,Madrid,,28034,Spain,EMEA
4830,"C/ Moralzarzal, 86",,Madrid,,28034,Spain,EMEA
3078,"C/ Moralzarzal, 86",,Madrid,,28034,Spain,EMEA
2989,"C/ Moralzarzal, 86",,Madrid,,28034,Spain,EMEA
5344,7734 Strong St.,,San Francisco,CA,,USA,NA
4120,7734 Strong St.,,San Francisco,CA,,USA,NA
2539,7734 Strong St.,,San Francisco,CA,,USA,NA
5028,7734 Strong St.,,San Francisco,CA,,USA,NA
2026,5677 Strong St.,,San Rafael,CA,97562,USA,NA
4096,5677 Strong St.,,San Rafael,CA,97562,USA,NA
4195,"C/ Moralzarzal, 86",,Madrid,,28034,Spain,EMEA
4818,"C/ Moralzarzal, 86",,Madrid,,28034,Spain,EMEA
3647,"C/ Moralzarzal, 86",,Madrid,,28034,Spain,EMEA
1496,"C/ Moralzarzal, 86",,Madrid,,28034,Spain,EMEA
2785,"C/ Moralzarzal, 86",,Madrid,,28034,Spain,EMEA
1388,"C/ Moralzarzal, 86",,Madrid,,28034,Spain,EMEA
1730,"C/ Moralzarzal, 86",,Madrid,,28034,Spain,EMEA
2584,"C/ Moralzarzal, 86",,Madrid,,28034,Spain,EMEA
4272,"C/ Moralzarzal, 86",,Madrid,,28034,Spain,EMEA
4916,"C/ Moralzarzal, 86",,Madrid,,28034,Spain,EMEA
2688,"C/ Moralzarzal, 86",,Madrid,,28034,Spain,EMEA
3628,"C/ Moralzarzal, 86",,Madrid,,28034,Spain,EMEA
2275,"C/ Moralzarzal, 86",,Madrid,,28034,Spain,EMEA
5635,"C/ Moralzarzal, 86",,Madrid,,28034,Spain,EMEA
2080,"C/ Moralzarzal, 86",,Madrid,,28034,Spain,EMEA
4465,"C/ Moralzarzal, 86",,Madrid,,28034,Spain,EMEA
4401,"C/ Moralzarzal, 86",,Madrid,,28034,Spain,EMEA
4262,"C/ Moralzarzal, 86",,Madrid,,28034,Spain,EMEA
2109,"Bronz Sok., Bronz Apt. 3/6 Tesvikiye",,Singapore,,79903,Singapore,Japan
2580,1785 First Street,,New Bedford,MA,50553,USA,NA
3391,1785 First Street,,New Bedford,MA,50553,USA,NA
5128,1785 First Street,,New Bedford,MA,50553,USA,NA
1342,?kergatan 24,,Boras,,S-844 67,Sweden,EMEA
1314,1785 First Street,,New Bedford,MA,50553,USA,NA
5734,?kergatan 24,,Boras,,S-844 67,Sweden,EMEA
4736,?kergatan 24,,Boras,,S-844 67,Sweden,EMEA
3255,?kergatan 24,,Boras,,S-844 67,Sweden,EMEA
5983,?kergatan 24,,Boras,,S-844 67,Sweden,EMEA
4094,?kergatan 24,,Boras,,S-844 67,Sweden,EMEA
1202,?kergatan 24,,Boras,,S-844 67,Sweden,EMEA
3032,?kergatan 24,,Boras,,S-844 67,Sweden,EMEA
2720,1785 First Street,,New Bedford,MA,50553,USA,NA
2499,1785 First Street,,New Bedford,MA,50553,USA,NA
5724,1785 First Street,,New Bedford,MA,50553,USA,NA
3573,1785 First Street,,New Bedford,MA,50553,USA,NA
3067,5677 Strong St.,,San Rafael,CA,97562,USA,NA
3582,5677 Strong St.,,San Rafael,CA,97562,USA,NA
1497,5677 Strong St.,,San Rafael,CA,97562,USA,NA
3733,5677 Strong St.,,San Rafael,CA,97562,USA,NA
5139,5677 Strong St.,,San Rafael,CA,97562,USA,NA
3081,5677 Strong St.,,San Rafael,CA,97562,USA,NA
1603,5677 Strong St.,,San Rafael,CA,97562,USA,NA
1785,5677 Strong St.,,San Rafael,CA,97562,USA,NA
1123,5677 Strong St.,,San Rafael,CA,97562,USA,NA
1180,5677 Strong St.,,San Rafael,CA,97562,USA,NA
5928,5677 Strong St.,,San Rafael,CA,97562,USA,NA
5823,5677 Strong St.,,San Rafael,CA,97562,USA,NA
2087,5677 Strong St.,,San Rafael,CA,97562,USA,NA
1197,5677 Strong St.,,San Rafael,CA,97562,USA,NA
1080,5677 Strong St.,,San Rafael,CA,97562,USA,NA
2542,5677 Strong St.,,San Rafael,CA,97562,USA,NA
1530,201 Miller Street,Level 15,North Sydney,NSW,2060,Australia,APAC
4582,201 Miller Street,Level 15,North Sydney,NSW,2060,Australia,APAC
4470,201 Miller Street,Level 15,North Sydney,NSW,2060,Australia,APAC
1754,201 Miller Street,Level 15,North Sydney,NSW,2060,Australia,APAC
4544,201 Miller Street,Level 15,North Sydney,NSW,2060,Australia,APAC
1988,201 Miller Street,Level 15,North Sydney,NSW,2060,Australia,APAC
4432,201 Miller Street,Level 15,North Sydney,NSW,2060,Australia,APAC
5955,201 Miller Street,Level 15,North Sydney,NSW,2060,Australia,APAC
5558,201 Miller Street,Level 15,North Sydney,NSW,2060,Australia,APAC
1665,201 Miller Street,Level 15,North Sydney,NSW,2060,Australia,APAC
2814,Kirchgasse 6,,Graz,,8010,Austria,EMEA
1275,Kirchgasse 6,,Graz,,8010,Austria,EMEA
3093,Kirchgasse 6,,Graz,,8010,Austria,EMEA
2450,"C/ Moralzarzal, 86",,Madrid,,28034,Spain,EMEA
1071,"C/ Moralzarzal, 86",,Madrid,,28034,Spain,EMEA
5797,"C/ Moralzarzal, 86",,Madrid,,28034,Spain,EMEA
3190,"C/ Moralzarzal, 86",,Madrid,,28034,Spain,EMEA
3351,"C/ Moralzarzal, 86",,Madrid,,28034,Spain,EMEA
5381,"C/ Moralzarzal, 86",,Madrid,,28034,Spain,EMEA
5519,"C/ Moralzarzal, 86",,Madrid,,28034,Spain,EMEA
4484,27 rue du Colonel Pierre Avia,,Paris,,75508,France,EMEA
3084,27 rue du Colonel Pierre Avia,,Paris,,75508,France,EMEA
1096,27 rue du Colonel Pierre Avia,,Paris,,75508,France,EMEA
4240,27 rue du Colonel Pierre Avia,,Paris,,75508,France,EMEA
2406,5677 Strong St.,,San Rafael,CA,97562,USA,NA
1809,5677 Strong St.,,San Rafael,CA,97562,USA,NA
2799,5677 Strong St.,,San Rafael,CA,97562,USA,NA
3511,5677 Strong St.,,San Rafael,CA,97562,USA,NA
4040,5677 Strong St.,,San Rafael,CA,97562,USA,NA
2395,5677 Strong St.,,San Rafael,CA,97562,USA,NA
5909,5677 Strong St.,,San Rafael,CA,97562,USA,NA
4868,5677 Strong St.,,San Rafael,CA,97562,USA,NA
1095,1 rue Alsace-Lorraine,,Toulouse,,31000,France,EMEA
5931,1 rue Alsace-Lorraine,,Toulouse,,31000,France,EMEA
1946,1 rue Alsace-Lorraine,,Toulouse,,31000,France,EMEA
3326,1 rue Alsace-Lorraine,,Toulouse,,31000,France,EMEA
1924,1 rue Alsace-Lorraine,,Toulouse,,31000,France,EMEA
3058,59 rue de l'Abbaye,,Reims,,51100,France,EMEA
4666,59 rue de l'Abbaye,,Reims,,51100,France,EMEA
1752,59 rue de l'Abbaye,,Reims,,51100,France,EMEA
5154,59 rue de l'Abbaye,,Reims,,51100,France,EMEA
4938,59 rue de l'Abbaye,,Reims,,51100,France,EMEA
5066,59 rue de l'Abbaye,,Reims,,51100,France,EMEA
2751,59 rue de l'Abbaye,,Reims,,51100,France,EMEA
2319,59 rue de l'Abbaye,,Reims,,51100,France,EMEA
3273,59 rue de l'Abbaye,,Reims,,51100,France,EMEA
5204,59 rue de l'Abbaye,,Reims,,51100,France,EMEA
2148,59 rue de l'Abbaye,,Reims,,51100,France,EMEA
2207,59 rue de l'Abbaye,,Reims,,51100,France,EMEA
2679,59 rue de l'Abbaye,,Reims,,51100,France,EMEA
3848,59 rue de l'Abbaye,,Reims,,51100,France,EMEA
4247,59 rue de l'Abbaye,,Reims,,51100,France,EMEA
3497,59 rue de l'Abbaye,,Reims,,51100,France,EMEA
1999,59 rue de l'Abbaye,,Reims,,51100,France,EMEA
4070,59 rue de l'Abbaye,,Reims,,51100,France,EMEA
3645,3086 Ingle Ln.,,San Jose,CA,94217,USA,NA
2754,3086 Ingle Ln.,,San Jose,CA,94217,USA,NA
5614,3086 Ingle Ln.,,San Jose,CA,94217,USA,NA
3126,3086 Ingle Ln.,,San Jose,CA,94217,USA,NA
5313,3086 Ingle Ln.,,San Jose,CA,94217,USA,NA
3908,3086 Ingle Ln.,,San Jose,CA,94217,USA,NA
4783,3086 Ingle Ln.,,San Jose,CA,94217,USA,NA
2410,3086 Ingle Ln.,,San Jose,CA,94217,USA,NA
4149,3086 Ingle Ln.,,San Jose,CA,94217,USA,NA
3840,7476 Moss Rd.,,Newark,NJ,94019,USA,NA
3523,7476 Moss Rd.,,Newark,NJ,94019,USA,NA
1746,7476 Moss Rd.,,Newark,NJ,94019,USA,NA
2907,7476 Moss Rd.,,Newark,NJ,94019,USA,NA
4317,7476 Moss Rd.,,Newark,NJ,94019,USA,NA
2468,7476 Moss Rd.,,Newark,NJ,94019,USA,NA
4532,7476 Moss Rd.,,Newark,NJ,94019,USA,NA
1159,7476 Moss Rd.,,Newark,NJ,94019,USA,NA
3819,7476 Moss Rd.,,Newark,NJ,94019,USA,NA
1632,7476 Moss Rd.,,Newark,NJ,94019,USA,NA
1723,7476 Moss Rd.,,Newark,NJ,94019,USA,NA
3519,7476 Moss Rd.,,Newark,NJ,94019,USA,NA
3999,"25, rue Lauriston",,Paris,,75016,France,EMEA
5811,"25, rue Lauriston",,Paris,,75016,France,EMEA
1264,"25, rue Lauriston",,Paris,,75016,France,EMEA
2370,Berkeley Gardens 12  Brewery,,Liverpool,,WX1 6LT,UK,EMEA
5123,Berkeley Gardens 12  Brewery,,Liverpool,,WX1 6LT,UK,EMEA
3313,Berkeley Gardens 12  Brewery,,Liverpool,,WX1 6LT,UK,EMEA
2534,Berkeley Gardens 12  Brewery,,Liverpool,,WX1 6LT,UK,EMEA
1528,Berkeley Gardens 12  Brewery,,Liverpool,,WX1 6LT,UK,EMEA
4280,Berkeley Gardens 12  Brewery,,Liverpool,,WX1 6LT,UK,EMEA
5661,Berkeley Gardens 12  Brewery,,Liverpool,,WX1 6LT,UK,EMEA
3182,Berkeley Gardens 12  Brewery,,Liverpool,,WX1 6LT,UK,EMEA
1110,Berkeley Gardens 12  Brewery,,Liverpool,,WX1 6LT,UK,EMEA
2551,"24, place Kluber",,Strasbourg,,67000,France,EMEA
1824,"24, place Kluber",,Strasbourg,,67000,France,EMEA
3441,"24, place Kluber",,Strasbourg,,67000,France,EMEA
3123,"24, place Kluber",,Strasbourg,,67000,France,EMEA
2322,"24, place Kluber",,Strasbourg,,67000,France,EMEA
4080,Vinb'ltet 34,,Kobenhavn,,1734,Denmark,EMEA
3946,Vinb'ltet 34,,Kobenhavn,,1734,Denmark,EMEA
1057,Vinb'ltet 34,,Kobenhavn,,1734,Denmark,EMEA
3446,3086 Ingle Ln.,,San Jose,CA,94217,USA,NA
3687,3086 Ingle Ln.,,San Jose,CA,94217,USA,NA
4545,3086 Ingle Ln.,,San Jose,CA,94217,USA,NA
4780,3086 Ingle Ln.,,San Jose,CA,94217,USA,NA
5818,3086 Ingle Ln.,,San Jose,CA,94217,USA,NA
2279,3086 Ingle Ln.,,San Jose,CA,94217,USA,NA
2037,3086 Ingle Ln.,,San Jose,CA,94217,USA,NA
5815,3086 Ingle Ln.,,San Jose,CA,94217,USA,NA
4082,3086 Ingle Ln.,,San Jose,CA,94217,USA,NA
1748,3086 Ingle Ln.,,San Jose,CA,94217,USA,NA
5991,3086 Ingle Ln.,,San Jose,CA,94217,USA,NA
5552,3086 Ingle Ln.,,San Jose,CA,94217,USA,NA
4699,2-2-8 Roppongi,,Minato-ku,Tokyo,106-0032,Japan,Japan
2380,Village Close - 106 Linden Road Sandown,2nd Floor,Singapore,,69045,Singapore,APAC
1560,Village Close - 106 Linden Road Sandown,2nd Floor,Singapore,,69045,Singapore,APAC
5375,43 rue St. Laurent,,Montreal,Quebec,H1J 1C3,Canada,NA
3630,43 rue St. Laurent,,Montreal,Quebec,H1J 1C3,Canada,NA
2703,43 rue St. Laurent,,Montreal,Quebec,H1J 1C3,Canada,NA
3601,43 rue St. Laurent,,Montreal,Quebec,H1J 1C3,Canada,NA
5798,43 rue St. Laurent,,Montreal,Quebec,H1J 1C3,Canada,NA
2955,43 rue St. Laurent,,Montreal,Quebec,H1J 1C3,Canada,NA
4496,43 rue St. Laurent,,Montreal,Quebec,H1J 1C3,Canada,NA
1558,43 rue St. Laurent,,Montreal,Quebec,H1J 1C3,Canada,NA
5553,43 rue St. Laurent,,Montreal,Quebec,H1J 1C3,Canada,NA
3052,"C/ Moralzarzal, 86",,Madrid,,28034,Spain,EMEA
5306,"C/ Moralzarzal, 86",,Madrid,,28034,Spain,EMEA
5307,"C/ Moralzarzal, 86",,Madrid,,28034,Spain,EMEA
3386,"C/ Moralzarzal, 86",,Madrid,,28034,Spain,EMEA
2973,"C/ Moralzarzal, 86",,Madrid,,28034,Spain,EMEA
2684,"C/ Moralzarzal, 86",,Madrid,,28034,Spain,EMEA
2621,"C/ Moralzarzal, 86",,Madrid,,28034,Spain,EMEA
2543,"C/ Moralzarzal, 86",,Madrid,,28034,Spain,EMEA
1078,"C/ Moralzarzal, 86",,Madrid,,28034,Spain,EMEA
2210,"C/ Moralzarzal, 86",,Madrid,,28034,Spain,EMEA
5290,"C/ Moralzarzal, 86",,Madrid,,28034,Spain,EMEA
1860,25593 South Bay Ln.,,Bridgewater,CT,97562,USA,NA
3919,25593 South Bay Ln.,,Bridgewater,CT,97562,USA,NA
4819,25593 South Bay Ln.,,Bridgewater,CT,97562,USA,NA
2449,25593 South Bay Ln.,,Bridgewater,CT,97562,USA,NA
4793,25593 South Bay Ln.,,Bridgewater,CT,97562,USA,NA
3350,25593 South Bay Ln.,,Bridgewater,CT,97562,USA,NA
4306,8616 Spinnaker Dr.,,Boston,MA,51003,USA,NA
5584,8616 Spinnaker Dr.,,Boston,MA,51003,USA,NA
2261,8616 Spinnaker Dr.,,Boston,MA,51003,USA,NA
2063,8616 Spinnaker Dr.,,Boston,MA,51003,USA,NA
3428,8616 Spinnaker Dr.,,Boston,MA,51003,USA,NA
2263,8616 Spinnaker Dr.,,Boston,MA,51003,USA,NA
3353,8616 Spinnaker Dr.,,Boston,MA,51003,USA,NA
4866,8616 Spinnaker Dr.,,Boston,MA,51003,USA,NA
4652,8616 Spinnaker Dr.,,Boston,MA,51003,USA,NA
3792,8616 Spinnaker Dr.,,Boston,MA,51003,USA,NA
5567,8616 Spinnaker Dr.,,Boston,MA,51003,USA,NA
4954,8616 Spinnaker Dr.,,Boston,MA,51003,USA,NA
2990,8616 Spinnaker Dr.,,Boston,MA,51003,USA,NA
3833,8616 Spinnaker Dr.,,Boston,MA,51003,USA,NA
4715,7 Allen Street,,Glen Waverly,Victoria,3150,Australia,APAC
4610,7 Allen Street,,Glen Waverly,Victoria,3150,Australia,APAC
3897,7 Allen Street,,Glen Waverly,Victoria,3150,Australia,APAC
3408,7 Allen Street,,Glen Waverly,Victoria,3150,Australia,APAC
3476,7 Allen Street,,Glen Waverly,Victoria,3150,Australia,APAC
2974,Strada Provinciale 124,,Reggio Emilia,,42100,Italy,EMEA
1240,Strada Provinciale 124,,Reggio Emilia,,42100,Italy,EMEA
1763,Strada Provinciale 124,,Reggio Emilia,,42100,Italy,EMEA
4473,Strada Provinciale 124,,Reggio Emilia,,42100,Italy,EMEA
2326,Strada Provinciale 124,,Reggio Emilia,,42100,Italy,EMEA
1818,Strada Provinciale 124,,Reggio Emilia,,42100,Italy,EMEA
3921,Strada Provinciale 124,,Reggio Emilia,,42100,Italy,EMEA
3395,Strada Provinciale 124,,Reggio Emilia,,42100,Italy,EMEA
4580,Strada Provinciale 124,,Reggio Emilia,,42100,Italy,EMEA
4204,Strada Provinciale 124,,Reggio Emilia,,42100,Italy,EMEA
1012,Strada Provinciale 124,,Reggio Emilia,,42100,Italy,EMEA
2093,Strada Provinciale 124,,Reggio Emilia,,42100,Italy,EMEA
3108,Strada Provinciale 124,,Reggio Emilia,,42100,Italy,EMEA
3721,Strada Provinciale 124,,Reggio Emilia,,42100,Italy,EMEA
2590,"C/ Moralzarzal, 86",,Madrid,,28034,Spain,EMEA
5990,"C/ Moralzarzal, 86",,Madrid,,28034,Spain,EMEA
4576,"C/ Moralzarzal, 86",,Madrid,,28034,Spain,EMEA
5749,"C/ Moralzarzal, 86",,Madrid,,28034,Spain,EMEA
3252,"C/ Moralzarzal, 86",,Madrid,,28034,Spain,EMEA
3188,"C/ Moralzarzal, 86",,Madrid,,28034,Spain,EMEA
5880,Geislweg 14,,Salzburg,,5020,Austria,EMEA
1718,Geislweg 14,,Salzburg,,5020,Austria,EMEA
1181,Geislweg 14,,Salzburg,,5020,Austria,EMEA
3960,Geislweg 14,,Salzburg,,5020,Austria,EMEA
4118,Geislweg 14,,Salzburg,,5020,Austria,EMEA
2379,Geislweg 14,,Salzburg,,5020,Austria,EMEA
3581,Geislweg 14,,Salzburg,,5020,Austria,EMEA
4032,Geislweg 14,,Salzburg,,5020,Austria,EMEA
2566,Geislweg 14,,Salzburg,,5020,Austria,EMEA
1290,Geislweg 14,,Salzburg,,5020,Austria,EMEA
1350,Geislweg 14,,Salzburg,,5020,Austria,EMEA
5532,Geislweg 14,,Salzburg,,5020,Austria,EMEA
4260,Geislweg 14,,Salzburg,,5020,Austria,EMEA
1571,Geislweg 14,,Salzburg,,5020,Austria,EMEA
5300,"Monitor Money Building, 815 Pacific Hwy",Level 6,Chatswood,NSW,2067,Australia,APAC
5105,"Monitor Money Building, 815 Pacific Hwy",Level 6,Chatswood,NSW,2067,Australia,APAC
5176,"Monitor Money Building, 815 Pacific Hwy",Level 6,Chatswood,NSW,2067,Australia,APAC
3735,5677 Strong St.,,San Rafael,CA,97562,USA,NA
1769,"Monitor Money Building, 815 Pacific Hwy",Level 6,Chatswood,NSW,2067,Australia,APAC
3130,"Monitor Money Building, 815 Pacific Hwy",Level 6,Chatswood,NSW,2067,Australia,APAC
1452,"Monitor Money Building, 815 Pacific Hwy",Level 6,Chatswood,NSW,2067,Australia,APAC
2043,"Monitor Money Building, 815 Pacific Hwy",Level 6,Chatswood,NSW,2067,Australia,APAC
5970,"Monitor Money Building, 815 Pacific Hwy",Level 6,Chatswood,NSW,2067,Australia,APAC
4157,5677 Strong St.,,San Rafael,CA,97562,USA,NA
3218,"Monitor Money Building, 815 Pacific Hwy",Level 6,Chatswood,NSW,2067,Australia,APAC
3295,"Monitor Money Building, 815 Pacific Hwy",Level 6,Chatswood,NSW,2067,Australia,APAC
5133,"Monitor Money Building, 815 Pacific Hwy",Level 6,Chatswood,NSW,2067,Australia,APAC
3381,"Monitor Money Building, 815 Pacific Hwy",Level 6,Chatswood,NSW,2067,Australia,APAC
4760,"Monitor Money Building, 815 Pacific Hwy",Level 6,Chatswood,NSW,2067,Australia,APAC
4274,7586 Pompton St.,,Allentown,PA,70267,USA,NA
4770,7586 Pompton St.,,Allentown,PA,70267,USA,NA
5573,Rue Joseph-Bens 532,,Bruxelles,,B-1180,Belgium,EMEA
5112,Rue Joseph-Bens 532,,Bruxelles,,B-1180,Belgium,EMEA
2398,Rue Joseph-Bens 532,,Bruxelles,,B-1180,Belgium,EMEA
2626,Rue Joseph-Bens 532,,Bruxelles,,B-1180,Belgium,EMEA
1491,Rue Joseph-Bens 532,,Bruxelles,,B-1180,Belgium,EMEA
1367,"C/ Moralzarzal, 86",,Madrid,,28034,Spain,EMEA
3356,"67, rue des Cinquante Otages",,Nantes,,44000,France,EMEA
4014,"C/ Moralzarzal, 86",,Madrid,,28034,Spain,EMEA
2948,"67, rue des Cinquante Otages",,Nantes,,44000,France,EMEA
1971,"C/ Moralzarzal, 86",,Madrid,,28034,Spain,EMEA
4133,"67, rue des Cinquante Otages",,Nantes,,44000,France,EMEA
3348,"67, rue des Cinquante Otages",,Nantes,,44000,France,EMEA
3760,"67, rue des Cinquante Otages",,Nantes,,44000,France,EMEA
4261,"67, rue des Cinquante Otages",,Nantes,,44000,France,EMEA
3424,"67, rue des Cinquante Otages",,Nantes,,44000,France,EMEA
4016,"C/ Moralzarzal, 86",,Madrid,,28034,Spain,EMEA
5694,"67, rue des Cinquante Otages",,Nantes,,44000,France,EMEA
2015,"67, rue des Cinquante Otages",,Nantes,,44000,France,EMEA
3257,"67, rue des Cinquante Otages",,Nantes,,44000,France,EMEA
5413,"67, rue des Cinquante Otages",,Nantes,,44000,France,EMEA
3849,"67, rue des Cinquante Otages",,Nantes,,44000,France,EMEA
5106,"C/ Moralzarzal, 86",,Madrid,,28034,Spain,EMEA
3320,"67, rue des Cinquante Otages",,Nantes,,44000,France,EMEA
1575,"C/ Moralzarzal, 86",,Madrid,,28034,Spain,EMEA